{
    "country_code": "FR",
    "isSEPAcountry": true,
    "ISO_3166_1": { "name": "France" , "name_fr": "France (la)" , "alpha2": "FR" , "alpha3": "FRA" , "numeric": 250 },
    "list": [
{"id":10008,"swift_code":"CEQFFR21XXX","bank_code":10008,"bank":"CM CIC LEASING SOLUTIONS","branch_code":0,"zip":"92988","city":"PARIS LA DEFENSE CEDEX","address":"17 B PL DES REFLETS"},
{"id":10050,"swift_code":"SORFRER1XXX","bank_code":10050,"bank":"STE REUNIONNAISE DE FINANCEMENT SOREFI","branch_code":0,"zip":"97438","city":"SAINTE MARIE","address":"5 RUE ANDRE LARDY"},
{"id":10057,"swift_code":"CMCIFRPPXXX","bank_code":10057,"bank":"BANQUE CIC SUD OUEST","branch_code":0,"support_codes":15},
{"id":10088,"swift_code":"SPPCFRP1XXX","bank_code":10088,"bank":"STE PROMO ET PART PR COOP ECO - PROPARCO","branch_code":0,"zip":"75001","city":"PARIS","address":"151 RUE ST HONORE"},
{"id":10096,"swift_code":"CMCIFRPPXXX","bank_code":10096,"bank":"LYONNAISE DE BANQUE LB","branch_code":0,"support_codes":15},
{"id":10107,"swift_code":"BREDFRPPXXX","bank_code":10107,"bank":"BRED BANQUE POPULAIRE","branch_code":0,"zip":"75004","city":"PARIS","address":"8 R ST ANTOINE","support_codes":15},
{"id":10128,"swift_code":"BCITFRPPXXX","bank_code":10128,"bank":"INTESA SANPAOLO SPA","branch_code":0,"zip":"75002","city":"PARIS","address":"18 RUE DU QUATRE SEPTEMBRE","support_codes":15},
{"id":10178,"swift_code":"CCBPFRPPCHX","bank_code":10178,"bank":"BANQUE CHAIX","branch_code":0,"zip":"84027","city":"AVIGNON CEDEX 1","address":"135 AV PIERRE SEMARD","support_codes":15},
{"id":10188,"swift_code":"BCHAFR21XXX","bank_code":10188,"bank":"BANQUE CHALUS","branch_code":0,"zip":"63002","city":"CLERMONT FERRAND CEDEX 1","address":"5 PL DE JAUDE","support_codes":15},
{"id":10206,"swift_code":"AGRIFRPP802","bank_code":10206,"bank":"CRCAM DU NORD EST","branch_code":0,"zip":"51100","city":"REIMS","address":"25 R LIBERGIER","support_codes":15},
{"id":10207,"swift_code":"CCBPFRPPMTG","bank_code":10207,"bank":"BANQUE POPULAIRE RIVES DE PARIS","branch_code":0,"zip":"92120","city":"MONTROUGE","address":"55 AV ARISTIDE BRIAND","support_codes":15},
{"id":10218,"swift_code":"RABOFRPPXXX","bank_code":10218,"bank":"COOPERATIEVE RABOBANK UA","branch_code":0,"zip":"75008","city":"PARIS","address":"5 RUE DE LA BAUME"},
{"id":10228,"swift_code":"LAYDFR2WXXX","bank_code":10228,"bank":"BANQUE LAYDERNIER","branch_code":0,"zip":"73100","city":"AIX LES BAINS","address":"10 PL CARNOT","support_codes":15},
{"id":10268,"swift_code":"COURFR2TXXX","bank_code":10268,"bank":"BANQUE COURTOIS","branch_code":0,"zip":"31000","city":"TOULOUSE","address":"13 R DES FLEURS","support_codes":15},
{"id":10278,"swift_code":"CMCIFR2AXXX","bank_code":10278,"bank":"CAISSE FEDERALE DE CREDIT MUTUEL","branch_code":0,"zip":"67913","city":"STRASBOURG CEDEX 9","address":"4 RUE RAIFFEISEN","support_codes":15},
{"id":10323,"swift_code":"MLIBFRP1XXX","bank_code":10323,"bank":"MERRILL LYNCH INTERNATIONAL BANK","branch_code":0,"zip":"75761","city":"PARIS CEDEX 16","address":"112 AV KLEBER"},
{"id":10423,"swift_code":"RBOSFRPPXXX","bank_code":10423,"bank":"THE ROYAL BANK OF SCOTLAND PLC PARIS BRANCH","branch_code":0,"zip":"75008","city":"PARIS","address":"8 R LAVOISIER"},
{"id":10468,"swift_code":"RALPFR2GXXX","bank_code":10468,"bank":"BANQUE RHONE ALPES","branch_code":0,"zip":"71000","city":"MACON","address":"238 QUAI LAMARTINE","support_codes":15},
{"id":10548,"swift_code":"BSAVFR2CXXX","bank_code":10548,"bank":"BANQUE DE SAVOIE","branch_code":0,"zip":"73001","city":"CHAMBERY CEDEX","address":"6 BD DU THEATRE","support_codes":15},
{"id":10550,"swift_code":"DAFRFR21XXX","bank_code":10550,"bank":"MERCEDES BENZ FINANCIAL SERVICES FR SA","branch_code":0,"zip":"78180","city":"MONTIGNY LE BRETONNEUX","address":"7 AV NICEPHORE NIEPCE"},
{"id":10558,"swift_code":"TARNFR2LXXX","bank_code":10558,"bank":"BANQUE TARNEAUD","branch_code":0,"zip":"87000","city":"LIMOGES","address":"2 6 R TURGOT","support_codes":15},
{"id":10638,"swift_code":"CCBPFRPP555","bank_code":10638,"bank":"CREDIT COMMERCIAL DU SUD OUEST","branch_code":0,"support_codes":15},
{"id":10800,"swift_code":"LOAAFR21XXX","bank_code":10800,"bank":"LOCAM LOCATION AUTOMOBILES MATERIEL SAS","branch_code":0,"zip":"42000","city":"ST ETIENNE","address":"29 RUE LEON BLUM"},
{"id":10807,"swift_code":"CCBPFRPPDJN","bank_code":10807,"bank":"BANQUE POPULAIRE BOURGOGNE FRANCHE COMTE","branch_code":0,"zip":"25000","city":"BESANCON","address":"1 PL DE LA 1ERE ARMEE FRANCAISE","support_codes":15},
{"id":10820,"swift_code":"FRUCFRP1XXX","bank_code":10820,"bank":"FRUCTIBAIL","branch_code":0,"zip":"75013","city":"PARIS","address":"30 AV PIERRE MENDES FRANCE"},
{"id":10890,"swift_code":"FACIFRPPXXX","bank_code":10890,"bank":"FACTOBAIL","branch_code":0,"zip":"92988","city":"PARIS","address":"18 RUE HOCHE"},
{"id":10900,"swift_code":"DIFFFRP1XXX","bank_code":10900,"bank":"DIFFUCO","branch_code":0,"zip":"75008","city":"PARIS","address":"102 AV DES CHAMPS ELYSEES"},
{"id":10907,"swift_code":"CCBPFRPPBDX","bank_code":10907,"bank":"BANQUE POP AQUITAINE CENTRE ATLANTIQUE","branch_code":0,"zip":"33000","city":"BORDEAUX","address":"3 ALLEE DE TOURNY","support_codes":15},
{"id":10918,"swift_code":"CHDUFRPPXXX","bank_code":10918,"bank":"CHOLET DUPONT","branch_code":0,"zip":"75008","city":"PARIS","address":"16 PL DE LA MADELEINE","support_codes":7},
{"id":10930,"swift_code":"FRGNFR21XXX","bank_code":10930,"bank":"FONDS REGIONAL GARANTIE HAUTS DE FRANCE","branch_code":0,"zip":"59800","city":"LILLE","address":"22 RUE BASSE"},
{"id":11006,"swift_code":"AGRIFRPP810","bank_code":11006,"bank":"CRCAM DE CHAMPAGNE BOURGOGNE","branch_code":0,"zip":"10160","city":"AIX VILLEMAUR PALIS","address":"22 RUE PIERRE BROSSOLETTE","support_codes":15},
{"id":11008,"swift_code":"ESSEFRPXXXX","bank_code":11008,"bank":"SKANDINAVISKA ENSKILDA BANKEN","branch_code":0},
{"id":11078,"swift_code":"BIIOFR21XXX","bank_code":11078,"bank":"BAIL ACTEA IMMOBILIER","branch_code":0,"zip":"59000","city":"LILLE","address":"4 PL RICHEBE"},
{"id":11128,"swift_code":"NALEFRP1XXX","bank_code":11128,"bank":"BPCE LEASE","branch_code":0,"zip":"75013","city":"PARIS","address":"30 AV PIERRE MENDES FRANCE"},
{"id":11138,"swift_code":"NATXFRPPXXX","bank_code":11138,"bank":"BPCE FACTOR","branch_code":0,"zip":"75013","city":"PARIS","address":"50 AV PIERRE MENDES FRANCE","support_codes":15},
{"id":11140,"swift_code":"SSEEFR21XXX","bank_code":11140,"bank":"SEDEF (STE EUROP DE DEV DU FINT)","branch_code":0,"zip":"91300","city":"MASSY","address":"3 RUE DU CDT COUSTEAU"},
{"id":11188,"swift_code":"RCINFRPPXXX","bank_code":11188,"bank":"RCI BANQUE","branch_code":0,"zip":"93168","city":"NOISY LE GRAND","address":"14 AV DU PAVE NEUF","support_codes":1},
{"id":11190,"swift_code":"CGLLFRP1XXX","bank_code":11190,"bank":"CSSE GARANTIE DU LOGEMENT LOCATIF SOCIAL","branch_code":0,"zip":"75579","city":"PARIS CEDEX 12","address":"10 AV LEDRU ROLLIN"},
{"id":11206,"swift_code":"AGRIFRPP812","bank_code":11206,"bank":"CRCAM NORD MIDI PYRENEES","branch_code":0,"zip":"12500","city":"ESPALION","address":"9-11 BD JOSEPH POULENC","support_codes":15},
{"id":11210,"swift_code":"RGFIFRPPXXX","bank_code":11210,"bank":"BANQUE DE REALISATIONS DE GEST ET DE FIN","branch_code":0,"zip":"92110","city":"CLICHY","address":"41 RUE MARTRE"},
{"id":11230,"swift_code":"CONOFRP1XXX","bank_code":11230,"bank":"LASER COFINOGA","branch_code":0,"zip":"75449","city":"PARIS CEDEX 09","address":"18 RUE DE LONDRES"},
{"id":11238,"swift_code":"SWILFRPPXXX","bank_code":11238,"bank":"SWISSLIFE BANQUE PRIVEE","branch_code":0,"zip":"75001","city":"PARIS","address":"7 PL VENDOME","support_codes":7},
{"id":11306,"swift_code":"AGRIFRPP813","bank_code":11306,"bank":"CRCAM ALPES PROVENCE","branch_code":0,"zip":"13635","city":"ARLES CEDEX","address":"ESPLANADE DES LICES","support_codes":15},
{"id":11307,"swift_code":"CCBPFRPPCAS","bank_code":11307,"bank":"CASDEN BANQUE POPULAIRE","branch_code":0,"zip":"77420","city":"CHAMPS SUR MARNE","address":"1 BIS RUE JEAN WIENER","support_codes":15},
{"id":11315,"swift_code":"CEPAFRPP131","bank_code":11315,"bank":"CAISSE D EPARGNE CEPAC","branch_code":0,"zip":"13254","city":"MARSEILLE CEDEX 06","address":"PL ESTRANGIN PASTRE","support_codes":15},
{"id":11380,"swift_code":"CRRHFRP1XXX","bank_code":11380,"bank":"C R H CAISSE DE REFINANCEMENT HABITAT","branch_code":0,"zip":"75008","city":"PARIS","address":"3 RUE LA BOETIE"},
{"id":11408,"swift_code":"WAFTWF21XXX","bank_code":11408,"bank":"BANQUE DE WALLIS ET FUTUNA SA","branch_code":0,"zip":"98600","city":"MATA UTU","address":"ROUTE DE KAFI KA","support_codes":15},
{"id":11425,"swift_code":"CEPAFRPP142","bank_code":11425,"bank":"CAISSE D EPARGNE NORMANDIE","branch_code":0,"zip":"14000","city":"CAEN","address":"7 RUE DU COLONEL REMY","support_codes":15},
{"id":11438,"swift_code":"HRFRFRP1XXX","bank_code":11438,"bank":"BANQUE HOTTINGUER","branch_code":0,"zip":"75009","city":"PARIS","address":"63 RUE DE LA VICTOIRE","support_codes":15},
{"id":11449,"swift_code":"BDEIFRPPXXX","bank_code":11449,"bank":"BANQUE FIDUCIAL","branch_code":0,"zip":"75008","city":"PARIS","address":"20 RUE TREILHARD","support_codes":15},
{"id":11468,"swift_code":"PAIMFRP1XXX","bank_code":11468,"bank":"BANQUE PATRIMOINE ET IMMOBILIER (B P I)","branch_code":0,"zip":"75008","city":"PARIS","address":"4 RUE DU GENERAL FOY"},
{"id":11470,"swift_code":"COCNFRP1XXX","bank_code":11470,"bank":"NATIXIS COFICINE","branch_code":0,"zip":"75116","city":"PARIS","address":"6 RUE DE L AMIRAL HAMELIN"},
{"id":11490,"swift_code":"INRFFRP1XXX","bank_code":11490,"bank":"INTERFIMO","branch_code":0,"zip":"75007","city":"PARIS","address":"46 BD DE LA TOUR MAUBOURG"},
{"id":11518,"swift_code":"SBOSFRP1XXX","bank_code":11518,"bank":"STATE STREET BANQUE SA","branch_code":0,"zip":"92800","city":"PUTEAUX","address":"23 25 R DELARIVIERE LEFOULLON"},
{"id":11550,"swift_code":"CCUOFR21XXX","bank_code":11550,"bank":"CSSE CIT MUNICIPAL DE TOULOUSE","branch_code":0,"zip":"31000","city":"TOULOUSE","address":"10 RUE URBAIN VITRY"},
{"id":11600,"swift_code":"CMCIFRPPXXX","bank_code":11600,"bank":"CREDIT MUTUEL-CIC BANQUES","branch_code":0,"zip":"75009","city":"PARIS","address":"48 R DES PETITS CHAMPS","support_codes":15},
{"id":11628,"swift_code":"CMCIFR2AXXX","bank_code":11628,"bank":"LYF","branch_code":0,"zip":"67000","city":"STRASBOURG","address":"34 RUE DU WACKEN","support_codes":15},
{"id":11678,"swift_code":"LLLSFRP1XXX","bank_code":11678,"bank":"DE LAGE LANDEN LEASING SAS","branch_code":0,"zip":"93350","city":"LE BOURGET","address":"53 AV JEAN JAURES"},
{"id":11689,"swift_code":"CITIFRPPXXX","bank_code":11689,"bank":"CITIBANK EUROPE PUBLIC LIMITED COMPANY","branch_code":0,"zip":"33000","city":"BORDEAUX","address":"202 R D ORNANO","support_codes":15},
{"id":11706,"swift_code":"AGRIFRPP817","bank_code":11706,"bank":"CRCAM CHARENTE MARITIME DEUX SEVRES","branch_code":0,"zip":"79600","city":"AIRVAULT","address":"31 RUE DE LA GENDARMERIE","support_codes":15},
{"id":11720,"swift_code":"HEEFFRP1XXX","bank_code":11720,"bank":"HSBC EPARGNE ENTREPRISE (FRANCE)","branch_code":0,"zip":"75008","city":"PARIS","address":"15 RUE VERNET"},
{"id":11729,"swift_code":"BNPAGFGXXXX","bank_code":11729,"bank":"BNP PARIBAS GUYANE","branch_code":0,"zip":"97300","city":"CAYENNE","address":"2 PL VICTOR SCHOELCHER"},
{"id":11749,"swift_code":"BDILPMPMXXX","bank_code":11749,"bank":"BANQUE DE SAINT PIERRE ET MIQUELON","branch_code":0,"zip":"97500","city":"SAINT PIERRE ET MIQUELON","address":"24 RUE DU 11 NOVEMBRE"},
{"id":11778,"swift_code":"CDMAFRPXXXX","bank_code":11778,"bank":"CREDIT DU MAROC","branch_code":0,"zip":"75017","city":"PARIS","address":"13 AV DE CLICHY"},
{"id":11790,"swift_code":"COFEFR2PXXX","bank_code":11790,"bank":"COFACREDIT","branch_code":0,"zip":"92400","city":"COURBEVOIE","address":"17 B PL DES REFLETS","support_codes":1},
{"id":11808,"swift_code":"CMCIFRPAXXX","bank_code":11808,"bank":"BANQUE FEDERATIVE DU CREDIT MUTUEL","branch_code":0,"zip":"67000","city":"STRASBOURG","address":"34 R DU WACKEN","support_codes":15},
{"id":11818,"swift_code":"CODFFRP1XXX","bank_code":11818,"bank":"GE COMMERCIAL DISTRIBUTION FINANCE","branch_code":0,"zip":"92800","city":"PUTEAUX","address":"23 27 R DELARIVIERE LEFOULLON"},
{"id":11830,"swift_code":"INOOFR21XXX","bank_code":11830,"bank":"INTER COOP","branch_code":0,"zip":"92000","city":"NANTERRE","address":"12 BD PESARO"},
{"id":11833,"swift_code":"ICBKFRPPXXX","bank_code":11833,"bank":"INDUSTRIAL AND COM BANK CHIN (EUROPE) SA","branch_code":0,"zip":"75008","city":"PARIS","address":"73 BD HAUSSMANN","support_codes":15},
{"id":11899,"swift_code":"CMCIFR2AXXX","bank_code":11899,"bank":"BANQUE EUROPEENNE DU CREDIT MUTUEL","branch_code":0,"zip":"67913","city":"STRASBOURG CEDEX 9","address":"6 RUE DE BERNE","support_codes":15},
{"id":11907,"swift_code":"CCBPFRPPCFD","bank_code":11907,"bank":"BANQUE POPULAIRE DU MASSIF CENTRAL","branch_code":0,"support_codes":15},
{"id":11938,"swift_code":"AGFCFR21XXX","bank_code":11938,"bank":"AGCO FINANCE","branch_code":0,"zip":"60007","city":"BEAUVAIS CEDEX","address":"41 AV BLAISE PASCAL"},
{"id":11960,"swift_code":"CGFFFR21XXX","bank_code":11960,"bank":"CIT GROUP FINANCE (FRANCE) SNC","branch_code":0,"zip":"92500","city":"RUEIL MALMAISON","address":"8 RUE EUGENE ET ARMAND PEUGEOT"},
{"id":11978,"swift_code":"CMCIFRPPXXX","bank_code":11978,"bank":"CREDIT MUTUEL FACTORING","branch_code":0,"zip":"92988","city":"PARIS LA DEFENSE CEDEX","address":"17 B PL DES REFLETS","support_codes":15},
{"id":11989,"swift_code":"POUYFR21XXX","bank_code":11989,"bank":"BANQUE POUYANNE","branch_code":0,"zip":"64300","city":"ORTHEZ","address":"12 PL D ARMES","support_codes":15},
{"id":12006,"swift_code":"AGRIFRPP820","bank_code":12006,"bank":"CRCAM DE LA CORSE","branch_code":0,"zip":"20000","city":"AJACCIO","address":"AV DU 1ER CONSUL","support_codes":15},
{"id":12008,"swift_code":"SOSTFR21XXX","bank_code":12008,"bank":"SOFISCOP","branch_code":0,"zip":"13001","city":"MARSEILLE","address":"8 RUE DES FABRES"},
{"id":12050,"swift_code":"CMOIFR21XXX","bank_code":12050,"bank":"CREDIT MODERNE OCEAN INDIEN","branch_code":0,"zip":"97490","city":"SAINT DENIS","address":"22 RUE PIERRE AUBERT"},
{"id":12088,"swift_code":"CRGEFR2XXXX","bank_code":12088,"bank":"BANCA CARIGE CASSA RISPARMIO DI GENOVA","branch_code":0,"zip":"06000","city":"NICE","address":"8 RUE MACCARANI"},
{"id":12110,"swift_code":"CMVMFRP1XXX","bank_code":12110,"bank":"CMV MEDIFORCE","branch_code":0,"zip":"75009","city":"PARIS","address":"1 BD HAUSSMANN"},
{"id":12128,"swift_code":"SOPMFRP1XXX","bank_code":12128,"bank":"STE CENTRALE PR FINT IMMOBILIER SOCFIM","branch_code":0,"zip":"75015","city":"PARIS","address":"10 BD DE GRENELLE","support_codes":15},
{"id":12135,"swift_code":"CEPAFRPP213","bank_code":12135,"bank":"CAISSE D EPARGNE BOURGOGNE FRANCHE COMTE","branch_code":0,"zip":"21000","city":"DIJON","address":"1 ROND POINT DE LA NATION","support_codes":15},
{"id":12138,"swift_code":"CAFFFR21XXX","bank_code":12138,"bank":"CATERPILLAR FINANCE FRANCE S.A.","branch_code":0,"zip":"93200","city":"ST DENIS","address":"2 BD DE LA LIBERATION"},
{"id":12149,"swift_code":"BPOLPFTPXXX","bank_code":12149,"bank":"BANQUE DE POLYNESIE","branch_code":0,"zip":"98714","city":"PAPEETE","address":"BD POMARE","support_codes":15},
{"id":12169,"swift_code":"REUBRERXXXX","bank_code":12169,"bank":"BANQUE DE LA REUNION","branch_code":0,"zip":"97400","city":"SAINT DENIS","address":"27 RUE JEAN CHATEL"},
{"id":12179,"swift_code":"BIARFRPPXXX","bank_code":12179,"bank":"BANQUE BIA","branch_code":0,"zip":"75008","city":"PARIS","address":"67 AV FRANKLIN ROOSEVELT","support_codes":15},
{"id":12206,"swift_code":"AGRIFRPP822","bank_code":12206,"bank":"CRCAM DES COTES D ARMOR","branch_code":0,"zip":"22140","city":"BEGARD","address":"19 R DE L HOTEL DE VILLE","support_codes":15},
{"id":12239,"swift_code":"CEPAPFTPXXX","bank_code":12239,"bank":"BANQUE DE TAHITI S.A.","branch_code":0,"zip":"98713","city":"PAPEETE","address":"38 RUE FRANCOIS CARDELLA","support_codes":15},
{"id":12240,"swift_code":"AGFBFRCCXXX","bank_code":12240,"bank":"ALLIANZ BANQUE","branch_code":0,"zip":"92086","city":"PARIS CEDEX","address":"20 PL DE SEINE","support_codes":15},
{"id":12249,"swift_code":"BMCEFRPPXXX","bank_code":12249,"bank":"BMCE BANK INTERNATIONAL PLC","branch_code":0,"zip":"75009","city":"PARIS","address":"3 RUE BOUDREAU","support_codes":15},
{"id":12258,"swift_code":"FISLFR21XXX","bank_code":12258,"bank":"CREDIT IMMOBILIER DE FRANCE SUD OUEST","branch_code":0,"zip":"33000","city":"BORDEAUX","address":"11 COURS DU 30 JUILLET"},
{"id":12280,"swift_code":"SORMFR2NXXX","bank_code":12280,"bank":"SOCRAM BANQUE","branch_code":0,"zip":"79000","city":"NIORT","address":"2 RUE DU 24 FEVRIER","support_codes":15},
{"id":12298,"swift_code":"FRCIFR21XXX","bank_code":12298,"bank":"CREDIT IMMOBILIER DE FRANCE BRETAGNE","branch_code":0,"zip":"35000","city":"RENNES","address":"2 PL DE LA GARE"},
{"id":12308,"swift_code":"CIRNFR21XXX","bank_code":12308,"bank":"CREDIT IMMOBILIER DE FRANCE NORD","branch_code":0,"zip":"59000","city":"LILLE","address":"7 RUE DE TENREMONDE"},
{"id":12338,"swift_code":"FRHBFR21XXX","bank_code":12338,"bank":"CREDIT IMMOBILIER DE FRANCE CENTRE EST","branch_code":0,"zip":"71000","city":"MACON","address":"220 RUE DU KM 400 BB 106"},
{"id":12398,"swift_code":"CIFEFR21XXX","bank_code":12398,"bank":"CREDIT IMMOBILIER FRANCE CENTRE OUEST","branch_code":0,"zip":"86000","city":"POITIERS","address":"11 RUE ALBIN HALLER"},
{"id":12406,"swift_code":"AGRIFRPP824","bank_code":12406,"bank":"CRCAM CHARENTE PERIGORD","branch_code":0,"zip":"24101","city":"BERGERAC","address":"RTE D EYMET","support_codes":15},
{"id":12418,"swift_code":"CIFRFR21XXX","bank_code":12418,"bank":"CREDIT IMMOBILIER DE FRANCE OUEST","branch_code":0,"zip":"44000","city":"NANTES","address":"14 RUE DE LOURMEL"},
{"id":12420,"swift_code":"CCMSFR21XXX","bank_code":12420,"bank":"CSSE CIT MUNICIPAL DE REIMS","branch_code":0,"zip":"51100","city":"REIMS","address":"5 RUE HENRI JADART"},
{"id":12438,"swift_code":"SSFAFRP1XXX","bank_code":12438,"bank":"SOFIAP-STE FINAN PR ACCESSION PROPRIETE","branch_code":0,"zip":"75011","city":"PARIS","address":"7 R DE LA PIERRE LEVEE"},
{"id":12468,"swift_code":"BCGEFR21XXX","bank_code":12468,"bank":"BANQUE CANTONALE DE GENEVE (FRANCE) S A","branch_code":0,"zip":"69001","city":"LYON","address":"20 PL LOUIS PRADEL","support_codes":15},
{"id":12478,"swift_code":"FPLRFR21XXX","bank_code":12478,"bank":"FCE BANK PLC","branch_code":0,"zip":"78100","city":"ST GERMAIN EN LAYE","address":"34 RUE LA CROIX DE FER"},
{"id":12500,"swift_code":"SOIEFR21XXX","bank_code":12500,"bank":"SOCIETE DE FINANCEMENT DE LA MEUNERIE","branch_code":0,"zip":"10400","city":"NOGENT SUR SEINE","address":"QUAI DU GENERAL SARRAIL"},
{"id":12506,"swift_code":"AGRIFRPP825","bank_code":12506,"bank":"CRCAM FRANCHE COMTE","branch_code":0,"zip":"25110","city":"BAUME LES DAMES","address":"14 ESPLANADE DU BREUIL","support_codes":15},
{"id":12508,"swift_code":"GUHEFR21XXX","bank_code":12508,"bank":"BANCO GUIPUZCUANO HENDAYE","branch_code":0,"zip":"64700","city":"HENDAYE","address":"25 BD DU GAL DE GAULLE"},
{"id":12518,"swift_code":"BASKFR21XXX","bank_code":12518,"bank":"KUTXABANK SA","branch_code":0,"zip":"64700","city":"HENDAYE","address":"7 RUE DU PORT"},
{"id":12548,"swift_code":"AXABFRPPXXX","bank_code":12548,"bank":"AXA BANQUE","branch_code":0,"zip":"94120","city":"FONTENAY SOUS BOIS","address":"203 205 RUE CARNOT","support_codes":7},
{"id":12549,"swift_code":"LCNDFRP1XXX","bank_code":12549,"bank":"LOCINDUS S A","branch_code":0,"zip":"75001","city":"PARIS","address":"19 RUE DES CAPUCINES"},
{"id":12558,"swift_code":"VFFFFRP1XXX","bank_code":12558,"bank":"VFS FINANCE FRANCE","branch_code":0,"zip":"92800","city":"PUTEAUX","address":"1 PL DE LA PYRAMIDE"},
{"id":12579,"swift_code":"BPSMFRPPXXX","bank_code":12579,"bank":"BANQUE BCP","branch_code":0,"zip":"75002","city":"PARIS","address":"30 AV DE L OPERA","support_codes":15},
{"id":12589,"swift_code":"BBPIFRPPXXX","bank_code":12589,"bank":"BANCO BPI","branch_code":0,"zip":"75001","city":"PARIS","address":"3 R DE RICHELIEU"},
{"id":12619,"swift_code":"CGDIFRPPXXX","bank_code":12619,"bank":"CAIXA GERAL DE DEPOSITOS S A","branch_code":0,"zip":"75116","city":"PARIS","address":"29 AV KLEBER","support_codes":15},
{"id":12658,"swift_code":"EHSCFR2PXXX","bank_code":12658,"bank":"EULER HERMES CREDIT FRANCE","branch_code":0,"zip":"92048","city":"PARIS LA DEFENSE CEDEX","address":"1 PL DES SAISONS"},
{"id":12670,"swift_code":"SOIBFRP1XXX","bank_code":12670,"bank":"SOCIETE FINANCIERE ET MOBILIERE","branch_code":0,"zip":"75008","city":"PARIS","address":"103 AV DES CHAMPS ELYSEES"},
{"id":12748,"swift_code":"SOSNFR21XXX","bank_code":12748,"bank":"SOGEFINANCEMENT","branch_code":0,"zip":"92724","city":"NANTERRE CEDEX","address":"53 RUE DU PORT"},
{"id":12749,"swift_code":"NABIFRP1XXX","bank_code":12749,"bank":"BPCE BAIL","branch_code":0,"zip":"75013","city":"PARIS","address":"30 AV PIERRE MENDES FRANCE"},
{"id":12779,"swift_code":"BROLFRP1XXX","bank_code":12779,"bank":"BRED COFILEASE","branch_code":0,"zip":"97232","city":"LE LAMENTIN","address":"ZONE DE LA JAMBETTE"},
{"id":12818,"swift_code":"IFCIFRP1XXX","bank_code":12818,"bank":"INST PR FINT CINE ET IND CULT I F C I C","branch_code":0,"zip":"75009","city":"PARIS","address":"41 RUE DE LA CHAUSSEE D ANTIN"},
{"id":12828,"swift_code":"SFEGFR21XXX","bank_code":12828,"bank":"STE FIRE ENTREPRISES DU GARD SOFIGARD","branch_code":0,"zip":"30000","city":"NIMES","address":"13 BIS BD TALABOT"},
{"id":12869,"swift_code":"BACCFR22XXX","bank_code":12869,"bank":"ONEY BANK","branch_code":0,"zip":"59170","city":"CROIX","address":"40 AV DE FLANDRE","support_codes":7},
{"id":12879,"swift_code":"DELUFR22XXX","bank_code":12879,"bank":"BANQUE DELUBAC ET CIE","branch_code":0,"zip":"07160","city":"LE CHEYLARD","address":"16 PL SALEON TERRAS","support_codes":15},
{"id":12906,"swift_code":"AGRIFRPP829","bank_code":12906,"bank":"CRCAM DU FINISTERE","branch_code":0,"zip":"29555","city":"QUIMPER CEDEX 9","address":"7 RTE DU LOCH","support_codes":15},
{"id":12933,"swift_code":"CAIXFRPPXXX","bank_code":12933,"bank":"CAIXABANK","branch_code":0,"zip":"75016","city":"PARIS","address":"2 RUE GOETHE","support_codes":15},
{"id":12938,"swift_code":"SOBOFR21XXX","bank_code":12938,"bank":"SUD OUEST BAIL","branch_code":0,"zip":"75013","city":"PARIS","address":"30 AV PIERRE MENDES FRANCE"},
{"id":12939,"swift_code":"BDUPFR2SXXX","bank_code":12939,"bank":"BANQUE DUPUY DE PARSEVAL","branch_code":0,"zip":"34660","city":"COURNONSEC","address":"210 RUE DE LA BILIERE","support_codes":15},
{"id":12978,"swift_code":"FIGTFRP1XXX","bank_code":12978,"bank":"JCB FINANCE","branch_code":0,"zip":"92000","city":"NANTERRE","address":"12 RUE DU PORT"},
{"id":13018,"swift_code":"BAYLFR21XXX","bank_code":13018,"bank":"BATIROC BRETAGNE PAYS DE LOIRE","branch_code":0,"zip":"44700","city":"ORVAULT","address":"180 TER RTE DE VANNES"},
{"id":13028,"swift_code":"SGFGFRP1XXX","bank_code":13028,"bank":"SOCIETE GESTION FONDS GARANTIE OUTRE MER","branch_code":0,"zip":"75012","city":"PARIS","address":"5 RUE ROLAND BARTHES"},
{"id":13038,"swift_code":"FIEMFRP1XXX","bank_code":13038,"bank":"FIDEM","branch_code":0,"zip":"75009","city":"PARIS","address":"1 BD HAUSSMANN"},
{"id":13070,"swift_code":"CMCIFRPPXXX","bank_code":13070,"bank":"CM CIC BAIL","branch_code":0,"zip":"75009","city":"PARIS","address":"12 R GAILLON","support_codes":15},
{"id":13078,"swift_code":"BNPAGPGXXXX","bank_code":13078,"bank":"BNP PARIBAS GUADELOUPE","branch_code":0,"zip":"97122","city":"BAIE MAHAULT","address":"208 209 CTRE CIAL DESTRELAND"},
{"id":13088,"swift_code":"BNPAMQMXXXX","bank_code":13088,"bank":"BNP PARIBAS ANTILLES GUYANE","branch_code":0,"zip":"97122","city":"BAIE MAHAULT","address":"208 209 CTRE CIAL DESTRELAND","support_codes":15},
{"id":13106,"swift_code":"AGRIFRPP831","bank_code":13106,"bank":"CRCAM DE TOULOUSE 31","branch_code":0,"zip":"31190","city":"AUTERIVE","address":"3 RUE JEAN PROUDHOM","support_codes":15},
{"id":13128,"swift_code":"COAIFRP1XXX","bank_code":13128,"bank":"COFICA BAIL","branch_code":0,"zip":"75009","city":"PARIS","address":"1 BD HAUSSMANN"},
{"id":13135,"swift_code":"CEPAFRPP313","bank_code":13135,"bank":"CAISSE D EPARGNE DE MIDI PYRENEES","branch_code":0,"zip":"31023","city":"TOULOUSE CEDEX 1","address":"10 AV MAXWELL","support_codes":15},
{"id":13148,"swift_code":"CLBQFRCCXXX","bank_code":13148,"bank":"DEXIA CLF BANQUE","branch_code":0,"zip":"92400","city":"COURBEVOIE","address":"1 PASSERELLE DES REFLETS"},
{"id":13149,"swift_code":"EDELFRP1XXX","bank_code":13149,"bank":"BANQUE EDEL SNC","branch_code":0,"zip":"31670","city":"LABEGE","address":"60 RUE BUISSONNIERE","support_codes":15},
{"id":13150,"swift_code":"LIXBFRP1XXX","bank_code":13150,"bank":"LIXXBAIL","branch_code":0,"zip":"92120","city":"MONTROUGE","address":"12 PL DES ETATS UNIS"},
{"id":13158,"swift_code":"FAGFFRP1XXX","bank_code":13158,"bank":"FRANCE ACTIVE GARANTIE FAG S A","branch_code":0,"zip":"93100","city":"MONTREUIL","address":"3 RUE FRANKLIN"},
{"id":13168,"swift_code":"PSABFRPPXXX","bank_code":13168,"bank":"BANQUE PSA FINANCE","branch_code":0,"zip":"92230","city":"GENNEVILLIERS","address":"68 AV GABRIEL PERI"},
{"id":13179,"swift_code":"FIDCFR21XXX","bank_code":13179,"bank":"BANQUE FIDUCIAL","branch_code":0,"zip":"69266","city":"LYON CEDEX 09","address":"38 RUE SERGENT MICHEL BERTHET","support_codes":15},
{"id":13210,"swift_code":"AGRIFRP1LEA","bank_code":13210,"bank":"CREDIT AGRICOLE SA","branch_code":0,"zip":"92861","city":"ISSY LES MOULINEAUX CEDEX 9","address":"12 PL DES ETATS UNIS"},
{"id":13220,"swift_code":"SCREFRP1XXX","bank_code":13220,"bank":"STE COOP RENOVATION EQUIP DU COM SOCOREC","branch_code":0,"zip":"75015","city":"PARIS","address":"77 RUE DE LOURMEL"},
{"id":13259,"swift_code":"KOLBFR21XXX","bank_code":13259,"bank":"BANQUE KOLB","branch_code":0,"zip":"88300","city":"NEUFCHATEAU","address":"1 R JULES FERRY","support_codes":15},
{"id":13298,"swift_code":"CMCIFR2AXXX","bank_code":13298,"bank":"BANQUE COM DU MARCHE NORD EUROPE BCMNE","branch_code":0,"zip":"59777","city":"LILLE","address":"60 BD DE TURIN","support_codes":15},
{"id":13306,"swift_code":"AGRIFRPP833","bank_code":13306,"bank":"CRCAM D AQUITAINE","branch_code":0,"zip":"33290","city":"BLANQUEFORT","address":"8 PL DE L EGLISE","support_codes":15},
{"id":13335,"swift_code":"CEPAFRPP333","bank_code":13335,"bank":"CAISSE EPARG AQUITAINE POITOU CHARENTES","branch_code":0,"zip":"40101","city":"DAX CEDEX","address":"AV DE LA GARE","support_codes":15},
{"id":13369,"swift_code":"BMMMFR2AXXX","bank_code":13369,"bank":"ROTHSCHILD MARTIN MAUREL","branch_code":0,"zip":"13253","city":"MARSEILLE CEDEX 06","address":"43 RUE GRIGNAN","support_codes":15},
{"id":13379,"swift_code":"BMRZFR21XXX","bank_code":13379,"bank":"BANQUE MARZE","branch_code":0,"zip":"07200","city":"AUBENAS","address":"28 BD GAMBETTA","support_codes":15},
{"id":13390,"swift_code":"UFDCFRP1XXX","bank_code":13390,"bank":"UNION FIRE PR DEV ECON CEREAL UNIGRAINS","branch_code":0,"zip":"75016","city":"PARIS","address":"23 AV DE NEUILLY"},
{"id":13400,"swift_code":"FRAEFR21XXX","bank_code":13400,"bank":"FCA CAPITAL FRANCE","branch_code":0,"zip":"78190","city":"TRAPPES","address":"6 RUE NICOLAS COPERNIC"},
{"id":13408,"swift_code":"EUCUFRP1XXX","bank_code":13408,"bank":"EUROPEENNE DE CAUTIONNEMENT S A","branch_code":0,"zip":"75008","city":"PARIS","address":"18 R DE ST PETERSBOURG"},
{"id":13428,"swift_code":"CRESFRPZXXX","bank_code":13428,"bank":"CREDIT SUISSE AG","branch_code":0,"zip":"75016","city":"PARIS","address":"25 AV KLEBER"},
{"id":13485,"swift_code":"CEPAFRPP348","bank_code":13485,"bank":"CAISSE D EPARGNE DU LANGUEDOC ROUSSILLON","branch_code":0,"zip":"34184","city":"MONTPELLIER CEDEX 4","address":"254 RUE MICHEL TEULE","support_codes":15},
{"id":13489,"swift_code":"BNUGFR21XXX","bank_code":13489,"bank":"BANQUE NUGER","branch_code":0,"zip":"63000","city":"CLERMONT FERRAND","address":"5 PL DE L HOSPITAL","support_codes":15},
{"id":13490,"swift_code":"CEEXFRP1XXX","bank_code":13490,"bank":"CENTRAL EXPANSION","branch_code":0,"zip":"75015","city":"PARIS","address":"24 RUE AUGUSTE CHABRIERES"},
{"id":13506,"swift_code":"AGRIFRPP835","bank_code":13506,"bank":"CRCAM DU LANGUEDOC","branch_code":0,"zip":"34000","city":"MONTPELLIER","address":"2 RUE JULES FERRY","support_codes":15},
{"id":13507,"swift_code":"CCBPFRPPLIL","bank_code":13507,"bank":"BANQUE POPULAIRE DU NORD","branch_code":0,"zip":"59430","city":"ST POL SUR MER","address":"PL DU CHEVALIER DE ST POL","support_codes":15},
{"id":13528,"swift_code":"UNCRFRPPXXX","bank_code":13528,"bank":"UNICREDIT SPA","branch_code":0,"zip":"75008","city":"PARIS","address":"117 AV DES CHAMPS ELYSEES"},
{"id":13529,"swift_code":"BPELFR2YXXX","bank_code":13529,"bank":"BANQUE PELLETIER","branch_code":0,"zip":"40108","city":"DAX CEDEX","address":"COURS JULIA AUGUSTA"},
{"id":13538,"swift_code":"FNIFFR21XXX","bank_code":13538,"bank":"FINIFAC","branch_code":0,"zip":"91300","city":"MASSY","address":"93 AV DE PARIS"},
{"id":13539,"swift_code":"BPETFRP1XXX","bank_code":13539,"bank":"BANQUE SOLFEA","branch_code":0,"zip":"75002","city":"PARIS","address":"49 AV DE L OPERA","support_codes":6},
{"id":13540,"swift_code":"FMSHFRP1XXX","bank_code":13540,"bank":"FINANCIERE DU MARCHE SAINT HONORE","branch_code":0,"zip":"75001","city":"PARIS","address":"37 PL DU MARCHE ST HONORE"},
{"id":13558,"swift_code":"AUXFFRP1XXX","bank_code":13558,"bank":"AUXIFIP","branch_code":0,"zip":"92120","city":"MONTROUGE","address":"12 PL DES ETATS UNIS"},
{"id":13579,"swift_code":"BSAOFR21XXX","bank_code":13579,"bank":"BANQUE SAINT OLIVE","branch_code":0,"zip":"69006","city":"LYON","address":"84 R DUGUESCLIN","support_codes":15},
{"id":13580,"swift_code":"FACFFRPPXXX","bank_code":13580,"bank":"FACTOFRANCE","branch_code":0,"zip":"92988","city":"PARIS LA DEFENSE CEDEX","address":"17B PL DES REFLETS","support_codes":1},
{"id":13606,"swift_code":"AGRIFRPP836","bank_code":13606,"bank":"CRCAM D ILLE ET VILAINE","branch_code":0,"zip":"35560","city":"VAL COUESNON","address":"3 AV KLEBER","support_codes":15},
{"id":13607,"swift_code":"CCBPFRPPNIO","bank_code":13607,"bank":"BANQUE POP CENTRE ATLANTIQUE (2E DU NOM)","branch_code":0,"zip":"79002","city":"NIORT","address":"10, AVENUE BUJAULT","support_codes":15},
{"id":13648,"swift_code":"BOFSFRP1XXX","bank_code":13648,"bank":"BANK OF SCOTLAND PLC","branch_code":0,"zip":"75008","city":"PARIS","address":"21 RUE BALZAC"},
{"id":13678,"swift_code":"IFFIFR21XXX","bank_code":13678,"bank":"ABN AMRO ASSET BASED FINANCE N.V.","branch_code":0,"zip":"92532","city":"LEVALLOIS PERRET CEDEX","address":"39 RUE ANATOLE FRANCE"},
{"id":13688,"swift_code":"ISBKFRPPXXX","bank_code":13688,"bank":"ISBANK AG","branch_code":0,"zip":"75009","city":"PARIS","address":"13 PL KOSSUTH"},
{"id":13698,"swift_code":"ESFTFR21XXX","bank_code":13698,"bank":"ESTER FINANCE TITRISATION","branch_code":0,"zip":"92120","city":"MONTROUGE","address":"12 PL DES ETATS UNIS"},
{"id":13728,"swift_code":"COIPFRP1XXX","bank_code":13728,"bank":"COFIPLAN S A","branch_code":0,"zip":"75009","city":"PARIS","address":"1 BD HAUSSMANN"},
{"id":13733,"swift_code":"BNYMFRPPXXX","bank_code":13733,"bank":"THE BANK OF NEW YORK MELLON","branch_code":0},
{"id":13758,"swift_code":"PRRSFRP1XXX","bank_code":13758,"bank":"PRETS ET SERVICES","branch_code":0,"zip":"92500","city":"RUEIL MALMAISON","address":"4 RUE AUGUSTE PERRET"},
{"id":13769,"swift_code":"SGDCFRP1XXX","bank_code":13769,"bank":"STE GENERALE PR DEV OPE CIT BAIL IMMOB","branch_code":0,"zip":"75009","city":"PARIS","address":"29 BD HAUSSMANN"},
{"id":13798,"swift_code":"CAOOFR21XXX","bank_code":13798,"bank":"CAISSE SOLIDAIRE","branch_code":0,"zip":"59800","city":"LILLE","address":"3 5 RUE CAMILLE GUERIN"},
{"id":13807,"swift_code":"CCBPFRPPNAN","bank_code":13807,"bank":"BANQUE POPULAIRE GRAND OUEST","branch_code":0,"zip":"35760","city":"ST GREGOIRE","address":"15 BD DE LA BOUTIERE","support_codes":15},
{"id":13825,"swift_code":"CEPAFRPP382","bank_code":13825,"bank":"CAISSE D EPARGNE RHONE ALPES","branch_code":0,"zip":"69404","city":"LYON CEDEX 03","address":"42 BD EUGENE DERUELLE","support_codes":15},
{"id":13838,"swift_code":"CNCUFRP1XXX","bank_code":13838,"bank":"CNH INDUSTRIAL CAPITAL EUROPE","branch_code":0,"zip":"92000","city":"NANTERRE","address":"12 RUE DU PORT"},
{"id":13858,"swift_code":"LOFIFRP1XXX","bank_code":13858,"bank":"LOISIRS FINANCE","branch_code":0,"zip":"92300","city":"LEVALLOIS PERRET","address":"143 RUE ANATOLE FRANCE"},
{"id":13878,"swift_code":"TKGTFR21XXX","bank_code":13878,"bank":"TOYOTA KREDITBK GMBH TOYOTA FRANCE FIN","branch_code":0,"zip":"92420","city":"VAUCRESSON","address":"36 BD DE LA REPUBLIQUE"},
{"id":13888,"swift_code":"ELFAFRP1XXX","bank_code":13888,"bank":"HSBC FACTORING (FRANCE)","branch_code":0,"zip":"92099","city":"PARIS LA DEFENSE CEDEX","address":"IMM COEUR DEFENSE TOUR A","support_codes":1},
{"id":13906,"swift_code":"AGRIFRPP839","bank_code":13906,"bank":"CRCAM SUD RHONE ALPES","branch_code":0,"zip":"07200","city":"AUBENAS","address":"18 BD DE VERNON","support_codes":15},
{"id":13907,"swift_code":"CCBPFRPPLYO","bank_code":13907,"bank":"BANQUE POPULAIRE LOIRE ET LYONNAIS","branch_code":0,"support_codes":15},
{"id":13928,"swift_code":"CAFOFRP1XXX","bank_code":13928,"bank":"GE CAPITAL FINANCEMENTS IMMOBILIERS ENTR","branch_code":0,"zip":"92800","city":"PUTEAUX","address":"23 27 RUE DELARIVIERE LEFOULLON"},
{"id":13959,"swift_code":"AASFFRP1XXX","bank_code":13959,"bank":"UNIGRAINS CREDIT","branch_code":0,"zip":"75016","city":"PARIS","address":"23 AV DE NEUILLY"},
{"id":13968,"swift_code":"UCENFRP1XXX","bank_code":13968,"bank":"UCB ENTREPRISES","branch_code":0,"zip":"92500","city":"RUEIL MALMAISON","address":"4 R AUGUSTE PERRET"},
{"id":13998,"swift_code":"SDFFFRP1XXX","bank_code":13998,"bank":"SAME DEUTZ FAHR FINANCE","branch_code":0,"zip":"92000","city":"NANTERRE","address":"12 RUE DU PORT"},
{"id":14006,"swift_code":"AGRIGPGXXXX","bank_code":14006,"bank":"CRCAM DE LA GUADELOUPE","branch_code":0,"zip":"97176","city":"LES ABYMES CEDEX","address":"PETIT PEROU","support_codes":15},
{"id":14008,"swift_code":"FIPPFRP1XXX","bank_code":14008,"bank":"FIMIPAR","branch_code":0,"zip":"92065","city":"PARIS LA DEFENSE CEDEX","address":"12 COURS MICHELET"},
{"id":14018,"swift_code":"NOFAFRP1XXX","bank_code":14018,"bank":"NORRSKEN FINANCE","branch_code":0,"zip":"75009","city":"PARIS","address":"1 BD HAUSSMANN"},
{"id":14020,"swift_code":"AUOOFR21XXX","bank_code":14020,"bank":"FCA LEASING FRANCE","branch_code":0,"zip":"78190","city":"TRAPPES","address":"6 RUE NICOLAS COPERNIC"},
{"id":14078,"swift_code":"CCMEFR21XXX","bank_code":14078,"bank":"CSSE CIT MUNICIPAL DE LILLE","branch_code":0,"zip":"59000","city":"LILLE","address":"34 R NICOLAS LEBLANC"},
{"id":14108,"swift_code":"JODCFR21XXX","bank_code":14108,"bank":"JOHN DEERE FINANCIAL","branch_code":0,"zip":"75647","city":"PARIS CEDEX 13","address":"46 52 RUE ALBERT"},
{"id":14120,"swift_code":"LEGRFRP1XXX","bank_code":14120,"bank":"GRESHAM BANQUE","branch_code":0,"zip":"75383","city":"PARIS CEDEX 8","address":"20 RUE DE LA BAUME","support_codes":15},
{"id":14139,"swift_code":"NBPAFRPPXXX","bank_code":14139,"bank":"NATIONAL BANK OF PAKISTAN","branch_code":0,"zip":"75008","city":"PARIS","address":"128 BD HAUSSMANN","support_codes":7},
{"id":14148,"swift_code":"EHYPFRP1XXX","bank_code":14148,"bank":"HYPOTHEKENBANK FRANKFURT AG","branch_code":0,"zip":"75008","city":"PARIS","address":"30 AV GEORGE V"},
{"id":14150,"swift_code":"ROBOFRP1XXX","bank_code":14150,"bank":"BANQUE ROBECO SA","branch_code":0,"zip":"75039","city":"PARIS CEDEX 01","address":"21 BD DE LA MADELEINE"},
{"id":14198,"swift_code":"SORAFR21XXX","bank_code":14198,"bank":"SOGELEASE FRANCE","branch_code":0,"zip":"92500","city":"RUEIL MALMAISON","address":"59 AV DE CHATOU"},
{"id":14218,"swift_code":"CLAAFRP1XXX","bank_code":14218,"bank":"CLAAS FINANCIAL SERVICES","branch_code":0,"zip":"92000","city":"NANTERRE","address":"12 RUE DU PORT"},
{"id":14228,"swift_code":"SGFIFR21XXX","bank_code":14228,"bank":"SGB FINANCE","branch_code":0,"zip":"59700","city":"MARCQ EN BAROEUL","address":"69 AV DE FLANDRE"},
{"id":14238,"swift_code":"NOUCNCN1XXX","bank_code":14238,"bank":"NOUMEA CREDIT","branch_code":0,"zip":"98845","city":"NOUMEA CEDEX 09","address":"218 R A OHLEN"},
{"id":14265,"swift_code":"CEPAFRPP426","bank_code":14265,"bank":"CAISSE D EPARGNE LOIRE DROME ARDECHE","branch_code":0,"zip":"42012","city":"ST ETIENNE CEDEX 2","address":"17 RUE P ET D PONCHARDIER","support_codes":15},
{"id":14288,"swift_code":"RBFAFRP1XXX","bank_code":14288,"bank":"GE FACTOR","branch_code":0,"zip":"75009","city":"PARIS","address":"18 RUE HOCHE"},
{"id":14318,"swift_code":"BRGEFRPPXXX","bank_code":14318,"bank":"BRED GESTION","branch_code":0,"zip":"75012","city":"PARIS","address":"18 QUAI DE LA RAPEE","support_codes":15},
{"id":14328,"swift_code":"SEGFFRP1XXX","bank_code":14328,"bank":"AMUNDI FINANCE","branch_code":0,"zip":"75015","city":"PARIS","address":"90 BD PASTEUR"},
{"id":14378,"swift_code":"SFPMFRP1XXX","bank_code":14378,"bank":"STE FIRE DU PORTE MONNAIE ELECTR INTERBA","branch_code":0,"zip":"75002","city":"PARIS","address":"29 RUE DU LOUVRE","support_codes":15},
{"id":14380,"swift_code":"FACEFR21XXX","bank_code":14380,"bank":"FACET","branch_code":0,"zip":"92300","city":"LEVALLOIS PERRET","address":"20 AV GEORGES POMPIDOU"},
{"id":14388,"swift_code":"DXMAFRPPXXX","bank_code":14388,"bank":"CAISSE FRANCAISE DE FINANCEMENT LOCAL","branch_code":0,"zip":"92130","city":"ISSY LES MOULINEAUX","address":"1 3 RUE DU PASSEUR DE BOULOGNE","support_codes":7},
{"id":14398,"swift_code":"HSLFFRP1XXX","bank_code":14398,"bank":"HSBC LEASING (FRANCE)","branch_code":0,"zip":"75008","city":"PARIS","address":"39 RUE DE BASSANO"},
{"id":14406,"swift_code":"AGRIFRPP844","bank_code":14406,"bank":"CRCAM VAL DE FRANCE","branch_code":0,"zip":"28023","city":"CHARTRES","address":"1 RUE DANIEL BOUTET","support_codes":15},
{"id":14408,"swift_code":"HRELFRP1XXX","bank_code":14408,"bank":"HSBC REAL ESTATE LEASING (FRANCE)","branch_code":0,"zip":"75008","city":"PARIS","address":"15 RUE VERNET"},
{"id":14410,"swift_code":"DEFOFRP1XXX","bank_code":14410,"bank":"DEXIA FLOBAIL","branch_code":0,"zip":"92400","city":"COURBEVOIE","address":"1 PASSERELLE DES REFLETS"},
{"id":14445,"swift_code":"CEPAFRPP444","bank_code":14445,"bank":"CAISSE D EPARGNE BRETAGNE PAYS DE LOIRE","branch_code":0,"zip":"44911","city":"NANTES CEDEX 9","address":"2 PL GRASLIN","support_codes":15},
{"id":14448,"swift_code":"CFODFR21XXX","bank_code":14448,"bank":"CIT FCIER CMUNAL ALSACE LORRAINE SCF","branch_code":0,"zip":"67003","city":"STRASBOURG CEDEX","address":"1 R DU DOME"},
{"id":14505,"swift_code":"CEPAFRPP450","bank_code":14505,"bank":"CAISSE D EPARGNE LOIRE CENTRE","branch_code":0,"zip":"45000","city":"ORLEANS","address":"7 RUE D ESCURES","support_codes":15},
{"id":14506,"swift_code":"AGRIFRPP845","bank_code":14506,"bank":"CRCAM LOIRE HAUTE LOIRE","branch_code":0,"zip":"42510","city":"BALBIGNY","address":"PL DE LA LIBERATION","support_codes":15},
{"id":14518,"swift_code":"FTNOFRP1XXX","bank_code":14518,"bank":"ARKEA DIRECT BANK","branch_code":0,"zip":"92088","city":"PARIS LA DEFENSE","address":"5 PL DE LA PYRAMIDE","support_codes":15},
{"id":14559,"swift_code":"IIDFFR21XXX","bank_code":14559,"bank":"ING DIRECT N V","branch_code":0,"zip":"75611","city":"PARIS CEDEX 12","address":"40 AV DES TERROIRS DE FRANCE"},
{"id":14568,"swift_code":"HANDFRPPXXX","bank_code":14568,"bank":"SVENSKA HANDELSBANKEN AB (PUBL)","branch_code":0,"zip":"75009","city":"PARIS","address":"7 RUE DROUOT","support_codes":15},
{"id":14578,"swift_code":"ALSOFR21XXX","bank_code":14578,"bank":"ALSOLIA","branch_code":0,"zip":"59650","city":"VILLENEUVE D ASCQ","address":"4 BD DE MONS"},
{"id":14588,"swift_code":"CONUFR21XXX","bank_code":14588,"bank":"COMPAGNIE FINANCIERE DE BOURBON","branch_code":0,"zip":"97420","city":"LE PORT","address":"32 BIS RUE CLAUDE CHAPPE"},
{"id":14590,"swift_code":"COGRFR21XXX","bank_code":14590,"bank":"COGERA SA","branch_code":0,"zip":"93168","city":"NOISY LE GRAND CEDEX","address":"14 AV DU PAVE NEUF"},
{"id":14607,"swift_code":"CCBPFRPPMAR","bank_code":14607,"bank":"BANQUE POPULAIRE MEDITERRANEE","branch_code":0,"zip":"84000","city":"AVIGNON","address":"2 RTE DE LYON","support_codes":15},
{"id":14628,"swift_code":"GRCSFRP1XXX","bank_code":14628,"bank":"FLOA","branch_code":0,"zip":"75150","city":"PARIS CEDEX 03","address":"66 R DES ARCHIVES","support_codes":7},
{"id":14633,"swift_code":"WUIGFRP1XXX","bank_code":14633,"bank":"WESTERN UNION INTERNATIONAL BANK GMBH","branch_code":0,"zip":"92100","city":"BOULOGNE BILLANCOURT","address":"17 RTE DE LA REINE"},
{"id":14648,"swift_code":"CAAIFR21XXX","bank_code":14648,"bank":"CAPITOLE FINANCE TOFINSO","branch_code":0,"zip":"31682","city":"LABEGE CEDEX","address":"2839 AV DE LA LAURAGAISE"},
{"id":14658,"swift_code":"CIERFRP1XXX","bank_code":14658,"bank":"CIF EUROMORTGAGE","branch_code":0,"zip":"75008","city":"PARIS","address":"26 28 R DE MADRID"},
{"id":14670,"swift_code":"BMFCFR21XXX","bank_code":14670,"bank":"BMW FINANCE","branch_code":0,"zip":"78180","city":"MONTIGNY LE BRETONNEUX","address":"5 RUE DES HERONS"},
{"id":14688,"swift_code":"STLEFRP1XXX","bank_code":14688,"bank":"STAR LEASE","branch_code":0,"zip":"75008","city":"PARIS","address":"59 BD HAUSSMANN"},
{"id":14690,"swift_code":"CMCIFRP1MON","bank_code":14690,"bank":"MONABANQ","branch_code":0,"zip":"59650","city":"VILLENEUVE D ASCQ","address":"61 AV DE HALLEY","support_codes":15},
{"id":14706,"swift_code":"AGRIFRPP847","bank_code":14706,"bank":"CRCAM ATLANTIQUE VENDEE","branch_code":0,"zip":"44020","city":"NANTES","address":"PL DE L ECLUSE","support_codes":15},
{"id":14707,"swift_code":"CCBPFRPPMTZ","bank_code":14707,"bank":"BANQUE POPULAIRE ALSACE LORRAINE CHAMPAG","branch_code":0,"zip":"57000","city":"METZ","address":"3 RUE FRANCOIS DE CUREL","support_codes":15},
{"id":14738,"swift_code":"WHAWFR21XXX","bank_code":14738,"bank":"W HA","branch_code":0,"zip":"92100","city":"BOULOGNE BILLANCOURT","address":"25 BIS AV ANDRE MORIZET","support_codes":7},
{"id":14749,"swift_code":"SFBSFRP1XXX","bank_code":14749,"bank":"PSA BANQUE FRANCE","branch_code":0,"zip":"92238","city":"GENNEVILLIERS CEDEX","address":"9 RUE HENRI BARBUSSE","support_codes":7},
{"id":14758,"swift_code":"CRLLFRP1XXX","bank_code":14758,"bank":"AMUNDI ESR","branch_code":0,"zip":"75015","city":"PARIS","address":"90 BD PASTEUR"},
{"id":14768,"swift_code":"CADFFRP1XXX","bank_code":14768,"bank":"BPCE FINANCEMENT","branch_code":0,"zip":"75007","city":"PARIS","address":"5 RUE MASSERAN"},
{"id":14800,"swift_code":"UNFCFRP1XXX","bank_code":14800,"bank":"UNION NOTARIALE FIRE CREDIT UNOFI CREDIT","branch_code":0,"zip":"75017","city":"PARIS","address":"7 ET 7 BIS RUE GALVANI"},
{"id":14806,"swift_code":"AGRIFRPP848","bank_code":14806,"bank":"CRCAM CENTRE LOIRE","branch_code":0,"zip":"45000","city":"ORLEANS","address":"23 R THEOPHILE CHOLLET","support_codes":15},
{"id":14818,"swift_code":"BREUFR22XXX","bank_code":14818,"bank":"UNIONE DI BANCHE ITALIANE SPA","branch_code":0,"zip":"06000","city":"NICE","address":"7 BD VICTOR HUGO","support_codes":15},
{"id":14848,"swift_code":"FPSSNCN1XXX","bank_code":14848,"bank":"GE FINANCEMENT PACIFIQUE SAS","branch_code":0,"zip":"98800","city":"NOUMEA","address":"224 R J IEKAWE"},
{"id":14878,"swift_code":"GPBAFRPPXXX","bank_code":14878,"bank":"ORANGE BANK","branch_code":0,"support_codes":15},
{"id":14879,"swift_code":"BKIDFRPPXXX","bank_code":14879,"bank":"BANK OF INDIA","branch_code":0,"zip":"75009","city":"PARIS","address":"4 RUE HALEVY","support_codes":15},
{"id":14888,"swift_code":"FNNOFRP1XXX","bank_code":14888,"bank":"BPCE INTERNATIONAL ET OUTREMER BPCE IOM","branch_code":0,"zip":"75013","city":"PARIS","address":"88 AV DE FRANCE"},
{"id":14889,"swift_code":"CEPANCNMXXX","bank_code":14889,"bank":"BANQUE DE NOUVELLE CALEDONIE","branch_code":0,"zip":"98849","city":"NOUMEA","address":"10 AV DU MARECHAL FOCH","support_codes":15},
{"id":14918,"swift_code":"DEPAFRP1XXX","bank_code":14918,"bank":"DEPFA BANK PUBLIC LIMITED COMPANY","branch_code":0,"zip":"75009","city":"PARIS","address":"11 RUE SAINT GEORGES"},
{"id":14928,"swift_code":"SFPTFR21XXX","bank_code":14928,"bank":"SOCIETE FINANCIERE DE PAIEMENTS","branch_code":0,"zip":"75009","city":"PARIS","address":"7 RUE DROUOT"},
{"id":14940,"swift_code":"CFFIFR21XXX","bank_code":14940,"bank":"COFIDIS","branch_code":0,"zip":"59491","city":"VILLENEUVE D ASCQ","address":"61 AV HALLEY","support_codes":15},
{"id":14948,"swift_code":"INRPFRP1XXX","bank_code":14948,"bank":"NATIXIS INTEREPARGNE","branch_code":0,"zip":"75013","city":"PARIS","address":"30 AV PIERRE MENDES FRANCE"},
{"id":14958,"swift_code":"SFSSFR21XXX","bank_code":14958,"bank":"SIEMENS FINANCIAL SERVICES","branch_code":0,"zip":"93200","city":"ST DENIS","address":"40 AV DES FRUITIERS"},
{"id":14978,"swift_code":"NSMBFRPPXXX","bank_code":14978,"bank":"BANQUE NEUFLIZE OBC","branch_code":0,"support_codes":15},
{"id":14989,"swift_code":"KOEXFRPPXXX","bank_code":14989,"bank":"KEB HANA BANK","branch_code":0,"zip":"75008","city":"PARIS","address":"38 AV DES CHAMPS ELYSEES","support_codes":15},
{"id":14998,"swift_code":"DOMFFRP1XXX","bank_code":14998,"bank":"DOMOFINANCE","branch_code":0,"zip":"92595","city":"LEVALLOIS PERRET","address":"16 R PAUL VAILLANT COUTURIER"},
{"id":15000,"swift_code":"XPARFRPPXXX","bank_code":15000,"bank":"EURONEXT PARIS S.A.","branch_code":0,"zip":"75001","city":"PARIS","address":"39 RUE CAMBON"},
{"id":15008,"swift_code":"JYSKFR21XXX","bank_code":15008,"bank":"JYSKE BANK AS","branch_code":0,"zip":"06400","city":"CANNES","address":"53 R D ANTIBES"},
{"id":15068,"swift_code":"PICTFRPPXXX","bank_code":15068,"bank":"PICTET ET CIE (EUROPE) S A","branch_code":0,"zip":"75008","city":"PARIS","address":"34 AV DE MESSINE","support_codes":7},
{"id":15078,"swift_code":"MFFMFR21XXX","bank_code":15078,"bank":"MGF","branch_code":0,"zip":"92000","city":"NANTERRE","address":"12 RUE DU PORT"},
{"id":15128,"swift_code":"VOWAFR21XXX","bank_code":15128,"bank":"VOLKSWAGEN BANK GMBH","branch_code":0,"zip":"95700","city":"ROISSY EN FRANCE","address":"15 AV DE LA DEMI LUNE","support_codes":15},
{"id":15135,"swift_code":"CEPAFRPP513","bank_code":15135,"bank":"CAISSE D EPARGNE GRAND EST EUROPE","branch_code":0,"zip":"08103","city":"CHARLEVILLE MEZIERES","address":"27 AV JEAN JAURES","support_codes":15},
{"id":15138,"swift_code":"OCFOPFT1XXX","bank_code":15138,"bank":"OCEANIENNE DE FINANCEMENT","branch_code":0,"zip":"98715","city":"PAPEETE","address":"IMM DOROTHEE LEVY FARE TONY"},
{"id":15149,"swift_code":"CFCLFR21XXX","bank_code":15149,"bank":"CIT FCIER CMUNAL ALSACE LORRAINE BANQUE","branch_code":0,"zip":"67000","city":"STRASBOURG","address":"1 R DU DOME","support_codes":15},
{"id":15178,"swift_code":"SOGDPFT1XXX","bank_code":15178,"bank":"SOGELEASE BDP","branch_code":0,"zip":"98713","city":"PAPEETE","address":"355 BD POMARE"},
{"id":15208,"swift_code":"CRMPFRP1XXX","bank_code":15208,"bank":"CREDIT MUNICIPAL DE PARIS","branch_code":0,"zip":"75004","city":"PARIS","address":"55 RUE DES FRANCS BOURGEOIS","support_codes":7},
{"id":15218,"swift_code":"BIFAFR21XXX","bank_code":15218,"bank":"BIBBY FACTOR FRANCE","branch_code":0,"zip":"69006","city":"LYON","address":"158 AV THIERS"},
{"id":15228,"swift_code":"SOAIMQM1XXX","bank_code":15228,"bank":"SOCIETE FINANCIERE ANTILLES GUYANE","branch_code":0,"zip":"97200","city":"FORT DE FRANCE","address":"12 BD DU GENERAL DE GAULLE","support_codes":15},
{"id":15250,"swift_code":"SMBCFRPPXXX","bank_code":15250,"bank":"SUMITOMO MITSUI BANKING CORP EUROPE LTD","branch_code":0,"zip":"75008","city":"PARIS","address":"20 R DE LA VILLE L EVEQUE","support_codes":15},
{"id":15258,"swift_code":"GOIRFRP1XXX","bank_code":15258,"bank":"THE GOVERNOR AND CY OF THE BANK IRELAND","branch_code":0,"zip":"75008","city":"PARIS","address":"13 RUE DU DR LANCEREAUX"},
{"id":15278,"swift_code":"CRAFFRP1XXX","bank_code":15278,"bank":"CREALFI","branch_code":0,"zip":"91300","city":"MASSY","address":"1 RUE VICTOR BASCH"},
{"id":15298,"swift_code":"DISFFRPPXXX","bank_code":15298,"bank":"RBC INVESTOR SERVICES BANK FRANCE SA","branch_code":0,"zip":"75002","city":"PARIS","address":"105 RUE REAUMUR","support_codes":15},
{"id":15338,"swift_code":"DISSFR21XXX","bank_code":15338,"bank":"DISPONIS","branch_code":0,"zip":"92724","city":"NANTERRE CEDEX","address":"53 RUE DU PORT"},
{"id":15348,"swift_code":"CMARFR21XXX","bank_code":15348,"bank":"CRC MARIT MUTUEL DE LA REGION NORD","branch_code":0,"zip":"62200","city":"BOULOGNE SUR MER","address":"87 RUE THIERS"},
{"id":15358,"swift_code":"CMDMGPG1XXX","bank_code":15358,"bank":"CRC MARIT MUT OUTRE MER","branch_code":0},
{"id":15378,"swift_code":"KOFFFRP1XXX","bank_code":15378,"bank":"KOMATSU FINANCIAL FRANCE","branch_code":0,"zip":"93350","city":"LE BOURGET","address":"53 AV JEAN JAURES"},
{"id":15380,"swift_code":"COANFRP1XXX","bank_code":15380,"bank":"CONSERVATEUR FINANCE","branch_code":0,"zip":"75016","city":"PARIS","address":"59 RUE DE LA FAISANDERIE"},
{"id":15408,"swift_code":"FAMSFRPPXXX","bank_code":15408,"bank":"BNP PARIBAS DEALING SERVICES","branch_code":0,"zip":"75009","city":"PARIS","address":"1 BD HAUSSMANN"},
{"id":15409,"swift_code":"SCFEFR21XXX","bank_code":15409,"bank":"SOFIRIF COOP FNCIERE REGION ILE FRANCE","branch_code":0,"zip":"95310","city":"ST OUEN L AUMONE","address":"ZI DES BETHUNES L EQUERRE"},
{"id":15428,"swift_code":"KREDFRPPXXX","bank_code":15428,"bank":"KBC BAIL IMMOBILIER FRANCE SAS","branch_code":0,"zip":"75009","city":"PARIS","address":"52 56 RUE DE LA VICTOIRE","support_codes":15},
{"id":15429,"swift_code":"CMCIFR2AXXX","bank_code":15429,"bank":"CAISSE AGRICOLE CREDIT MUTUEL","branch_code":0,"zip":"21000","city":"DIJON","address":"26 AV ALBERT CAMUS","support_codes":15},
{"id":15448,"swift_code":"CNFSFR21XXX","bank_code":15448,"bank":"CNH INDUSTRIAL FINANCIAL SERVICES","branch_code":0,"zip":"91150","city":"MORIGNY CHAMPIGNY","address":"16 18 RUE DES ROCHETTES"},
{"id":15449,"swift_code":"CBCRFR21XXX","bank_code":15449,"bank":"CAISSE DE BRETAGNE DE CIT MUT AGRICOLE","branch_code":0,"zip":"29480","city":"LE RELECQ KERHUON","address":"1 RUE LICHOU","support_codes":7},
{"id":15459,"swift_code":"CMCIFR2AXXX","bank_code":15459,"bank":"CREDIT MUTUEL","branch_code":0,"support_codes":15},
{"id":15488,"swift_code":"PROJFRP1XXX","bank_code":15488,"bank":"PROJEO","branch_code":0,"zip":"92300","city":"LEVALLOIS PERRET","address":"143 RUE ANATOLE FRANCE"},
{"id":15489,"swift_code":"CMCIFR2AXXX","bank_code":15489,"bank":"CAISSE FEDER CIT MUT MAIN ANJ BAS NORM","branch_code":0,"zip":"50009","city":"ST LO CEDEX","address":"5 RUE DU CREUSET","support_codes":15},
{"id":15498,"swift_code":"MFSAFR21XXX","bank_code":15498,"bank":"MAN FINANCIAL SERVICES SAS","branch_code":0,"zip":"91008","city":"EVRY CEDEX","address":"ZI 12 AV DU BOIS DE L EPINE"},
{"id":15518,"swift_code":"IGREFRP1XXX","bank_code":15518,"bank":"ING REAL ESTATE FINANCE FRANCE","branch_code":0,"zip":"92400","city":"COURBEVOIE","address":"110 ESPLANADE DU GAL DE GAULLE"},
{"id":15519,"swift_code":"CMCIFR2AXXX","bank_code":15519,"bank":"CAISSE FEDER CIT MUT OCEAN","branch_code":0,"zip":"85000","city":"LA ROCHE SUR YON","address":"34 RUE LEANDRE MERLET","support_codes":15},
{"id":15548,"swift_code":"PRROFR21XXX","bank_code":15548,"bank":"PRIORIS","branch_code":0,"zip":"59700","city":"MARCQ EN BAROEUL","address":"69 AV DE FLANDRE"},
{"id":15568,"swift_code":"CRFFFRP1XXX","bank_code":15568,"bank":"CREDIT LIFT","branch_code":0,"zip":"91300","city":"MASSY","address":"1 RUE VICTOR BASCH"},
{"id":15589,"swift_code":"CMBRFR2BXXX","bank_code":15589,"bank":"CREDIT MUTUEL ARKEA","branch_code":0,"zip":"03007","city":"MOULINS CEDEX","address":"27 R GAMBETTA","support_codes":15},
{"id":15590,"swift_code":"FCFSFRP1XXX","bank_code":15590,"bank":"FORTIS COMMERCIAL FINANCE SAS","branch_code":0,"zip":"75017","city":"PARIS","address":"8 10 RUE GODEFROY"},
{"id":15607,"swift_code":"CCBPFRPPNCE","bank_code":15607,"bank":"BANQUE POPULAIRE COTE D AZUR","branch_code":0,"support_codes":15},
{"id":15608,"swift_code":"PHNEFRP1XXX","bank_code":15608,"bank":"PNB (EUROPE) PLC","branch_code":0,"zip":"75016","city":"PARIS","address":"165 AV VICTOR HUGO"},
{"id":15610,"swift_code":"SGFAGPG1XXX","bank_code":15610,"bank":"STE AN DE GESTION ET FINANCEMENT-SAGEFI","branch_code":0,"zip":"97142","city":"LES ABYMES","address":"GRAND CAMP"},
{"id":15628,"swift_code":"MICSFR21XXX","bank_code":15628,"bank":"CHEBANCA SPA MICOS","branch_code":0,"zip":"69006","city":"LYON","address":"43 47 RUE WALDECK ROUSSEAU"},
{"id":15629,"swift_code":"CMCIFR2AXXX","bank_code":15629,"bank":"CAISSE FEDER CIT MUT NORD EUROPE","branch_code":0,"zip":"59290","city":"WASQUEHAL","address":"1 TER AV DE LA MARNE","support_codes":15},
{"id":15648,"swift_code":"DLFSFR21XXX","bank_code":15648,"bank":"DEUTSCHE LEASING FRANCE","branch_code":0,"zip":"92500","city":"RUEIL MALMAISON","address":"7 RUE EUGENE ET ARMAND PEUGEOT"},
{"id":15658,"swift_code":"MOFAFRP1XXX","bank_code":15658,"bank":"MONEYGRAM FRANCE SA","branch_code":0,"zip":"75009","city":"PARIS","address":"10 R DES ISLETTES"},
{"id":15668,"swift_code":"BPCDFRP1XXX","bank_code":15668,"bank":"BNP PARIBAS HOME LOAN SFH","branch_code":0,"zip":"75009","city":"PARIS","address":"1 BD HAUSSMANN"},
{"id":15708,"swift_code":"RIFRFR21XXX","bank_code":15708,"bank":"RIA FRANCE","branch_code":0,"zip":"75017","city":"PARIS","address":"67 AV DE CLICHY"},
{"id":15728,"swift_code":"SEFAFR21XXX","bank_code":15728,"bank":"SEFIA","branch_code":0,"zip":"59700","city":"MARCQ EN BAROEUL","address":"69 AV DE FLANDRE"},
{"id":15749,"swift_code":"CMCIFR2AXXX","bank_code":15749,"bank":"CREDIT MUTUEL","branch_code":0,"support_codes":15},
{"id":15818,"swift_code":"BIKCFRP1XXX","bank_code":15818,"bank":"BINCKBANK NV","branch_code":0,"zip":"92300","city":"LEVALLOIS PERRET","address":"1 BIS RUE COLLANGE","support_codes":1},
{"id":15829,"swift_code":"CMCIFR2AXXX","bank_code":15829,"bank":"CREDIT MUTUEL","branch_code":0,"zip":"67000","city":"STRASBOURG","address":"1 PL MOLIERE","support_codes":15},
{"id":15848,"swift_code":"CMCIFRPPXXX","bank_code":15848,"bank":"CREDIT MUTUEL HOME LOAN SFH","branch_code":0,"zip":"75009","city":"PARIS","address":"6 AV DE PROVENCE","support_codes":15},
{"id":15858,"swift_code":"COEFFRP1XXX","bank_code":15858,"bank":"SIGUE GLOBAL SERVICES","branch_code":0,"zip":"75013","city":"PARIS","address":"85 RUE DU DESSOUS DES BERGES"},
{"id":15868,"swift_code":"SXFRFRP1XXX","bank_code":15868,"bank":"SAXO BANQUE (FRANCE)","branch_code":0,"zip":"75002","city":"PARIS","address":"10 RUE DE LA PAIX","support_codes":1},
{"id":15898,"swift_code":"CAODFRP1XXX","bank_code":15898,"bank":"CREDIT AGRICOLE HOME LOAN SFH","branch_code":0,"zip":"92120","city":"MONTROUGE","address":"12 PL DES ETATS UNIS"},
{"id":15899,"swift_code":"CMCIFR2AXXX","bank_code":15899,"bank":"CREDIT MUTUEL","branch_code":0,"support_codes":15},
{"id":15900,"swift_code":"FEFIFR21XXX","bank_code":15900,"bank":"FEDERAL FINANCE","branch_code":0,"zip":"29480","city":"LE RELECQ KERHUON","address":"1 ALLEE LOUIS LICHOU","support_codes":15},
{"id":15908,"swift_code":"ROYCGB22XXX","bank_code":15908,"bank":"RBC EUROPE LIMITED","branch_code":0,"zip":"75002","city":"PARIS","address":"105 RUE REAUMUR"},
{"id":15920,"swift_code":"MRLAFRP1XXX","bank_code":15920,"bank":"MERRILL LYNCH CAPITAL MARKETS(FRANCE)SAS","branch_code":0,"zip":"75016","city":"PARIS","address":"112 AV KLEBER"},
{"id":15930,"swift_code":"NATXFRPPPAI","bank_code":15930,"bank":"NATIXIS PAYMENT SOLUTIONS","branch_code":0,"zip":"75013","city":"PARIS","address":"30 AV PIERRE MENDES FRANCE","support_codes":15},
{"id":15958,"swift_code":"BPCBFRP1XXX","bank_code":15958,"bank":"BANQUES POPULAIRES COVERED BONDS","branch_code":0,"zip":"75013","city":"PARIS","address":"50 AV PIERRE MENDES FRANCE"},
{"id":15959,"swift_code":"CFCUFR21XXX","bank_code":15959,"bank":"CAISSE FEDERALE DE CREDIT MUTUEL","branch_code":0},
{"id":15960,"swift_code":"MAFIFRP1XXX","bank_code":15960,"bank":"MACSF FINANCEMENT","branch_code":0,"zip":"92800","city":"PUTEAUX","address":"10 R DE VALMY"},
{"id":15970,"swift_code":"BATLFR21XXX","bank_code":15970,"bank":"BAIL ACTEA","branch_code":0,"zip":"59000","city":"LILLE","address":"4 PL RICHEBE"},
{"id":15980,"swift_code":"BAEPFR21XXX","bank_code":15980,"bank":"ARKEA CREDIT BAIL","branch_code":0,"zip":"35000","city":"RENNES","address":"255 RUE DE ST MALO"},
{"id":15998,"swift_code":"GCEUFR21XXX","bank_code":15998,"bank":"GCE COVERED BONDS","branch_code":0,"zip":"75013","city":"PARIS","address":"50 AV PIERRE MENDES FRANCE"},
{"id":16000,"swift_code":"DIACFR21XXX","bank_code":16000,"bank":"DIAC","branch_code":0,"zip":"93160","city":"NOISY LE GRAND","address":"14 AV DU PAVE NEUF"},
{"id":16006,"swift_code":"AGRIFRPP860","bank_code":16006,"bank":"CRCAM DU MORBIHAN","branch_code":0,"zip":"56350","city":"ALLAIRE","address":"7 RTE DE REDON","support_codes":15},
{"id":16020,"swift_code":"BATMFRP1XXX","bank_code":16020,"bank":"BATIMAP","branch_code":0,"zip":"33700","city":"MERIGNAC","address":"1 AV HENRI BECQUEREL BAT D"},
{"id":16030,"swift_code":"IBFFFR21XXX","bank_code":16030,"bank":"IBM FRANCE FINANCEMENT","branch_code":0,"zip":"92270","city":"BOIS COLOMBES","address":"17 AV DE L EUROPE"},
{"id":16038,"swift_code":"HAVLLULLXXX","bank_code":16038,"bank":"BANQUE HAVILLAND S.A.","branch_code":0,"support_codes":7},
{"id":16048,"swift_code":"ECOCFRPPXXX","bank_code":16048,"bank":"EBI SA","branch_code":0,"zip":"92800","city":"PUTEAUX","address":"IMM CONCORDE F"},
{"id":16050,"swift_code":"BAOIFR21XXX","bank_code":16050,"bank":"BATI LEASE","branch_code":0,"zip":"59350","city":"ST ANDRE LEZ LILLE","address":"7 RUE PHILIPPE NOIRET"},
{"id":16088,"swift_code":"CMBRFR2BARK","bank_code":16088,"bank":"ARKEA HOME LOANS SFH","branch_code":0,"zip":"29802","city":"BREST CEDEX 9","address":"232 RUE GENERAL PAULET","support_codes":15},
{"id":16100,"swift_code":"CCMUFR21XXX","bank_code":16100,"bank":"CSSE CIT MUNICIPAL DE ROUEN","branch_code":0,"zip":"76000","city":"ROUEN","address":"12 PL J LE LIEUR"},
{"id":16106,"swift_code":"AGRIFRPP861","bank_code":16106,"bank":"CRCAM DE LORRAINE","branch_code":0,"zip":"57000","city":"METZ","address":"56 58 AV ANDRE MALRAUX","support_codes":15},
{"id":16130,"swift_code":"SIRCFR21XXX","bank_code":16130,"bank":"S I R C A M","branch_code":0,"zip":"42000","city":"ST ETIENNE","address":"29 R LEON BLUM"},
{"id":16159,"swift_code":"CMCIFR2AXXX","bank_code":16159,"bank":"CAISSE FEDER CIT MUT ANTILLES GUYANE","branch_code":0,"zip":"97200","city":"FORT DE FRANCE","address":"RUE DU PROFESSEUR RAYMOND GARCIN","support_codes":15},
{"id":16160,"swift_code":"AACBFR21XXX","bank_code":16160,"bank":"ALSABAIL ALSACIENNE DE CIT BAIL IMMOB","branch_code":0,"zip":"67001","city":"STRASBOURG CEDEX","address":"7 PL BRANT"},
{"id":16170,"swift_code":"CMUBFR21XXX","bank_code":16170,"bank":"CSSE CIT MUNICIPAL DE BOULOGNE SUR MER","branch_code":0,"zip":"62200","city":"BOULOGNE SUR MER","address":"2 PL JEAN FEBVAY","support_codes":7},
{"id":16180,"swift_code":"BAOEFR21XXX","bank_code":16180,"bank":"BATIROC NORMANDIE","branch_code":0,"zip":"76130","city":"MONT ST AIGNAN","address":"15 RUE PIERRE GILLES DE GENNES"},
{"id":16188,"swift_code":"BPCEFRPPXXX","bank_code":16188,"bank":"BPCE","branch_code":0,"zip":"75013","city":"PARIS","address":"50 AV PIERRE MENDES FRANCE","support_codes":15},
{"id":16190,"swift_code":"FRUTFRP1XXX","bank_code":16190,"bank":"BPCE LEASE IMMO","branch_code":0,"zip":"75013","city":"PARIS","address":"30 AV PIERRE MENDES FRANCE"},
{"id":16198,"swift_code":"EFGBFRPPXXX","bank_code":16198,"bank":"EFG BANQUE PRIVEE","branch_code":0,"zip":"75007","city":"PARIS","address":"5 BD DE LA TOUR MAUBOURG"},
{"id":16200,"swift_code":"CCUIFR21XXX","bank_code":16200,"bank":"CSSE CIT MUNICIPAL DE NICE","branch_code":0,"zip":"04100","city":"MANOSQUE","address":"6 BD ELEMIR BOURGES"},
{"id":16218,"swift_code":"BFBKFRP1XXX","bank_code":16218,"bank":"BFORBANK","branch_code":0,"zip":"92400","city":"COURBEVOIE","address":"20 AV ANDRE PROTHIN","support_codes":7},
{"id":16270,"swift_code":"CONGFR21XXX","bank_code":16270,"bank":"COMPTOIR FIR DE GARANTIE C F G","branch_code":0,"zip":"75001","city":"PARIS","address":"19 RUE DES CAPUCINES"},
{"id":16275,"swift_code":"CEPAFRPP627","bank_code":16275,"bank":"CAISSE D EPARGNE HAUTS DE FRANCE","branch_code":0,"zip":"59031","city":"LILLE CEDEX","address":"135 PONT DE FLANDRES","support_codes":15},
{"id":16560,"swift_code":"CCMOFR21XXX","bank_code":16560,"bank":"CSSE CIT MUNICIPAL DE BORDEAUX","branch_code":0,"zip":"33000","city":"BORDEAUX","address":"29 RUE DU MIRAIL","support_codes":7},
{"id":16588,"swift_code":"SFILFRPPXXX","bank_code":16588,"bank":"SFIL","branch_code":0,"zip":"92130","city":"ISSY LES MOULINEAUX","address":"1 3 RUE DU PASSEUR DE BOULOGNE"},
{"id":16600,"swift_code":"CCTCNCN1XXX","bank_code":16600,"bank":"CREDIT CALEDONIEN ET TAHITIEN","branch_code":0,"zip":"98845","city":"NOUMEA","address":"6 RUE JEAN CHALIER PK4"},
{"id":16606,"swift_code":"AGRIFRPP866","bank_code":16606,"bank":"CRCAM DE NORMANDIE","branch_code":0,"zip":"61002","city":"ALENCON","address":"52 BD DU 1ER CHASSEURS","support_codes":15},
{"id":16607,"swift_code":"CCBPFRPPPPG","bank_code":16607,"bank":"BANQUE POPULAIRE DU SUD","branch_code":0,"zip":"66966","city":"PERPIGNAN CEDEX 09","address":"38 BD GEORGES CLEMENCEAU","support_codes":15},
{"id":16618,"swift_code":"EIBCFRPPXXX","bank_code":16618,"bank":"THE EXPORT IMPORT BANK OF CHINA","branch_code":0,"zip":"75008","city":"PARIS","address":"62 RUE DE COURCELLES","support_codes":1},
{"id":16640,"swift_code":"CRFLFR21XXX","bank_code":16640,"bank":"CREDIT FINANCIER LILLOIS","branch_code":0,"zip":"59562","city":"LA MADELEINE CEDEX","address":"25 ALLEE VAUBAN"},
{"id":16700,"swift_code":"CICAFRP1XXX","bank_code":16700,"bank":"CICOBAIL","branch_code":0,"zip":"75013","city":"PARIS","address":"30 AV PIERRE MENDES FRANCE"},
{"id":16705,"swift_code":"CEPAFRPP670","bank_code":16705,"bank":"CAISSE D EPARGNE D ALSACE","branch_code":0,"zip":"67925","city":"STRASBOURG","address":"1 AV DU RHIN","support_codes":15},
{"id":16706,"swift_code":"AGRIFRPP867","bank_code":16706,"bank":"CRCAM NORD DE FRANCE","branch_code":0,"zip":"62400","city":"BETHUNE","address":"R BENJAMIN MOLOISE","support_codes":15},
{"id":16707,"swift_code":"CCBPFRPPREN","bank_code":16707,"bank":"BANQUE POPULAIRE DE L OUEST","branch_code":0,"support_codes":15},
{"id":16760,"swift_code":"FRANFR21XXX","bank_code":16760,"bank":"FRANFINANCE","branch_code":0,"zip":"92500","city":"RUEIL MALMAISON","address":"59 AV DE CHATOU"},
{"id":16780,"swift_code":"NAFNFRP1XXX","bank_code":16780,"bank":"NATIXIS FUNDING","branch_code":0,"zip":"75013","city":"PARIS","address":"30 AV PIERRE MENDES FRANCE"},
{"id":16788,"swift_code":"SAOFFR21XXX","bank_code":16788,"bank":"SANTANDER CONSUMER BANQUE","branch_code":0,"zip":"92300","city":"LEVALLOIS PERRET","address":"26 QUAI CHARLES PASQUA"},
{"id":16806,"swift_code":"AGRIFRPP868","bank_code":16806,"bank":"CRCAM CENTRE FRANCE","branch_code":0,"zip":"63045","city":"CLERMONT FERRAND","address":"3 AV DE LA LIBERATION","support_codes":15},
{"id":16807,"swift_code":"CCBPFRPPGRE","bank_code":16807,"bank":"BANQUE POPULAIRE AUVERGNE RHONE ALPES","branch_code":0,"zip":"38700","city":"CORENC","address":"2 AV GRESIVAUDAN","support_codes":15},
{"id":16820,"swift_code":"AECFFR21XXX","bank_code":16820,"bank":"AMERICAN EXPRESS CARTE FRANCE","branch_code":0,"zip":"92500","city":"RUEIL MALMAISON","address":"4 RUE LOUIS BLERIOT"},
{"id":16830,"swift_code":"GENCFR21XXX","bank_code":16830,"bank":"GENECAL","branch_code":0,"zip":"92800","city":"PUTEAUX","address":"17 COURS VALMY"},
{"id":16839,"swift_code":"FINFFR21XXX","bank_code":16839,"bank":"FINANCO","branch_code":0,"zip":"29490","city":"GUIPAVAS","address":"335 RUE ANTOINE DE ST EXUPERY"},
{"id":16850,"swift_code":"AGRIFRP1EFG","bank_code":16850,"bank":"CREDIT AGRICOLE LEASING ET FACTORING","branch_code":0,"zip":"92548","city":"MONTROUGE CEDEX","address":"12 PL DES ETATS UNIS","support_codes":1},
{"id":16870,"swift_code":"NOFIFR21XXX","bank_code":16870,"bank":"NORD FINANCEMENT","branch_code":0,"zip":"59700","city":"MARCQ EN BAROEUL","address":"40 RUE EUGENE JACQUET"},
{"id":16906,"swift_code":"AGRIFRPP869","bank_code":16906,"bank":"CRCAM PYRENEES GASCOGNE","branch_code":0,"zip":"64370","city":"ARTHEZ DE BEARN","address":"PL DE L HOTEL DE VILLE","support_codes":15},
{"id":16989,"swift_code":"MOBQFR22XXX","bank_code":16989,"bank":"MOBILIS BANQUE","branch_code":0,"zip":"59054","city":"ROUBAIX CEDEX 1","address":"64 BD DE CAMBRAI","support_codes":15},
{"id":16998,"swift_code":"ROYCFRPBXXX","bank_code":16998,"bank":"ROYAL BANK OF CANADA","branch_code":0,"zip":"75008","city":"PARIS","address":"58 AV MARCEAU"},
{"id":17060,"swift_code":"COGDFRP1XXX","bank_code":17060,"bank":"SOCIETE GENERALE FACTORING","branch_code":0,"zip":"93577","city":"LA PLAINE ST DENIS","address":"3 RUE FRANCIS DE PRESSENSE"},
{"id":17100,"swift_code":"CCUSFR21XXX","bank_code":17100,"bank":"CSSE CIT MUNICIPAL DE STRASBOURG","branch_code":0,"zip":"67000","city":"STRASBOURG","address":"6 RUE INGWILLER"},
{"id":17106,"swift_code":"AGRIFRPP871","bank_code":17106,"bank":"CRCAM SUD MEDITERRANEE","branch_code":0,"zip":"66000","city":"PERPIGNAN","address":"15 PL JEAN PAYRA","support_codes":15},
{"id":17149,"swift_code":"CCBPFRPP149","bank_code":17149,"bank":"CRCMM DE BRETAGNE NORMANDIE","branch_code":0,"support_codes":15},
{"id":17150,"swift_code":"CCUTFR21XXX","bank_code":17150,"bank":"CSSE CIT MUNICIPAL DE TOULON","branch_code":0,"zip":"13464","city":"MARSEILLE CEDEX 16","address":"ZAC ST ANDRE","support_codes":7},
{"id":17169,"swift_code":"CCBPFRPP169","bank_code":17169,"bank":"CRC MARIT MUTUEL DU LITTORAL SUD OUEST","branch_code":0,"zip":"17000","city":"LA ROCHELLE","address":"54 AV ALBERT EINSTEIN","support_codes":15},
{"id":17179,"swift_code":"CMMMFR21XXX","bank_code":17179,"bank":"CRC MARIT MUT DE LA MEDITERRANEE","branch_code":0,"zip":"34200","city":"SETE","address":"18 R DU 8 MAI 1945","support_codes":15},
{"id":17206,"swift_code":"AGRIFRPP872","bank_code":17206,"bank":"CRCAM ALSACE VOSGES","branch_code":0,"zip":"67000","city":"STRASBOURG","address":"1 PL DE LA GARE","support_codes":15},
{"id":17219,"swift_code":"CCBPFRPP219","bank_code":17219,"bank":"CRC MARIT MUT ATLANTIQUE","branch_code":0,"support_codes":15},
{"id":17230,"swift_code":"CMCIFRPPXXX","bank_code":17230,"bank":"CM - CIC BANQUES","branch_code":0,"zip":"75009","city":"PARIS","address":"5 R DU MONT BLANC","support_codes":15},
{"id":17290,"swift_code":"CLFRFRPPXXX","bank_code":17290,"bank":"DEXIA CREDIT LOCAL","branch_code":0,"zip":"92400","city":"COURBEVOIE","address":"1 PASSERELLE DES REFLETS","support_codes":7},
{"id":17429,"swift_code":"CCAENCN1XXX","bank_code":17429,"bank":"CSSE CIT AGRICOLE MUTUEL NLLE CALEDONIE","branch_code":0,"zip":"98800","city":"NOUMEA","address":"1 RUE DE LA SOMME"},
{"id":17439,"swift_code":"SODIRER1XXX","bank_code":17439,"bank":"SOCIETE FIRE POUR LE DEV DE LA REUNION","branch_code":0,"zip":"97400","city":"SAINT DENIS","address":"3 RUE LABOURDONNAIS","support_codes":15},
{"id":17469,"swift_code":"SOCBPFTXXXX","bank_code":17469,"bank":"SOCREDO","branch_code":0,"zip":"98400","city":"PAPEETE","address":"115 RUE DUMONT D URVILLE","support_codes":15},
{"id":17479,"swift_code":"CIPMPMP1XXX","bank_code":17479,"bank":"COOPERATIVE IMMOB ST PIERRE ET MIQUELON","branch_code":0,"zip":"97500","city":"SAINT PIERRE","address":"29 RUE MAL DE LATTRE DE TASSIGNY"},
{"id":17499,"swift_code":"BCADNCNNXXX","bank_code":17499,"bank":"BANQUE CALEDONIENNE D'INVESTISSEMENT","branch_code":0,"zip":"98849","city":"NOUMEA","address":"54 AV DE LA VICTOIRE","support_codes":15},
{"id":17510,"swift_code":"CRTAFR21XXX","bank_code":17510,"bank":"CREATIS","branch_code":0,"zip":"59650","city":"VILLENEUVE D ASCQ","address":"61 AV HALLEY","support_codes":15},
{"id":17515,"swift_code":"CEPAFRPP751","bank_code":17515,"bank":"CAISSE D EPARGNE ILE DE FRANCE","branch_code":0,"zip":"95028","city":"CERGY PONTOISE CEDEX","address":"35 BD DU PORT","support_codes":15},
{"id":17519,"swift_code":"BACPFRPPXXX","bank_code":17519,"bank":"BANQUE CENTRALE DE COMPENSATION","branch_code":0,"zip":"75002","city":"PARIS","address":"18 R DU QUATRE SEPTEMBRE"},
{"id":17529,"swift_code":"SFFTFRP1XXX","bank_code":17529,"bank":"FRANCETEL STE FRSE DE FINT DES TELECOMM","branch_code":0,"zip":"75993","city":"PARIS CEDEX 14","address":"208 212 RUE RAYMOND LOSSERAND"},
{"id":17549,"swift_code":"NATRFR21XXX","bank_code":17549,"bank":"NATIOCREDIBAIL","branch_code":0,"zip":"92000","city":"NANTERRE","address":"12 RUE DU PORT"},
{"id":17599,"swift_code":"BLOMFRPPXXX","bank_code":17599,"bank":"BLOM BANK FRANCE","branch_code":0,"zip":"75008","city":"PARIS","address":"21 AV GEORGE V","support_codes":15},
{"id":17607,"swift_code":"CCBPFRPPSTR","bank_code":17607,"bank":"BANQUE POPULAIRE D ALSACE","branch_code":0,"zip":"67000","city":"STRASBOURG","address":"5 ET 7 RUE DU 22 NOVEMBRE","support_codes":15},
{"id":17619,"swift_code":"BEMOFRPPXXX","bank_code":17619,"bank":"BEMO EUROPE BANQUE PRIVEE","branch_code":0,"zip":"75016","city":"PARIS","address":"63 AV MARCEAU","support_codes":7},
{"id":17620,"swift_code":"CCMNFR21XXX","bank_code":17620,"bank":"CSSE CIT MUNICIPAL DE NIMES","branch_code":0,"zip":"30013","city":"NIMES CEDEX 01","address":"8 BIS R GUIZOT","support_codes":7},
{"id":17629,"swift_code":"COBAFRPXXXX","bank_code":17629,"bank":"COMMERZBANK A.G.","branch_code":0,"zip":"75084","city":"PARIS CEDEX 02","address":"23 RUE DE LA PAIX","support_codes":15},
{"id":17649,"swift_code":"REVIFRPPXXX","bank_code":17649,"bank":"BANQUE REVILLON","branch_code":0,"zip":"75009","city":"PARIS","address":"37 RUE DE LA VICTOIRE","support_codes":15},
{"id":17660,"swift_code":"GENFFRP1XXX","bank_code":17660,"bank":"GENEFIM","branch_code":0,"zip":"75009","city":"PARIS","address":"29 BD HAUSSMANN"},
{"id":17679,"swift_code":"SBEXFRP1XXX","bank_code":17679,"bank":"STE DE BANQUE ET D EXPANSION SBE (2EME)","branch_code":0,"zip":"78640","city":"VILLIERS ST FREDERIC","address":"42 RTE DE BEYNES","support_codes":15},
{"id":17779,"swift_code":"SBAAFRPPXXX","bank_code":17779,"bank":"BANQUE SBA","branch_code":0,"zip":"75008","city":"PARIS","address":"68 AV DES CHAMPS ELYSEES","support_codes":15},
{"id":17789,"swift_code":"DEUTFRPPXXX","bank_code":17789,"bank":"DEUTSCHE BANK AG","branch_code":0,"zip":"75008","city":"PARIS","address":"23 25 AV FRANKLIN ROOSEVELT","support_codes":15},
{"id":17806,"swift_code":"AGRIFRPP878","bank_code":17806,"bank":"CRCAM CENTRE EST","branch_code":0,"support_codes":15},
{"id":17807,"swift_code":"CCBPFRPPTLS","bank_code":17807,"bank":"BANQUE POPULAIRE OCCITANE","branch_code":0,"zip":"31001","city":"TOULOUSE","address":"47 R D ALSACE LORRAINE","support_codes":15},
{"id":17839,"swift_code":"GMACFR21XXX","bank_code":17839,"bank":"OPEL BANK","branch_code":0,"zip":"92500","city":"RUEIL MALMAISON","address":"7 RUE HENRI STE CLAIRE DEVILLE","support_codes":7},
{"id":17869,"swift_code":"CCBIFRP1XXX","bank_code":17869,"bank":"CIE DE BANQUES INTERNAT DE PARIS","branch_code":0,"zip":"75019","city":"PARIS","address":"76 RUE CURIAL"},
{"id":17906,"swift_code":"AGRIFRPP879","bank_code":17906,"bank":"CRCAM DE L ANJOU ET DU MAINE","branch_code":0,"zip":"49000","city":"ANGERS","address":"52 BD PIERRE DE COUBERTIN","support_codes":15},
{"id":17919,"swift_code":"QNBAFRPPXXX","bank_code":17919,"bank":"QATAR NATIONAL BANK","branch_code":0,"zip":"75116","city":"PARIS","address":"65 AV D IENA","support_codes":15},
{"id":17939,"swift_code":"BNPANCNXXXX","bank_code":17939,"bank":"BNP PARIBAS NOUVELLE CALEDONIE","branch_code":0,"zip":"98800","city":"NOUMEA","address":"92 R DU PORT DESPOINTES","support_codes":15},
{"id":17959,"swift_code":"BAMYFR22XXX","bank_code":17959,"bank":"BANQUE MICHEL INCHAUSPE BAMI","branch_code":0,"zip":"64220","city":"ST JEAN PIED DE PORT","address":"11 PL FLOQUET","support_codes":15},
{"id":17979,"swift_code":"ARABFRPPXXX","bank_code":17979,"bank":"EUROPE ARAB BANK SA","branch_code":0,"zip":"75008","city":"PARIS","address":"41 AV DE FRIEDLAND","support_codes":15},
{"id":17989,"swift_code":"NBADFRPPXXX","bank_code":17989,"bank":"FIRST ABU DHABI BANK","branch_code":0,"zip":"75008","city":"PARIS","address":"125 AV DES CHAMPS ELYSEES","support_codes":15},
{"id":18000,"swift_code":"COOFFRP1XXX","bank_code":18000,"bank":"COFITEM-COFIMUR SA","branch_code":0,"zip":"75116","city":"PARIS","address":"43 RUE SAINT DOMINIQUE"},
{"id":18020,"swift_code":"BNPCFR21XXX","bank_code":18020,"bank":"BNP PARIBAS FACTOR","branch_code":0,"zip":"92506","city":"RUEIL MALMAISON","address":"12 14 RUE LOUIS BLERIOT","support_codes":1},
{"id":18025,"swift_code":"CEPAFRPP802","bank_code":18025,"bank":"CAISSE D EPARGNE DE PICARDIE","branch_code":0,"support_codes":15},
{"id":18029,"swift_code":"CETEFRP1XXX","bank_code":18029,"bank":"BNP PARIBAS PERSONAL FINANCE","branch_code":0,"zip":"92300","city":"LEVALLOIS PERRET","address":"20 AV GEORGES POMPIDOU","support_codes":7},
{"id":18040,"swift_code":"BATFFR21XXX","bank_code":18040,"bank":"BATIFRANC","branch_code":0,"zip":"25000","city":"BESANCON","address":"32 RUE CHARLES NODIER"},
{"id":18050,"swift_code":"CCMLFR21XXX","bank_code":18050,"bank":"CSSE CIT MUNICIPAL DE LYON","branch_code":0,"zip":"42000","city":"ST ETIENNE","address":"17 AV AUGUSTIN DUPRE","support_codes":7},
{"id":18059,"swift_code":"MIDLFRPXXXX","bank_code":18059,"bank":"HSBC BANK PLC","branch_code":0,"zip":"75419","city":"PARIS CEDEX 08","address":"15 RUE VERNET"},
{"id":18079,"swift_code":"SOGEGPGPXXX","bank_code":18079,"bank":"BANQUE DES CARAIBES","branch_code":0,"zip":"97110","city":"POINTE A PITRE","address":"30 RUE FREBAULT","support_codes":15},
{"id":18089,"swift_code":"AUDIFRPPXXX","bank_code":18089,"bank":"BANK AUDI FRANCE","branch_code":0,"zip":"75008","city":"PARIS","address":"73 AV DES CHAMPS ELYSEES","support_codes":7},
{"id":18106,"swift_code":"AGRIFRPP881","bank_code":18106,"bank":"CRCAM DES SAVOIE","branch_code":0,"zip":"74985","city":"ANNECY CEDEX 9","address":"4 AV DU PRE FELIN","support_codes":15},
{"id":18129,"swift_code":"ISAEFRPPXXX","bank_code":18129,"bank":"CACEIS BANK","branch_code":0,"zip":"92130","city":"ISSY LES MOULINEAUX","address":"14 R ROUGET DE LISLE","support_codes":15},
{"id":18160,"swift_code":"CCMYFR21XXX","bank_code":18160,"bank":"CSSE CIT MUNICIPAL DE NANCY","branch_code":0,"zip":"54000","city":"NANCY","address":"10 RUE CALLOT"},
{"id":18169,"swift_code":"CRESFRPPXXX","bank_code":18169,"bank":"CREDIT SUISSE (LUXEMBOURG) SA","branch_code":0,"zip":"75784","city":"PARIS CEDEX 16","address":"25 AV KLEBER"},
{"id":18179,"swift_code":"DRGFFRP1XXX","bank_code":18179,"bank":"COMMERZBANK HOLDINGS FRANCE","branch_code":0,"zip":"75002","city":"PARIS","address":"23 RUE DE LA PAIX"},
{"id":18189,"swift_code":"CGCPFRP1XXX","bank_code":18189,"bank":"CIE GLE DE CIT AUX PARTICULIERS CREDIPAR","branch_code":0,"zip":"92623","city":"GENNEVILLIERS CEDEX","address":"9 RUE HENRI BARBUSSE","support_codes":7},
{"id":18206,"swift_code":"AGRIFRPP882","bank_code":18206,"bank":"CRCAM DE PARIS ET D ILE DE FRANCE","branch_code":0,"zip":"75596","city":"PARIS CEDEX 12","address":"22 QUAI DE LA RAPEE","support_codes":15},
{"id":18209,"swift_code":"EXFNFRP1XXX","bank_code":18209,"bank":"EXANE FINANCE","branch_code":0,"zip":"75002","city":"PARIS","address":"6 RUE MENARS"},
{"id":18233,"swift_code":"PCBCFRPPXXX","bank_code":18233,"bank":"CHINA CONSTRUCTION BANK (EUROPE) SA","branch_code":0,"zip":"75008","city":"PARIS","address":"86 88 BD HAUSSMANN"},
{"id":18280,"swift_code":"UUFEFRP1XXX","bank_code":18280,"bank":"UNIFERGIE UNION FINT ECONOMIES ENERGIE","branch_code":0,"zip":"92120","city":"MONTROUGE","address":"12 PL DES ETATS UNIS"},
{"id":18289,"swift_code":"HABBFRPPXXX","bank_code":18289,"bank":"HABIB BANK LIMITED","branch_code":0,"zip":"75008","city":"PARIS","address":"112 114 BD HAUSSMANN"},
{"id":18306,"swift_code":"AGRIFRPP883","bank_code":18306,"bank":"CRCAM NORMANDIE SEINE","branch_code":0,"zip":"76238","city":"BOIS GUILLAUME","address":"CHEMIN DE LA BRETEQUE","support_codes":15},
{"id":18315,"swift_code":"CEPAFRPP831","bank_code":18315,"bank":"CAISSE D EPARGNE COTE D AZUR","branch_code":0,"zip":"06205","city":"NICE CEDEX 3","address":"455 PROMENADE DES ANGLAIS","support_codes":15},
{"id":18319,"swift_code":"SOGENCNNXXX","bank_code":18319,"bank":"STE GENERALE CALEDONIENNE DE BQ S G C B","branch_code":0,"zip":"98848","city":"NOUMEA CEDEX","address":"6 AV DU MARECHAL FOCH","support_codes":15},
{"id":18329,"swift_code":"SBINFRPPXXX","bank_code":18329,"bank":"STATE BANK OF INDIA","branch_code":0,"zip":"92979","city":"PARIS LA DEFENSE CEDEX","address":"22 PL DES VOSGES"},
{"id":18359,"swift_code":"CPMEFRPPXXX","bank_code":18359,"bank":"BPIFRANCE FINANCEMENT","branch_code":0,"zip":"94700","city":"MAISONS ALFORT","address":"27 31 AV DU GENERAL LECLERC","support_codes":7},
{"id":18370,"swift_code":"GPBAFRPPXXX","bank_code":18370,"bank":"ORANGE BANK","branch_code":0,"zip":"93107","city":"MONTREUIL CEDEX","address":"67 RUE ROBESPIERRE","support_codes":15},
{"id":18429,"swift_code":"NONNFRP1XXX","bank_code":18429,"bank":"NORBAIL SOFERGIE","branch_code":0,"zip":"75008","city":"PARIS","address":"59 BD HAUSSMANN"},
{"id":18450,"swift_code":"CMROFR21XXX","bank_code":18450,"bank":"CSSE CIT MUNICIPAL DE ROUBAIX","branch_code":0,"zip":"59100","city":"ROUBAIX","address":"30 RUE DE LILLE","support_codes":7},
{"id":18470,"swift_code":"CCMTFR21XXX","bank_code":18470,"bank":"CSSE CIT MUNICIPAL DE NANTES","branch_code":0,"zip":"44000","city":"NANTES","address":"25 R DE STRASBOURG","support_codes":1},
{"id":18520,"swift_code":"CMCIFR2AXXX","bank_code":18520,"bank":"GROUPE SOFEMO","branch_code":0,"zip":"67000","city":"STRASBOURG","address":"34 RUE DU WACKEN","support_codes":15},
{"id":18529,"swift_code":"MHCBFRPPXXX","bank_code":18529,"bank":"MIZUHO BANK LTD PARIS BRANCH","branch_code":0,"zip":"75408","city":"PARIS CEDEX 08","address":"40 RUE WASHINGTON","support_codes":15},
{"id":18530,"swift_code":"NSNCFR21XXX","bank_code":18530,"bank":"NATIOCREDIMURS STE EN NOM COLLECTIF","branch_code":0,"zip":"92000","city":"NANTERRE","address":"12 RUE DU PORT"},
{"id":18540,"swift_code":"COSAFR21XXX","bank_code":18540,"bank":"CORSABAIL","branch_code":0,"zip":"20176","city":"AJACCIO CEDEX 01","address":"6 AV DE PARIS"},
{"id":18569,"swift_code":"BMISFRPPXXX","bank_code":18569,"bank":"BANQUE MISR","branch_code":0,"zip":"75009","city":"PARIS","address":"9 RUE AUBER","support_codes":15},
{"id":18589,"swift_code":"CFDIFRP1XXX","bank_code":18589,"bank":"CAISSE FRANCAISE DE DEVELOPPEMENT INDUST","branch_code":0,"zip":"75013","city":"PARIS","address":"30 AV PIERRE MENDES FRANCE"},
{"id":18609,"swift_code":"CCIFFRPPXXX","bank_code":18609,"bank":"CAISSE CENTRALE CIT IMMOB DE FRANCE-3CIF","branch_code":0,"zip":"75008","city":"PARIS","address":"26 28 R DE MADRID","support_codes":15},
{"id":18610,"swift_code":"COLVFRP1XXX","bank_code":18610,"bank":"CIE PR LA LOC DE VEHICULES-CLV","branch_code":0,"zip":"92230","city":"GENNEVILLIERS","address":"9 RUE HENRI BARBUSSE"},
{"id":18629,"swift_code":"CCFRFRPPXXX","bank_code":18629,"bank":"HSBC FRANCE (FORMERLY HSBC CCF)","branch_code":0,"zip":"75419","city":"PARIS","address":"109 AV DES CHAMPS ELYSEES","support_codes":15},
{"id":18650,"swift_code":"SOFSFR21XXX","bank_code":18650,"bank":"SOFISCOP","branch_code":0,"zip":"75017","city":"PARIS","address":"37 RUE JEAN LECLAIRE"},
{"id":18660,"swift_code":"CFLCFRP1XXX","bank_code":18660,"bank":"COFILOISIRS CIE PR LE FINT DES LOISIRS","branch_code":0,"zip":"75008","city":"PARIS","address":"9 RUE JEAN MERMOZ"},
{"id":18669,"swift_code":"RCBPFRPPXXX","bank_code":18669,"bank":"ROTHSCHILD ET COMPAGNIE BANQUE","branch_code":0,"zip":"75008","city":"PARIS","address":"29 AV DE MESSINE"},
{"id":18689,"swift_code":"FRAFFRPPXXX","bank_code":18689,"bank":"FRANSABANK FRANCE S A","branch_code":0,"zip":"75008","city":"PARIS","address":"104 AV DES CHAMPS ELYSEES","support_codes":7},
{"id":18706,"swift_code":"AGRIFRPP887","bank_code":18706,"bank":"CRCAM BRIE PICARDIE","branch_code":0,"zip":"80095","city":"AMIENS CEDEX 3","address":"500 RUE SAINT FUSCIEN","support_codes":15},
{"id":18707,"swift_code":"CCBPFRPPVER","bank_code":18707,"bank":"BANQUE POPULAIRE VAL DE FRANCE (2EME)","branch_code":0,"zip":"28001","city":"CHARTRES","address":"5 PL DES EPARS","support_codes":15},
{"id":18709,"swift_code":"CIIFFRP1XXX","bank_code":18709,"bank":"CREDIT IMMOBILIER DE FRANCE ILE D FRANCE","branch_code":0,"zip":"75009","city":"PARIS","address":"8 CITE D ANTIN"},
{"id":18715,"swift_code":"CEPAFRPP871","bank_code":18715,"bank":"CAISSE D EPARGNE D AUVERGNE ET LIMOUSIN","branch_code":0,"zip":"87022","city":"LIMOGES CEDEX 9","address":"18 AV D ARIANE","support_codes":15},
{"id":18719,"swift_code":"BFCORERXXXX","bank_code":18719,"bank":"BANQUE FRSE COMMERCIALE OCEAN INDIEN","branch_code":0,"zip":"97470","city":"SAINT BENOIT","address":"4 RUE DES GLAIEULS BRAS FUSIL","support_codes":15},
{"id":18729,"swift_code":"BFECGPGXXXX","bank_code":18729,"bank":"BANQUE FRSE COMMERCIALE ANTILLES GUYANE","branch_code":0,"zip":"97354","city":"REMIRE MONTJOLY","address":"950 AV GASTON MONNERVILLE"},
{"id":18730,"swift_code":"OCLNNCN1XXX","bank_code":18730,"bank":"OCEOR LEASE NOUMEA","branch_code":0,"zip":"98800","city":"NOUMEA","address":"10 AV DU MARECHAL FOCH"},
{"id":18739,"swift_code":"ABNAFRPPXXX","bank_code":18739,"bank":"THE ROYAL BANK OF SCOTLAND PLC","branch_code":0,"zip":"75008","city":"PARIS","address":"94 BD HAUSSMANN"},
{"id":18769,"swift_code":"BKCHFRPPXXX","bank_code":18769,"bank":"BANK OF CHINA LIMITED","branch_code":0,"zip":"75016","city":"PARIS","address":"23 25 AV DE LA GRANDE ARMEE","support_codes":15},
{"id":18789,"swift_code":"ICBCFRPPXXX","bank_code":18789,"bank":"MEGA INTERNATIONAL COMMERCIAL BANK CO","branch_code":0,"zip":"75013","city":"PARIS","address":"131 133 R DE TOLBIAC","support_codes":15},
{"id":18829,"swift_code":"CMBRFR2BCME","bank_code":18829,"bank":"ARKEA BANQUE ENTREPRISES INSTITUTIONNELS","branch_code":0,"zip":"06200","city":"NICE","address":"455 PROMENADE DES ANGLAIS","support_codes":15},
{"id":18869,"swift_code":"FEMUFR21XXX","bank_code":18869,"bank":"BANQUE FRANCAISE MUTUALISTE BFM","branch_code":0,"zip":"75705","city":"PARIS CEDEX 13","address":"56 RUE GLACIERE","support_codes":7},
{"id":18879,"swift_code":"MOFIFR21XXX","bank_code":18879,"bank":"BANQUE MONETAIRE ET FINANCIERE B M F","branch_code":0,"zip":"77186","city":"NOISIEL","address":"91 COURS DES ROCHES"},
{"id":18889,"swift_code":"BCRTFRP1XXX","bank_code":18889,"bank":"CORTAL CONSORS","branch_code":0,"zip":"92855","city":"RUEIL MALMAISON CEDEX","address":"24 RUE DES DEUX GARES"},
{"id":18890,"swift_code":"SMFSMQM1XXX","bank_code":18890,"bank":"SOMAFI SOGUAFI","branch_code":0,"zip":"97232","city":"LE LAMENTIN","address":"ZONE INDUSTRIELLE DES MANGUES"},
{"id":18900,"swift_code":"SGFOGPG1XXX","bank_code":18900,"bank":"STE GUADELOUPEENNE DE FINT- SOGUAFI","branch_code":0,"zip":"97122","city":"BAIE MAHAULT","address":"31 RUE HENRI BECQUEREL"},
{"id":18919,"swift_code":"NATXFRPPBPS","bank_code":18919,"bank":"NATIXIS WEALTH MANAGEMENT","branch_code":0,"zip":"75002","city":"PARIS","address":"115 RUE MONTMARTRE","support_codes":15},
{"id":18930,"swift_code":"COFTFR21XXX","bank_code":18930,"bank":"CIE FINANCIERE DU LITTORAL COFILIT","branch_code":0,"zip":"13006","city":"MARSEILLE","address":"8 RUE DES VIGNERONS"},
{"id":18950,"swift_code":"CSCAFR21XXX","bank_code":18950,"bank":"CSSE CIT MUNICIPAL D AVIGNON","branch_code":0,"zip":"84000","city":"AVIGNON","address":"2 RUE VIALA","support_codes":7},
{"id":18979,"swift_code":"ABCOFRPPXXX","bank_code":18979,"bank":"ARAB BANKING CORPORATION SA","branch_code":0,"zip":"75009","city":"PARIS","address":"8 RUE HALEVY","support_codes":7},
{"id":18989,"swift_code":"AARBFRP1XXX","bank_code":18989,"bank":"AAREAL BANK AG","branch_code":0,"zip":"75008","city":"PARIS","address":"29 BIS RUE D ASTORG"},
{"id":19000,"swift_code":"IVSTFRP1XXX","bank_code":19000,"bank":"SOCIETE AUX ETUDES ET INVEST MOBILIERS","branch_code":0,"zip":"75015","city":"PARIS","address":"8 RUE LOUIS ARMAND"},
{"id":19020,"swift_code":"CRMSGPG1XXX","bank_code":19020,"bank":"CREDIT MODERNE ANTILLES GUYANE","branch_code":0,"zip":"97122","city":"BAIE MAHAULT","address":"RUE RENE RABAT"},
{"id":19063,"swift_code":"SALAFR2MXXX","bank_code":19063,"bank":"LANDESBANK SAAR (SAARLB)","branch_code":0,"zip":"57000","city":"METZ","address":"2 PL RAYMOND MONDON"},
{"id":19069,"swift_code":"KBLXFRPPXXX","bank_code":19069,"bank":"BANQUE RICHELIEU FRANCE","branch_code":0,"zip":"75008","city":"PARIS","address":"1 3 5 RUE PAUL CEZANNE","support_codes":7},
{"id":19106,"swift_code":"AGRIFRPP891","bank_code":19106,"bank":"CRCAM PROVENCE COTE D AZUR","branch_code":0,"zip":"83670","city":"BARJOLS","address":"BD GRISOLLE","support_codes":15},
{"id":19110,"swift_code":"OCLTPFT1XXX","bank_code":19110,"bank":"OCEOR LEASE TAHITI","branch_code":0,"zip":"98713","city":"PAPEETE","address":"38 RUE FRANCOIS CARDELLA"},
{"id":19139,"swift_code":"MENFFRP1XXX","bank_code":19139,"bank":"MENAFINANCE","branch_code":0,"zip":"91300","city":"MASSY","address":"1 RUE VICTOR BASCH"},
{"id":19150,"swift_code":"CRSFFRP1XXX","bank_code":19150,"bank":"CREDIT ET SERVICES FINANCIERS CRESERFI","branch_code":0,"zip":"75009","city":"PARIS","address":"9 RUE DU FBG POISSONNIERE"},
{"id":19169,"swift_code":"FIMUFR21XXX","bank_code":19169,"bank":"FINAMUR","branch_code":0,"zip":"92120","city":"MONTROUGE","address":"12 PL DES ETATS UNIS"},
{"id":19189,"swift_code":"SOCMFRP1XXX","bank_code":19189,"bank":"SOCIETE DE CREDIT A LA CONSOMMATION SA","branch_code":0,"zip":"75008","city":"NIORT","address":"BATIMENT ADMINISTRATIF 1 TREVINS DE CHAURAY"},
{"id":19190,"swift_code":"OCLRRER1XXX","bank_code":19190,"bank":"BPCE LEASE REUNION","branch_code":0,"zip":"97400","city":"SAINT DENIS","address":"32 BD DU CHAUDRON"},
{"id":19229,"swift_code":"BSABFRPPXXX","bank_code":19229,"bank":"BANCO DE SABADELL","branch_code":0,"support_codes":15},
{"id":19230,"swift_code":"CRLGFRP1XXX","bank_code":19230,"bank":"CREDIT LOGEMENT","branch_code":0,"zip":"75003","city":"PARIS","address":"50 BD SEBASTOPOL"},
{"id":19239,"swift_code":"NATFFRP1XXX","bank_code":19239,"bank":"NATIXIS TRANSPORT FINANCE","branch_code":0,"zip":"75013","city":"PARIS","address":"30 AV PIERRE MENDES FRANCE"},
{"id":19249,"swift_code":"GEEFFRP1XXX","bank_code":19249,"bank":"GENEFIMMO","branch_code":0,"zip":"92972","city":"PARIS CEDEX","address":"29 BD HAUSSMANN"},
{"id":19250,"swift_code":"CGLEFR21XXX","bank_code":19250,"bank":"CIE GLE DE LOC D EQUIPEMENTS C G L","branch_code":0,"zip":"59700","city":"MARCQ EN BAROEUL","address":"69 AV DE FLANDRE"},
{"id":19259,"swift_code":"SOGFFRP1XXX","bank_code":19259,"bank":"SOGEFIMUR","branch_code":0,"zip":"75009","city":"PARIS","address":"29 BD HAUSSMANN"},
{"id":19269,"swift_code":"GENNFR22XXX","bank_code":19269,"bank":"GENEBANQUE","branch_code":0,"zip":"92800","city":"PUTEAUX","address":"17 COURS VALMY"},
{"id":19339,"swift_code":"GCBLFRP1XXX","bank_code":19339,"bank":"GCE BAIL","branch_code":0,"zip":"75008","city":"PARIS","address":"30 AV PIERRE MENDES FRANCE"},
{"id":19406,"swift_code":"AGRIFRPP894","bank_code":19406,"bank":"CRCAM DE LA TOURAINE ET DU POITOU","branch_code":0,"zip":"86000","city":"POITIERS","address":"34 RUE CARNOT","support_codes":15},
{"id":19460,"swift_code":"SFAXFRPPXXX","bank_code":19460,"bank":"SOFAX BANQUE","branch_code":0,"zip":"92400","city":"COURBEVOIE","address":"2 PL JEAN MILLIER"},
{"id":19479,"swift_code":"SCUEFR21XXX","bank_code":19479,"bank":"STE COOP ET MUT DE LA REGION P A C A","branch_code":0,"zip":"83000","city":"TOULON","address":"237 PL DE LA LIBERTE"},
{"id":19506,"swift_code":"AGRIFRPP895","bank_code":19506,"bank":"CRCAM DU CENTRE OUEST","branch_code":0,"zip":"87000","city":"LIMOGES","address":"29 BD DE VANTEAUX","support_codes":15},
{"id":19519,"swift_code":"GEDIFR21XXX","bank_code":19519,"bank":"GEDEX DISTRIBUTION","branch_code":0,"zip":"92300","city":"LEVALLOIS PERRET","address":"6 ET 8 RUE LOUIS ROUQUIER"},
{"id":19530,"swift_code":"AGRIFRPIXXX","bank_code":19530,"bank":"AMUNDI","branch_code":0,"zip":"75015","city":"PARIS","address":"91 93 BD PASTEUR"},
{"id":19560,"swift_code":"SGCUFR21XXX","bank_code":19560,"bank":"STE GARANTIE COOP MUT DES IND MET ELECT","branch_code":0,"zip":"38000","city":"GRENOBLE","address":"19 RUE DES BERGES"},
{"id":19570,"swift_code":"UFIFFRP1XXX","bank_code":19570,"bank":"UNION FIRE DE FRANCE BANQUE","branch_code":0,"zip":"75016","city":"PARIS","address":"32 AV D IENA"},
{"id":19730,"swift_code":"NOMAFRP1XXX","bank_code":19730,"bank":"BANQUE NOMURA FRANCE","branch_code":0,"zip":"75116","city":"PARIS","address":"7 PL D IENA"},
{"id":19806,"swift_code":"AGRIMQMXXXX","bank_code":19806,"bank":"CRCAM DE LA MARTINIQUE ET DE LA GUYANE","branch_code":0,"zip":"97240","city":"LE FRANCOIS","address":"22 RUE HOMERE CLEMENT","support_codes":15},
{"id":19850,"swift_code":"COGPFR21XXX","bank_code":19850,"bank":"COMPAGNIE DE GESTION ET DE PRETS CDGP","branch_code":0,"zip":"75009","city":"PARIS","address":"18 RUE DE LONDRES"},
{"id":19870,"swift_code":"SOAPFR22XXX","bank_code":19870,"bank":"CARREFOUR BANQUE","branch_code":0,"zip":"91051","city":"EVRY COURCOURONNES CEDEX","address":"1 PL COPERNIC","support_codes":7},
{"id":19906,"swift_code":"AGRIRERXXXX","bank_code":19906,"bank":"CRCAM DE LA REUNION","branch_code":0,"zip":"97400","city":"SAINT DENIS","address":"18 RUE FELIX GUYON","support_codes":15},
{"id":19930,"swift_code":"CINEFRP1XXX","bank_code":19930,"bank":"CINERGIE","branch_code":0,"zip":"75007","city":"PARIS","address":"19 RUE DES CAPUCINES"},
{"id":19940,"swift_code":"ENEEFRP1XXX","bank_code":19940,"bank":"BPCE ENERGECO","branch_code":0,"zip":"75013","city":"PARIS","address":"30 AV PIERRE MENDES FRANCE"},
{"id":19990,"swift_code":"SSGIFR21XXX","bank_code":19990,"bank":"SOGEFINERG STE GALE PR FINT INV ECO ENER","branch_code":0,"zip":"92800","city":"PUTEAUX","address":"17 COURS VALMY"},
{"id":20019,"swift_code":"SFDIFR21XXX","bank_code":20019,"bank":"STE PR FINT DU DEV IND POITOU-CHARENTES","branch_code":0,"zip":"16000","city":"ANGOULEME","address":"11 RUE DE BELAT"},
{"id":20041,"swift_code":"PSSTFRPPPAR","bank_code":20041,"bank":"LA BANQUE POSTALE","branch_code":0,"zip":"75900","city":"PARIS CEDEX 15","address":"11 RUE BOURSEUL","support_codes":15},
{"id":20280,"swift_code":"SPIFFRP1XXX","bank_code":20280,"bank":"SCM DES PROF IMMO ET FINANCIERES","branch_code":0,"zip":"75015","city":"PARIS","address":"26 AV DE SUFFREN"},
{"id":20290,"swift_code":"CMCMFRP1XXX","bank_code":20290,"bank":"CAUTIALIS","branch_code":0,"zip":"75013","city":"PARIS","address":"87 QUAI PANHARD ET LEVASSOR"},
{"id":20380,"swift_code":"CAOAFRP1XXX","bank_code":20380,"bank":"CAUTION GRAINOL","branch_code":0,"zip":"75001","city":"PARIS","address":"40 RUE EUGENE JACQUET"},
{"id":20433,"swift_code":"NTSBFRM1XXX","bank_code":20433,"bank":"N26 BANK GMBH","branch_code":0,"zip":"75002","city":"PARIS","address":"17 21 RUE ST FIACRE","support_codes":7},
{"id":21339,"swift_code":"FOLFFRP1XXX","bank_code":21339,"bank":"FORTIS LEASE","branch_code":0,"zip":"92000","city":"NANTERRE","address":"12 RUE DU PORT"},
{"id":21349,"swift_code":"PAILFRP1XXX","bank_code":21349,"bank":"PARILEASE","branch_code":0,"zip":"75002","city":"PARIS","address":"41 AV DE L OPERA"},
{"id":21570,"swift_code":"STFEFR21XXX","bank_code":21570,"bank":"SOCIETE FIRE DE LA N E F","branch_code":0,"zip":"69120","city":"VAULX EN VELIN","address":"8 AV DES CANUTS","support_codes":15},
{"id":21619,"swift_code":"SOBLFRP1XXX","bank_code":21619,"bank":"SOPHIA BAIL","branch_code":0,"zip":"75009","city":"PARIS","address":"29 BD HAUSSMANN"},
{"id":21670,"swift_code":"CPBIFRPPXXX","bank_code":21670,"bank":"LOOMIS FX GOLD AND SERVICES","branch_code":0,"zip":"94250","city":"GENTILLY","address":"42 RUE BENOIT MALON","support_codes":15},
{"id":21859,"swift_code":"BOGAFR21XXX","bank_code":21859,"bank":"BOURGOGNE FRANCHE COMTE GARANTIE","branch_code":0,"zip":"21000","city":"DIJON","address":"64 A RUE SULLY"},
{"id":21990,"swift_code":"FIPIFRP1XXX","bank_code":21990,"bank":"BANQUE LEONARDO","branch_code":0,"zip":"75007","city":"PARIS","address":"4 PL ST THOMAS D AQUIN"},
{"id":22840,"swift_code":"SCFFFR21XXX","bank_code":22840,"bank":"SCANIA FINANCE FRANCE","branch_code":0,"zip":"49000","city":"ANGERS","address":"2 BD DE L INDUSTRIE"},
{"id":22910,"swift_code":"TRFIFR21XXX","bank_code":22910,"bank":"TRANSOLVER FINANCE","branch_code":0,"zip":"78190","city":"TRAPPES","address":"6 R NICOLAS COPERNIC"},
{"id":22970,"swift_code":"EPCMFRP1XXX","bank_code":22970,"bank":"EPARGNE CREDIT DES MILITAIRES (E C M )","branch_code":0,"zip":"83100","city":"TOULON","address":"RUE NICOLAS APPERT"},
{"id":23380,"swift_code":"DERAFRP1XXX","bank_code":23380,"bank":"DEXIA C L F REGIONS BAIL","branch_code":0,"zip":"92400","city":"COURBEVOIE","address":"1 PASSERELLE DES REFLETS"},
{"id":23779,"swift_code":"BYBBFRPPXXX","bank_code":23779,"bank":"BYBLOS BANK EUROPE","branch_code":0,"zip":"75008","city":"PARIS","address":"15 R LORD BYRON","support_codes":7},
{"id":23890,"swift_code":"BCMAFRPPXXX","bank_code":23890,"bank":"ATTIJARIWAFA BANK EUROPE","branch_code":0,"zip":"92600","city":"ASNIERES SUR SEINE","address":"1 R JEAN JACQUES ROUSSEAU","support_codes":15},
{"id":23930,"swift_code":"SOCIFRP1XXX","bank_code":23930,"bank":"SOGAMA CREDIT ASSOCIATIF","branch_code":0,"zip":"75009","city":"PARIS","address":"75 R ST LAZARE"},
{"id":24280,"swift_code":"ODCFFRP1XXX","bank_code":24280,"bank":"ODDO CORPORATE FINANCE","branch_code":0,"zip":"75009","city":"PARIS","address":"12 BD DE LA MADELEINE"},
{"id":24599,"swift_code":"PRIVFRPPXXX","bank_code":24599,"bank":"MILLEIS BANQUE","branch_code":0,"zip":"75008","city":"PARIS","address":"32 AV GEORGE V","support_codes":15},
{"id":24659,"swift_code":"BCIBFRP1XXX","bank_code":24659,"bank":"BANQUE CHABRIERES","branch_code":0,"zip":"75015","city":"PARIS","address":"24 R AUGUSTE CHABRIERES","support_codes":15},
{"id":24833,"swift_code":"SBOSFRP1XXX","bank_code":24833,"bank":"STATE STREET BANK INTERNATIONAL GMBH","branch_code":0,"zip":"92800","city":"PUTEAUX","address":"23 25 RUE DELARIVIERE LEFOULLON"},
{"id":25080,"swift_code":"AXFIFR21XXX","bank_code":25080,"bank":"AXA BANQUE FINANCEMENT","branch_code":0,"zip":"94138","city":"FONTENAY SOUS BOIS CEDEX","address":"203 205 RUE CARNOT"},
{"id":25609,"swift_code":"SETMFRP1XXX","bank_code":25609,"bank":"SCM ENTREP TRAVAIL TEMPORAIRE SOCAMETT","branch_code":0,"zip":"75008","city":"PARIS","address":"2 RUE DE PENTHIEVRE"},
{"id":25709,"swift_code":"CGINFRP1XXX","bank_code":25709,"bank":"GALIAN","branch_code":0,"zip":"75008","city":"PARIS","address":"89 RUE LA BOETIE"},
{"id":25790,"swift_code":"PARRFRP1XXX","bank_code":25790,"bank":"PARIFERGIE SOCIETE ANONYME","branch_code":0,"zip":"75002","city":"PARIS","address":"41 AV DE L OPERA"},
{"id":26269,"swift_code":"SSGEFRP1XXX","bank_code":26269,"bank":"SOGAL STE GAR ENTREP LAIT AGRI ALIMENT","branch_code":0,"zip":"75314","city":"PARIS CEDEX 09","address":"42 RUE DE CHATEAUDUN"},
{"id":26310,"swift_code":"SYGMFRP1XXX","bank_code":26310,"bank":"SYGMA BANQUE","branch_code":0,"zip":"75449","city":"PARIS CEDEX 09","address":"18 RUE DE LONDRES"},
{"id":26679,"swift_code":"SIAAFRP1XXX","bank_code":26679,"bank":"STE INTERPROF ARTISANALE GARANTIE INVEST","branch_code":0,"zip":"75009","city":"PARIS","address":"2 RUE JEAN BAPTISTE PIGALLE"},
{"id":26819,"swift_code":"CMGIFRP1XXX","bank_code":26819,"bank":"CAISSE MUT GAR IND MECA ET TRANSF METAUX","branch_code":0,"zip":"92400","city":"COURBEVOIE","address":"39 41 RUE LOUIS BLANC"},
{"id":27180,"swift_code":"NOIMFRP1XXX","bank_code":27180,"bank":"NORBAIL IMMOBILIER","branch_code":0,"zip":"75008","city":"PARIS","address":"55 57 BD HAUSSMANN"},
{"id":27589,"swift_code":"OUDAFRP1XXX","bank_code":27589,"bank":"OUDART SA","branch_code":0,"zip":"75002","city":"PARIS","address":"10A R DE LA PAIX","support_codes":7},
{"id":27800,"swift_code":"KREDFRPPXXX","bank_code":27800,"bank":"KBC BANK","branch_code":0,"zip":"59030","city":"LILLE CEDEX","address":"6 RUE NICOLAS APPERT","support_codes":15},
{"id":27910,"swift_code":"REUNFR21XXX","bank_code":27910,"bank":"REUNIBAIL","branch_code":0,"zip":"97438","city":"SAINTE MARIE","address":"5 RUE ANDRE LARDY"},
{"id":28310,"swift_code":"GEEEFR21XXX","bank_code":28310,"bank":"GENECOMI","branch_code":0,"zip":"92800","city":"PUTEAUX","address":"17 COURS VALMY"},
{"id":28570,"swift_code":"CMDIFR21XXX","bank_code":28570,"bank":"CSSE CIT MUNICIPAL DE DIJON","branch_code":0,"zip":"18000","city":"BOURGES","address":"2 PL PLANCHAT"},
{"id":28860,"swift_code":"FONAFRP1XXX","bank_code":28860,"bank":"FONCARIS","branch_code":0,"zip":"92120","city":"MONTROUGE","address":"12 PL DES ETATS UNIS"},
{"id":30002,"swift_code":"CRLYFRPPXXX","bank_code":30002,"bank":"CREDIT LYONNAIS","branch_code":0,"zip":"75001","city":"PARIS","address":"4 PL ANDRE MALRAUX","support_codes":15},
{"id":30003,"swift_code":"SOGEFRPPXXX","bank_code":30003,"bank":"SOCIETE GENERALE","branch_code":0,"zip":"47000","city":"AGEN","address":"11 PL DU PRESIDENT WILSON","support_codes":15},
{"id":30004,"swift_code":"BNPAFRPPXXX","bank_code":30004,"bank":"BNP PARIBAS","branch_code":0,"zip":"85203","city":"FONTENAY LE COMTE CEDEX","address":"23 R DE LA REPUBLIQUE","support_codes":15},
{"id":30006,"swift_code":"AGRIFRPPXXX","bank_code":30006,"bank":"CREDIT AGRICOLE S A","branch_code":0,"zip":"92127","city":"MONTROUGE CEDEX","address":"12 PL DES ETATS UNIS","support_codes":15},
{"id":30007,"swift_code":"NATXFRPPXXX","bank_code":30007,"bank":"NATIXIS","branch_code":0,"zip":"75002","city":"PARIS","address":"115 RUE MONTMARTRE","support_codes":15},
{"id":30027,"swift_code":"CMCIFRPPXXX","bank_code":30027,"bank":"BANQUE CIC NORD OUEST","branch_code":0,"zip":"76000","city":"ROUEN","address":"15 PL DE LA PUCELLE","support_codes":15},
{"id":30047,"swift_code":"CMCIFRPPXXX","bank_code":30047,"bank":"BANQUE CIC OUEST","branch_code":0,"support_codes":15},
{"id":30051,"swift_code":"CFFOFRPPXXX","bank_code":30051,"bank":"COMPAGNIE DE FINANCEMENT FONCIER","branch_code":0,"zip":"75001","city":"PARIS","address":"19 R DES CAPUCINES","support_codes":7},
{"id":30056,"swift_code":"CCFRFRPPXXX","bank_code":30056,"bank":"HSBC FRANCE","branch_code":0,"zip":"75015","city":"PARIS","address":"4 PL DE BRETEUIL","support_codes":15},
{"id":30066,"swift_code":"CMCIFRPPXXX","bank_code":30066,"bank":"CREDIT INDUSTRIEL ET COMMERCIAL CIC","branch_code":0,"support_codes":15},
{"id":30076,"swift_code":"NORDFRPPXXX","bank_code":30076,"bank":"CREDIT DU NORD","branch_code":0,"zip":"75361","city":"PARIS CEDEX 08","address":"59 BD HAUSSMANN","support_codes":15},
{"id":30077,"swift_code":"SMCTFR2AXXX","bank_code":30077,"bank":"SOCIETE MARSEILLAISE DE CREDIT","branch_code":0,"support_codes":15},
{"id":30087,"swift_code":"CMCIFRPPXXX","bank_code":30087,"bank":"BANQUE CIC EST","branch_code":0,"support_codes":15},
{"id":30258,"swift_code":"BATIFRP1XXX","bank_code":30258,"bank":"BANQUE DU BAT ET DES TRAV PUB BTP BANQUE","branch_code":0,"zip":"75016","city":"PARIS","address":"48 RUE LA PEROUSE","support_codes":15},
{"id":30438,"swift_code":"INGBFRPPXXX","bank_code":30438,"bank":"ING BANK NV","branch_code":0,"zip":"75564","city":"PARIS CEDEX 12","address":"40 AV DES TERROIRS DE FRANCE","support_codes":15},
{"id":30478,"swift_code":"MONTFRPPXXX","bank_code":30478,"bank":"MONTE PASCHI BANQUE S A","branch_code":0,"zip":"75001","city":"PARIS","address":"13 15 BD DE LA MADELEINE","support_codes":15},
{"id":30488,"swift_code":"BNPAFRPPXXX","bank_code":30488,"bank":"BNP PARIBAS SA","branch_code":0,"support_codes":15},
{"id":30568,"swift_code":"CMCIFRPPXXX","bank_code":30568,"bank":"BANQUE TRANSATLANTIQUE","branch_code":0,"zip":"75008","city":"PARIS","address":"26 AV FRANKLIN ROOSEVELT","support_codes":15},
{"id":30588,"swift_code":"BARCFRPCXXX","bank_code":30588,"bank":"BARCLAYS BANK IRELAND","branch_code":0,"zip":"75383","city":"PARIS CEDEX 8","address":"34 36 AV FRIEDLAND","support_codes":15},
{"id":30628,"swift_code":"CHASFRPPXXX","bank_code":30628,"bank":"JPMORGAN CHASE BANK NATIONAL ASSOCIATION","branch_code":0,"zip":"75001","city":"PARIS","address":"14 PL VENDOME","support_codes":15},
{"id":30748,"swift_code":"LAZPFRPPXXX","bank_code":30748,"bank":"LAZARD FRERES BANQUE","branch_code":0,"zip":"75008","city":"PARIS","address":"121 BD HAUSSMANN","support_codes":7},
{"id":30758,"swift_code":"UBSWFRPPXXX","bank_code":30758,"bank":"UBS (FRANCE) S A","branch_code":0,"zip":"75008","city":"PARIS","address":"69 BD HAUSSMANN","support_codes":15},
{"id":30788,"swift_code":"NSMBFRPPXXX","bank_code":30788,"bank":"BANQUE NEUFLIZE OBC","branch_code":0,"zip":"75410","city":"PARIS CEDEX 08","address":"3 AV HOCHE","support_codes":15},
{"id":30958,"swift_code":"BPLGFR21XXX","bank_code":30958,"bank":"BNP PARIBAS LEASE GROUP","branch_code":0,"zip":"92000","city":"NANTERRE","address":"12 RUE DU PORT"},
{"id":31489,"swift_code":"BSUIFRPPXXX","bank_code":31489,"bank":"CREDIT AGRICOLE CORPORATE AND INVESTM BK","branch_code":0,"zip":"92400","city":"COURBEVOIE","address":"9 QUAI DU PDT PAUL DOUMER","support_codes":15},
{"id":40168,"swift_code":"BNPAFRPPXXX","bank_code":40168,"bank":"BNP-PARIBAS SA (FORMERLY BANQUE NATIONALE DE PARIS S.A.)","branch_code":0,"zip":"75450","city":"PARIS CEDEX 09","address":"18 QUAI DUGUAY TROUIN","support_codes":15},
{"id":40198,"swift_code":"BPPBFRP1XXX","bank_code":40198,"bank":"BNP PARIBAS WEALTH MANAGEMENT","branch_code":0,"zip":"75362","city":"PARIS CEDEX 08","address":"10 BD MALESHERBES"},
{"id":40238,"swift_code":"EUROFRPPXXX","bank_code":40238,"bank":"VTB BANK FRANCE SA","branch_code":0,"zip":"75008","city":"PARIS","address":"86 BD HAUSSMANN"},
{"id":40398,"swift_code":"BICFFRPPXXX","bank_code":40398,"bank":"BANQUE INTERNATIONALE DE COMMERCE BRED","branch_code":0,"zip":"75012","city":"PARIS","address":"18 QUAI DE LA RAPEE","support_codes":15},
{"id":40618,"swift_code":"BOUSFRPPXXX","bank_code":40618,"bank":"BOURSORAMA","branch_code":0,"zip":"92772","city":"BOULOGNE BILLANCOURT CEDEX","address":"44 RUE TRAVERSIERE","support_codes":15},
{"id":40978,"swift_code":"BSPFFRPPXXX","bank_code":40978,"bank":"BANQUE PALATINE","branch_code":0,"zip":"75008","city":"PARIS","address":"42 RUE D ANJOU","support_codes":15},
{"id":41139,"swift_code":"BRASFRPPXXX","bank_code":41139,"bank":"BANCO DO BRASIL AG","branch_code":0,"zip":"92300","city":"LEVALLOIS PERRET","address":"50 QUAI CHARLES PASQUA","support_codes":7},
{"id":41189,"swift_code":"BBVAFRPPXXX","bank_code":41189,"bank":"BANCO BILBAO VIZCAYA ARGENTARIA BBVA","branch_code":0,"zip":"75001","city":"PARIS","address":"29 AV DE L OPERA","support_codes":15},
{"id":41199,"swift_code":"CMCIFRPPXXX","bank_code":41199,"bank":"CIC IBERBANCO","branch_code":0,"zip":"75008","city":"PARIS","address":"8 RUE D ANJOU","support_codes":15},
{"id":41219,"swift_code":"BOFAFRPPXXX","bank_code":41219,"bank":"BANK OF AMERICA MERILL LYNCH INTNL DAC","branch_code":0,"zip":"75008","city":"PARIS","address":"51 RUE DE LA BOETIE","support_codes":15},
{"id":41249,"swift_code":"BOTKFRPXXXX","bank_code":41249,"bank":"MUFG BANK LTD","branch_code":0,"zip":"75080","city":"PARIS CEDEX 02","address":"18 RUE DU QUATRE SEPTEMBRE","support_codes":15},
{"id":41329,"swift_code":"PARBFRPPXXX","bank_code":41329,"bank":"BNP PARIBAS SECURITIES SERVICES","branch_code":0,"zip":"75009","city":"PARIS","address":"66 R DE LA VICTOIRE","support_codes":15},
{"id":41439,"swift_code":"BCDMFRPPXXX","bank_code":41439,"bank":"BANQUE CHAABI DU MAROC","branch_code":0,"zip":"75017","city":"PARIS","address":"177 AV DE CLICHY","support_codes":7},
{"id":41539,"swift_code":"AGRIFRP1ACF","bank_code":41539,"bank":"CA CONSUMER FINANCE","branch_code":0,"zip":"91068","city":"MASSY CEDEX","address":"1 RUE VICTOR BASCH","support_codes":15},
{"id":41599,"swift_code":"FRABFRP1XXX","bank_code":41599,"bank":"BANQUE FRANCAISE","branch_code":0,"zip":"75002","city":"PARIS","address":"45 47 RUE VIVIENNE"},
{"id":41639,"swift_code":"NBOKFRPPXXX","bank_code":41639,"bank":"NBK FRANCE SA","branch_code":0,"zip":"75008","city":"PARIS","address":"90 AV DES CHAMPS ELYSEES","support_codes":15},
{"id":41829,"swift_code":"LICOFRPPXXX","bank_code":41829,"bank":"AL KHALIJI FRANCE","branch_code":0,"zip":"75008","city":"PARIS","address":"49 51 AV GEORGE V","support_codes":7},
{"id":41839,"swift_code":"BDAFGPGXXXX","bank_code":41839,"bank":"BANQUE DES ANTILLES FRANCAISES","branch_code":0},
{"id":41919,"swift_code":"BNPARERXXXX","bank_code":41919,"bank":"BNP PARIBAS REUNION","branch_code":0,"zip":"97463","city":"SAINT DENIS CEDEX","address":"67 RUE JULIETTE DODU","support_codes":15},
{"id":42529,"swift_code":"COFIFRPPXXX","bank_code":42529,"bank":"EDMOND DE ROTHSCHILD FRANCE","branch_code":0,"zip":"75008","city":"PARIS","address":"47 RUE DU FBG ST HONORE","support_codes":15},
{"id":42559,"swift_code":"CCOPFRPPXXX","bank_code":42559,"bank":"CREDIT COOPERATIF","branch_code":0,"zip":"75008","city":"PARIS","address":"80 R DE COURCELLES","support_codes":15},
{"id":42649,"swift_code":"TRAVFRPPXXX","bank_code":42649,"bank":"BANQUE TRAVELEX S A","branch_code":0,"zip":"75008","city":"PARIS","address":"52 AV DES CHAMPS ELYSEES","support_codes":7},
{"id":42799,"swift_code":"MOEYFRPPXXX","bank_code":42799,"bank":"MY MONEY BANK","branch_code":0,"zip":"92400","city":"COURBEVOIE","address":"20 AV ANDRE PROTHIN","support_codes":7},
{"id":42959,"swift_code":"ELBAFRPPXXX","bank_code":42959,"bank":"ELECTRO FINANCE","branch_code":0,"zip":"91620","city":"NOZAY","address":"RTE DE VILLEJUST"},
{"id":43030,"swift_code":"ALTRFRP1XXX","bank_code":43030,"bank":"BANQUE DEGROOF PETERCAM FRANCE","branch_code":0,"zip":"75008","city":"PARIS","address":"44 RUE DE LISBONNE","support_codes":7},
{"id":43199,"swift_code":"CFFRFRPPXXX","bank_code":43199,"bank":"CREDIT FONCIER DE FRANCE","branch_code":0,"zip":"75012","city":"PARIS","address":"40 AV DES TERROIRS DE FRANCE","support_codes":15},
{"id":43629,"swift_code":"SCBNFR21XXX","bank_code":43629,"bank":"STE AN DE CREDIT A L IND FRANCAISE CALIF","branch_code":0,"zip":"92800","city":"PUTEAUX","address":"17 COURS VALMY"},
{"id":43659,"swift_code":"BESVFRPPXXX","bank_code":43659,"bank":"MY PARTNER BANK","branch_code":0,"zip":"92400","city":"COURBEVOIE","address":"20 AV ANDRE PROTHIN","support_codes":15},
{"id":43789,"swift_code":"SIFBFRP1XXX","bank_code":43789,"bank":"QUILVEST BANQUE PRIVEE","branch_code":0,"zip":"75007","city":"PARIS","address":"243 BD ST GERMAIN","support_codes":15},
{"id":43799,"swift_code":"SIBLFRPPXXX","bank_code":43799,"bank":"CA INDOSUEZ WEALTH (FRANCE)","branch_code":0,"zip":"75382","city":"PARIS CEDEX 08","address":"17 RUE DU DR LANCEREAUX","support_codes":15},
{"id":43849,"swift_code":"UTUBFRPPPYR","bank_code":43849,"bank":"TUNISIAN FOREIGN BANK","branch_code":0,"zip":"75001","city":"PARIS","address":"19 RUE DES PYRAMIDES","support_codes":15},
{"id":43899,"swift_code":"UBAFFRPPXXX","bank_code":43899,"bank":"UNION DE BANQUES ARABES ET FRSES U B A F","branch_code":0,"zip":"92400","city":"COURBEVOIE","address":"2 AV GAMBETTA"},
{"id":44149,"swift_code":"ESCBFRPPXXX","bank_code":44149,"bank":"BANQUE D ESCOMPTE","branch_code":0,"zip":"75009","city":"PARIS","address":"13 BD HAUSSMANN","support_codes":15},
{"id":44319,"swift_code":"PREUFRP1XXX","bank_code":44319,"bank":"BPE","branch_code":0,"zip":"06000","city":"NICE","address":"3 PL GRIMALDI","support_codes":15},
{"id":44449,"swift_code":"LIXXFR21XXX","bank_code":44449,"bank":"LIXXCREDIT","branch_code":0,"zip":"92548","city":"MONTROUGE CEDEX","address":"12 PL DES ETATS UNIS"},
{"id":44729,"swift_code":"BSCHFRPPXXX","bank_code":44729,"bank":"BANCO SANTANDER SA","branch_code":0,"zip":"75001","city":"PARIS","address":"374 RUE ST HONORE","support_codes":15},
{"id":45539,"swift_code":"CMCIFR2AXXX","bank_code":45539,"bank":"CAISSE CENTRALE DU CREDIT MUTUEL","branch_code":0,"zip":"75017","city":"PARIS 17 EME","address":"88 90 R CARDINET","support_codes":15},
{"id":45850,"swift_code":"ODDOFRPPXXX","bank_code":45850,"bank":"ODDO BHF SCA","branch_code":0,"zip":"75009","city":"PARIS","address":"12 BD DE LA MADELEINE","support_codes":15},
{"id":50140,"swift_code":"CMPCFRP1XXX","bank_code":50140,"bank":"CMP BANQUE","branch_code":0,"zip":"75004","city":"PARIS","address":"55 RUE DES FRANCS BOURGEOIS"},
{"id":60080,"swift_code":"SADDFR21XXX","bank_code":60080,"bank":"STE ALSACIENNE DE DEV ET D EXPANS SADE","branch_code":0,"zip":"67000","city":"STRASBOURG","address":"4 ALLEE DE LA ROBERTSAU"},
{"id":60220,"swift_code":"CADCFR21XXX","bank_code":60220,"bank":"CAISSE DE DEVELOPPEMENT DE LA CORSE","branch_code":0,"zip":"20176","city":"AJACCIO CEDEX 01","address":"6 AV DE PARIS"},
{"id":62108,"swift_code":"ESDRFR21XXX","bank_code":62108,"bank":"EXPANSO-LA SOCIETE POUR LE DEVELOPPEMENT REGIONAL SA","branch_code":0,"zip":"33076","city":"BORDEAUX CEDEX","address":"25 COURS DU MARECHAL FOCH"}
    ]
}
