{
    "country_code": "GR",
    "isSEPAcountry": true,
    "ISO_3166_1": { "name": "Greece" , "name_fr": "Gr√®ce (la)" , "alpha2": "GR" , "alpha3": "GRC" , "numeric": 300 },
    "list": [
{"id":910000,"swift_code":"STTKGR21XXX","bank_code":91,"bank":"COOPERATIVE BANK OF THESSALY","branch_code":0,"zip":"421 00","city":"TRIKALA","address":"3, Miaouli st","phone":"24310 76100","fax":"24310 76101","www":"www.bankofthessaly.gr","support_codes":1},
{"id":890000,"swift_code":"STKAGRA1XXX","bank_code":89,"bank":"COOPERATIVE BANK OF KARDITSA","branch_code":0,"zip":"431 00","city":"KARDITSA","address":"Shopping Center - Taliadourou & Kolokotroni","phone":"24410 40099","fax":"24410 40199","www":"www.bankofkarditsa.gr","support_codes":15},
{"id":870000,"swift_code":"STPGGRAAXXX","bank_code":87,"bank":"PANCRETAN COOPERATIVE BANK","branch_code":0,"zip":"713 06","city":"HERAKLIO","address":"5, Ikarou Ave","phone":"2810 338800","fax":"2810 341318","www":"www.pancretabank.gr","support_codes":15},
{"id":840000,"swift_code":"CITIGRAAXXX","bank_code":84,"bank":"CITIBANK EUROPE PLC","branch_code":0,"zip":"105 57","city":"Athens","address":"8 Othonos str","phone":"210 3292000","fax":"210 3243277","www":"www.citigroup.com\/citi\/about\/countrypresence\/greece.html","support_codes":15},
{"id":810000,"swift_code":"BOFAGR2XXXX","bank_code":81,"bank":"BANK OF AMERICA NA","branch_code":0,"zip":"115 28","city":"Athens","address":"68, Vas. Sophias Av.","phone":"210 7415000","fax":"210 7243102","www":"www.bankamerica.com","support_codes":15},
{"id":750000,"swift_code":"STIOGR21XXX","bank_code":75,"bank":"COOPERATIVE BANK OF EPIRUS L.T.D","branch_code":0,"zip":"452 21","city":"IOANNINA","address":"Patriarxou Ioakim 6 and Karapanou str","phone":"26510 59000","fax":"26510 28065","www":"www.epirusbank.gr","support_codes":1},
{"id":720000,"swift_code":"HYVEGRAAXXX","bank_code":72,"bank":"UNICREDIT BANK AG","branch_code":0,"zip":"10673","city":"Athens","address":"7, Heraklitou st.- Kolonaki","phone":"210 3671500","fax":"210 3640063","www":"www.unicreditgroup.gr","support_codes":7},
{"id":710000,"swift_code":"MIDLGRAAXXX","bank_code":71,"bank":"HSBC BANK PLC","branch_code":0,"zip":"115 26","city":"Athens","address":"109-11 Messoghion Av.","phone":"210 6960000","fax":"210 6928000","www":"http:\/\/www.hsbc.gr","support_codes":15},
{"id":690000,"swift_code":"STXAGRA1XXX","bank_code":69,"bank":"COOPERATIVE BANK OF CHANIA","branch_code":0,"zip":"731 32","city":"CHANIA","address":"28-32 El. Venizelou","phone":"28210 25500","fax":"28210 25591","www":"www.chaniabank.gr","support_codes":1},
{"id":590000,"swift_code":"BNGRGRAAXXX","bank_code":59,"bank":"GMAC Bank GmbH","branch_code":0,"zip":"151 25","city":"Maroussi","address":"3-5, Konitsis Str.","phone":"210 8098300","fax":"210 6147793","www":"www.gmacfs.com\/gr","support_codes":15},
{"id":570000,"swift_code":"PRXBGRAAXXX","bank_code":57,"bank":"PRAXIA BANK S.A","branch_code":0,"zip":"171 21","city":"Athens","address":"187 Syngrou Ave","phone":"210 9396400","fax":"210 9396909","support_codes":1},
{"id":560000,"swift_code":"AEBAGRAAXXX","bank_code":56,"bank":"AEGEAN BALTIC BANK S.A.","branch_code":0,"zip":"151 24","city":"Maroussi","address":"91, Meg. Alexandrou & 25 Martiou","phone":"210 6234110","fax":"210 6234192","www":"www.aegeanbaltic.com","support_codes":1},
{"id":500000,"swift_code":"BSIRGRAAXXX","bank_code":50,"bank":"BANK SADERAT IRAN","branch_code":0,"zip":"105 64","city":"Athens","address":"25-29 Eleftheriou Venizelou Av.","phone":"210 3249531","fax":"210 3251154","www":"www.saderat.gr"},
{"id":400000,"swift_code":"FIATGRA1XXX","bank_code":40,"bank":"FGA BANK G.M.B.H.","branch_code":0,"zip":"164 52","city":"Argyroupoli","address":"580A, Vouliagmenis Av.","phone":"210 9988777","fax":"210 9961118"},
{"id":390000,"swift_code":"PARBGRAXXXX","bank_code":39,"bank":"BNP PARIBAS SECURITIES SERVICES","branch_code":0,"zip":"115 28","city":"Athens","address":"94, V. Sofias Av. & 1 Kerasountos Str","phone":"210 7468500","fax":"210 7468579","www":"http:\/\/securities.bnpparibas.com","support_codes":7},
{"id":340000,"swift_code":"IBOGGRAAXXX","bank_code":34,"bank":"OPTIMA BANK","branch_code":0,"zip":"151 25","city":"Marousi","address":"32, Egialeias Street","phone":"210 8171800","fax":"210 8173101","www":"www.optimabank.gr","support_codes":1},
{"id":260000,"swift_code":"ERBKGRAAXXX","bank_code":26,"bank":"EUROBANK ERGASIAS S.A.","branch_code":0,"zip":"105 57","city":"ATHENS","address":"8, Othonos Str.","phone":"210 3233866","www":"www.eurobank.gr","support_codes":15},
{"id":1160000,"swift_code":"PRCBGRAAXXX","bank_code":116,"bank":"PROCREDIT BANK (BULGARIA) EAD","branch_code":0,"zip":"546 27","city":"Thessaloniki","address":"54-56 26th Octovriou & Pigassou streets","phone":"2316 008840","fax":"2316 008841","www":"www.procreditbank.gr","support_codes":1},
{"id":170000,"swift_code":"PIRBGRAAXXX","bank_code":17,"bank":"PIRAEUS BANK S.A.","branch_code":0,"zip":"105 64","city":"Athens","address":"4, Amerikis Str.","phone":"210 3335000","fax":"210 3335080","www":"WWW.PIRAEUSBANK.GR","support_codes":15},
{"id":160000,"swift_code":"ATTIGRAAXXX","bank_code":16,"bank":"ATTICA BANK S.A.","branch_code":0,"zip":"10672","city":"Athens","address":"23 Omirou Str","phone":"210 3669000","fax":"210 3667245","www":"www.atticabank.gr","support_codes":15},
{"id":140000,"swift_code":"CRBAGRAAXXX","bank_code":14,"bank":"ALPHA BANK","branch_code":0,"zip":"102 52","city":"Athens","address":"40, Stadiou Str., GR","phone":"210 326 0000","fax":"210 326 5438","www":"www.alpha.gr","support_codes":15},
{"id":1090000,"swift_code":"TCZBGRATXXX","bank_code":109,"bank":"T.C ZIRAAT BANKASI A.S","branch_code":0,"zip":"105 63","city":"Athens","address":"2, Ermou Str","phone":"210 3223038","fax":"210 3223017","www":"www.ziraatbank.com.gr","support_codes":1},
{"id":110000,"swift_code":"ETHNGRAAXXX","bank_code":11,"bank":"NATIONAL BANK OF GREECE S.A.","branch_code":0,"zip":"10232","city":"Athens","address":"86, Eolou Str.","phone":"210-3341000","fax":"210-3346510","www":"www.nbg.gr","support_codes":15},
{"id":100000,"swift_code":"BNGRGRAAXXX","bank_code":10,"bank":"BANK OF GREECE","branch_code":0,"zip":"102 50","city":"Athens","address":"21, Eleftheriou Venizelou Av.","phone":"210 3201111","fax":"210 3232239","www":"www.bankofgreece.gr","support_codes":15},
{"id":990000,"swift_code":"COESGR21XXX","bank_code":99,"bank":"COOPERATIVE BANK OF CENTRAL MACEDONIA LTD","branch_code":0,"zip":"621 21","city":"SERRES","address":"Vas. Vassileiou & Nik. Plastira str.","phone":"23210 98060","fax":"23210 9","www":"www.serrescoobank.gr","support_codes":1},
{"id":970000,"swift_code":"CDLFGRA1XXX","bank_code":97,"bank":"CONSIGNMENT DEPOSITS & LOANS FUND","branch_code":0,"zip":"10174","city":"Athens","address":"40, Akadimias st.","phone":"213 2116100","fax":"210 3609545","www":"www.tpd.gr","support_codes":1},
{"id":950000,"swift_code":"STDRGR21XXX","bank_code":95,"bank":"COOPERATIVE BANK OF DRAMA","branch_code":0,"zip":"661 00","city":"DRAMA","address":"7, Megalou Alexandrou","phone":"25210 28400","fax":"25210 27819","www":"www.dramabank.gr","support_codes":1},

{"id":910101,"swift_code":"STTKGR21XXX","bank_code":91,"bank":"COOPERATIVE BANK OF THESSALY","branch_code":101,"branch":"TRIKALON","zip":"421 32","city":"TRIKALA","address":"G.KONDYLI 61-63","phone":"2431076100","fax":"2431076962","www":"www.bankofthessaly.gr","support_codes":1},
{"id":910102,"swift_code":"STTKGR21XXX","bank_code":91,"bank":"COOPERATIVE BANK OF THESSALY","branch_code":102,"branch":"KALABAKAS","zip":"422 00","city":"KALABAKA","address":"RIGA FEREOU SQ","phone":"2432024416","fax":"2432024456","www":"www.bankofthessaly.gr","support_codes":1},
{"id":910103,"swift_code":"STTKGR21XXX","bank_code":91,"bank":"COOPERATIVE BANK OF THESSALY","branch_code":103,"branch":"MIAOULI","zip":"421 32","city":"TRIKALA","address":"MIAOULI 3","phone":"2431021427","fax":"2431021429","www":"www.bankofthessaly.gr","support_codes":1},
{"id":910104,"swift_code":"STTKGR21XXX","bank_code":91,"bank":"COOPERATIVE BANK OF THESSALY","branch_code":104,"branch":"ELATIS","zip":"420 32","city":"PYLI TRIKALON","address":"AGRAFON & KARAISKAKI","phone":"2434071727","fax":"2434071744","www":"www.bankofthessaly.gr","support_codes":1},
{"id":910105,"swift_code":"STTKGR21XXX","bank_code":91,"bank":"COOPERATIVE BANK OF THESSALY","branch_code":105,"branch":"LARISA","zip":"412 22","city":"LARISA","address":"BENIZELOU 167 & KENTAVRON","phone":"2410251088","fax":"2410250244","www":"www.bankofthessaly.gr","support_codes":1},
{"id":910106,"swift_code":"STTKGR21XXX","bank_code":91,"bank":"COOPERATIVE BANK OF THESSALY","branch_code":106,"branch":"FARKADONA","zip":"420 31","city":"FARKADONA","address":"KARAISKAKI 29","phone":"2433023100","fax":"2433023107","www":"www.bankofthessaly.gr","support_codes":1},
{"id":910107,"swift_code":"STTKGR21XXX","bank_code":91,"bank":"COOPERATIVE BANK OF THESSALY","branch_code":107,"branch":"VOLOS","zip":"383 33","city":"VOLOS","address":"DIMITRIADOS 1A & XENOFONTOS","phone":"2421076674","fax":"2421076673","www":"www.bankofthessaly.gr","support_codes":1},
{"id":910108,"swift_code":"STTKGR21XXX","bank_code":91,"bank":"COOPERATIVE BANK OF THESSALY","branch_code":108,"branch":"IROON POLYTEHNIOU LARISA","zip":"413 34","city":"LARISAS","address":"IROON POLYTEHNIOU 16 & EMPEIRIKOU","phone":"2410669112","fax":"2410669113","www":"www.bankofthessaly.gr","support_codes":1},
{"id":910109,"swift_code":"STTKGR21XXX","bank_code":91,"bank":"COOPERATIVE BANK OF THESSALY","branch_code":109,"branch":"KARDITSAS","zip":"431 00","city":"KARDITSAS","address":"NIKITARA 1 & IROON POLYTEHNIOU","phone":"2441041430","fax":"2441071516","www":"www.bankofthessaly.gr","support_codes":1},
{"id":910110,"swift_code":"STTKGR21XXX","bank_code":91,"bank":"COOPERATIVE BANK OF THESSALY","branch_code":110,"branch":"VOLOS-IOLKOU","zip":"382 21","city":"VOLOS","address":"IOLKOU 2 & ARGONAFTON","phone":"2421076800","fax":"2421033600","www":"www.bankofthessaly.gr","support_codes":1},

{"id":890010,"swift_code":"STKAGRA1XXX","bank_code":89,"bank":"COOPERATIVE BANK OF KARDITSA","branch_code":10,"branch":"KARDITSAS","zip":"431 32","city":"KARDITSA","address":"TALIADOUROU & KOLOKOTRONI","phone":"24410 40099","fax":"2441080883","www":"www.bankofkarditsa.gr","support_codes":15},
{"id":890020,"swift_code":"STKAGRA1XXX","bank_code":89,"bank":"COOPERATIVE BANK OF KARDITSA","branch_code":20,"branch":"KARDITSAS","zip":"432 00","city":"PALAMAS","address":"PAPAKYRITSI 4","phone":"2444024600","fax":"2444024603","www":"www.bankofkarditsa.gr","support_codes":15},
{"id":890030,"swift_code":"STKAGRA1XXX","bank_code":89,"bank":"COOPERATIVE BANK OF KARDITSA","branch_code":30,"branch":"KARDITSAS","zip":"433 00","city":"SOFADES","address":"STR. PAPAGOU 12","phone":"2443024444","fax":"2443023233","www":"www.bankofkarditsa.gr","support_codes":15},
{"id":890040,"swift_code":"STKAGRA1XXX","bank_code":89,"bank":"COOPERATIVE BANK OF KARDITSA","branch_code":40,"branch":"KARDITSAS","zip":"430 60","city":"MOUZAKI","address":"A. VASILEIOU & KONDYLI","phone":"2445042400","fax":"2445042244","www":"www.bankofkarditsa.gr","support_codes":15},

{"id":870002,"swift_code":"STPGGRAAXXX","bank_code":87,"bank":"PANCRETAN COOPERATIVE BANK","branch_code":2,"branch":"62 MARTIRON","zip":"713 03","city":"HERAKLEION","address":"62 MARTIRON 54 & RAFKOU","phone":"2810264030","fax":"2810319446","www":"www.pancretabank.gr","support_codes":15},
{"id":870003,"swift_code":"STPGGRAAXXX","bank_code":87,"bank":"PANCRETAN COOPERATIVE BANK","branch_code":3,"branch":"PAPANDREOU","zip":"713 06","city":"HERAKLEION","address":"G. PAPANDREOU 28","phone":"2810335060","fax":"2810280484","www":"www.pancretabank.gr","support_codes":15},
{"id":870004,"swift_code":"STPGGRAAXXX","bank_code":87,"bank":"PANCRETAN COOPERATIVE BANK","branch_code":4,"branch":"GAZIOU","zip":"714 14","city":"HERAKLEION","address":"EL.VENIZELOU 227","phone":"2810372150","fax":"2810823824","www":"www.pancretabank.gr","support_codes":15},
{"id":870005,"swift_code":"STPGGRAAXXX","bank_code":87,"bank":"PANCRETAN COOPERATIVE BANK","branch_code":5,"branch":"PEZON","zip":"701 00","city":"HERAKLEION","address":"DIMOKRATIAS 7 - PEZA","phone":"2810744000","fax":"2810336560","www":"www.pancretabank.gr","support_codes":15},
{"id":870006,"swift_code":"STPGGRAAXXX","bank_code":87,"bank":"PANCRETAN COOPERATIVE BANK","branch_code":6,"branch":"ASIMIOU","zip":"700 16","city":"HERAKLEION","address":"HERAKLEIONN-STERNES, ASIMI","phone":"2893033000","fax":"2893032332","www":"www.pancretabank.gr","support_codes":15},
{"id":870008,"swift_code":"STPGGRAAXXX","bank_code":87,"bank":"PANCRETAN COOPERATIVE BANK","branch_code":8,"branch":"GERGERIS","zip":"700 17","city":"HERAKLIO","address":"25 Martiron 78","phone":"2894042200","fax":"2894041615","www":"www.pancretabank.gr","support_codes":15},
{"id":870009,"swift_code":"STPGGRAAXXX","bank_code":87,"bank":"PANCRETAN COOPERATIVE BANK","branch_code":9,"branch":"THERISOU","zip":"713 04","city":"HERAKLEION","address":"STRIMONOS & PELOPONISOU STR.","phone":"2810373730","fax":"2810252122","www":"www.pancretabank.gr","support_codes":15},
{"id":870010,"swift_code":"STPGGRAAXXX","bank_code":87,"bank":"PANCRETAN COOPERATIVE BANK","branch_code":10,"branch":"NEAS ALIKARNASOU","zip":"716 01","city":"HERAKLEION","address":"IKAROU & MAFSOLOU","phone":"2810302350","fax":"2810242248","www":"www.pancretabank.gr","support_codes":15},
{"id":870011,"swift_code":"STPGGRAAXXX","bank_code":87,"bank":"PANCRETAN COOPERATIVE BANK","branch_code":11,"branch":"MOIRON","zip":"704 00","city":"MIRES","address":"25TH MARCH 98","phone":"2892027630","fax":"2892025164","www":"www.pancretabank.gr","support_codes":15},
{"id":870012,"swift_code":"STPGGRAAXXX","bank_code":87,"bank":"PANCRETAN COOPERATIVE BANK","branch_code":12,"branch":"ARKALOHORIOU","zip":"703 00","city":"ARKALOHORI","address":"EL.VENIZELOU 141","phone":"2891025000","fax":"2891024064","www":"www.pancretabank.gr","support_codes":15},
{"id":870013,"swift_code":"STPGGRAAXXX","bank_code":87,"bank":"PANCRETAN COOPERATIVE BANK","branch_code":13,"branch":"ARHANON","zip":"701 00","city":"ARHANES","address":"ARCHANES SQUARE","phone":"2810753220","fax":"2810752881","www":"www.pancretabank.gr","support_codes":15},
{"id":870014,"swift_code":"STPGGRAAXXX","bank_code":87,"bank":"PANCRETAN COOPERATIVE BANK","branch_code":14,"branch":"TIBAKIOU","zip":"702 00","city":"TIBAKI","address":"KOKKINOS PIRGOS AVE.","phone":"2892054010","fax":"2892051737","www":"www.pancretabank.gr","support_codes":15},
{"id":870015,"swift_code":"STPGGRAAXXX","bank_code":87,"bank":"PANCRETAN COOPERATIVE BANK","branch_code":15,"branch":"HERSONISOU","zip":"700 14","city":"LIM. HERSONISOU","address":"EL. VENIZELOU 116","phone":"2897029170","fax":"2897025310","www":"www.pancretabank.gr","support_codes":15},
{"id":870017,"swift_code":"STPGGRAAXXX","bank_code":87,"bank":"PANCRETAN COOPERATIVE BANK","branch_code":17,"branch":"PIRGOU","zip":"700 10","city":"PIRGOS","address":"PIRGOS MONOFATSIOU","phone":"2893029010","fax":"2893023366","www":"www.pancretabank.gr","support_codes":15},
{"id":870018,"swift_code":"STPGGRAAXXX","bank_code":87,"bank":"PANCRETAN COOPERATIVE BANK","branch_code":18,"branch":"MALION","zip":"700 07","city":"MALIA","address":"EL. VENIZELOU 163","phone":"2897029930","fax":"2897029929","www":"www.pancretabank.gr","support_codes":15},
{"id":870019,"swift_code":"STPGGRAAXXX","bank_code":87,"bank":"PANCRETAN COOPERATIVE BANK","branch_code":19,"branch":"KASTELIOU","zip":"700 06","city":"CASTELI","address":"HERAKLEIOU AV.","phone":"2891033010","fax":"2891029350","www":"www.pancretabank.gr","support_codes":15},
{"id":870020,"swift_code":"STPGGRAAXXX","bank_code":87,"bank":"PANCRETAN COOPERATIVE BANK","branch_code":20,"branch":"LEFKIS","zip":"720 59","city":"HANDRAS","address":"Ziros Central Square","phone":"2843091290","fax":"2843091411","www":"www.pancretabank.gr","support_codes":15},
{"id":870021,"swift_code":"STPGGRAAXXX","bank_code":87,"bank":"PANCRETAN COOPERATIVE BANK","branch_code":21,"branch":"AG. NIKOLAOU","zip":"721 00","city":"AG. NIKOLAOS","address":"SOF. VENIZELOU 9 & M. METAXAKI","phone":"2841090420","fax":"2841082549","www":"www.pancretabank.gr","support_codes":15},
{"id":870022,"swift_code":"STPGGRAAXXX","bank_code":87,"bank":"PANCRETAN COOPERATIVE BANK","branch_code":22,"branch":"IERAPETRAS","zip":"722 00","city":"IERAPETRA","address":"LASTHENOUS 39","phone":"2842090440","fax":"2842080387","www":"www.pancretabank.gr","support_codes":15},
{"id":870023,"swift_code":"STPGGRAAXXX","bank_code":87,"bank":"PANCRETAN COOPERATIVE BANK","branch_code":23,"branch":"SITIAS","zip":"723 00","city":"SITIA","address":"6B VENIZELOU STR.","phone":"2843029850","fax":"2843026160","www":"www.pancretabank.gr","support_codes":15},
{"id":870024,"swift_code":"STPGGRAAXXX","bank_code":87,"bank":"PANCRETAN COOPERATIVE BANK","branch_code":24,"branch":"NEAPOLIS","zip":"724 00","city":"NEAPOLI","address":"ETHN. ANTISTASEOS 1","phone":"2841090890","fax":"2841034163","www":"www.pancretabank.gr","support_codes":15},
{"id":870025,"swift_code":"STPGGRAAXXX","bank_code":87,"bank":"PANCRETAN COOPERATIVE BANK","branch_code":25,"branch":"OROPEDIOU","zip":"720 52","city":"OROPEDIO","address":"Tzermiado","phone":"2844089081","fax":"2844022742","www":"www.pancretabank.gr","support_codes":15},
{"id":870026,"swift_code":"STPGGRAAXXX","bank_code":87,"bank":"PANCRETAN COOPERATIVE BANK","branch_code":26,"branch":"MAKRI GIALOY","zip":"720 55","city":"MAKRI GIALOS","address":"Makris Gialos","phone":"2843029590","fax":"2843052390","www":"www.pancretabank.gr","support_codes":15},
{"id":870028,"swift_code":"STPGGRAAXXX","bank_code":87,"bank":"PANCRETAN COOPERATIVE BANK","branch_code":28,"branch":"KRITSAS","zip":"720 51","city":"KRITSA","address":"Panagias Odigitrias","phone":"2841091140","fax":"2841051272","www":"www.pancretabank.gr","support_codes":15},
{"id":870029,"swift_code":"STPGGRAAXXX","bank_code":87,"bank":"PANCRETAN COOPERATIVE BANK","branch_code":29,"branch":"ITANOU","zip":"723 00","city":"SITIA","address":"Palekastro","phone":"2843029250","fax":"2843061133","www":"www.pancretabank.gr","support_codes":15},
{"id":870031,"swift_code":"STPGGRAAXXX","bank_code":87,"bank":"PANCRETAN COOPERATIVE BANK","branch_code":31,"branch":"RETHYMNOU","zip":"741 00","city":"RETHYMNO","address":"N. KAZANTZAKI 5","phone":"2831021810","fax":"2831056624","www":"www.pancretabank.gr","support_codes":15},
{"id":870033,"swift_code":"STPGGRAAXXX","bank_code":87,"bank":"PANCRETAN COOPERATIVE BANK","branch_code":33,"branch":"MILOPOTAMOU","zip":"740 52","city":"RETHYMNO","address":"PERAMA MILOPOTAMOU","phone":"2834020700","fax":"2834023372","www":"www.pancretabank.gr","support_codes":15},
{"id":870034,"swift_code":"STPGGRAAXXX","bank_code":87,"bank":"PANCRETAN COOPERATIVE BANK","branch_code":34,"branch":"KALLITHEAS","zip":"741 00","city":"RETHYMNO","address":"EMM. PORTALIOU 28","phone":"2831021760","fax":"2831054589","www":"www.pancretabank.gr","support_codes":15},
{"id":870041,"swift_code":"STPGGRAAXXX","bank_code":87,"bank":"PANCRETAN COOPERATIVE BANK","branch_code":41,"branch":"CHANION","zip":"731 34","city":"CHANIA","address":"ANDR. PAPANDREOU 10-14","phone":"2821047010","fax":"2821027354","www":"www.pancretabank.gr","support_codes":15},
{"id":870042,"swift_code":"STPGGRAAXXX","bank_code":87,"bank":"PANCRETAN COOPERATIVE BANK","branch_code":42,"branch":"KALIVON","zip":"730 03","city":"CHANIA","address":"KALIVES","phone":"2825083190","fax":"2825032339","www":"www.pancretabank.gr","support_codes":15},
{"id":870043,"swift_code":"STPGGRAAXXX","bank_code":87,"bank":"PANCRETAN COOPERATIVE BANK","branch_code":43,"branch":"MOUSOURON","zip":"730 05","city":"CHANIA","address":"Alikianos ","phone":"2821036960","fax":"2821078078","www":"www.pancretabank.gr","support_codes":15},
{"id":870044,"swift_code":"STPGGRAAXXX","bank_code":87,"bank":"PANCRETAN COOPERATIVE BANK","branch_code":44,"branch":"GOGONI","zip":"731 35","city":"CHANIA","address":"AN. GOGONI 54","phone":"2821036770","fax":"2821090876","www":"www.pancretabank.gr","support_codes":15},
{"id":870045,"swift_code":"STPGGRAAXXX","bank_code":87,"bank":"PANCRETAN COOPERATIVE BANK","branch_code":45,"branch":"AKROTIRIOU","zip":"731 00","city":"CHANIA","address":"EL. VENIZELOU 102-KOUNOUPIDIANA","phone":"2821049310","fax":"2821066780","www":"www.pancretabank.gr","support_codes":15},
{"id":870051,"swift_code":"STPGGRAAXXX","bank_code":87,"bank":"PANCRETAN COOPERATIVE BANK","branch_code":51,"branch":"ATHINON","zip":"105 57","city":"ATHENS","address":"OTHONOS STR. SYNTAGMA SQUARE","phone":"2103257010","fax":"2103313370","www":"www.pancretabank.gr","support_codes":15},
{"id":870052,"swift_code":"STPGGRAAXXX","bank_code":87,"bank":"PANCRETAN COOPERATIVE BANK","branch_code":52,"branch":"SYGROU","zip":"176 72","city":"KALLITHEA","address":"246 SYGROU AVE & DAVAKI STR","phone":"2109538040","fax":"2109570684","www":"www.pancretabank.gr","support_codes":15},
{"id":870053,"swift_code":"STPGGRAAXXX","bank_code":87,"bank":"PANCRETAN COOPERATIVE BANK","branch_code":53,"branch":"PIREA","zip":"185 31","city":"PIREUS","address":"1 NAVARINOU & LOUDOVIKOU, ODISSOU SQUARE","phone":"2104227920","fax":"2104176857","www":"www.pancretabank.gr","support_codes":15},
{"id":870055,"swift_code":"STPGGRAAXXX","bank_code":87,"bank":"PANCRETAN COOPERATIVE BANK","branch_code":55,"branch":"PERISTERIOU","zip":"121 34","city":"ATHENS","address":"17 P. TSALDARI AVE & 2 DIMITRAKOPOULOU STR.","phone":"2105788150","fax":"2105771720","www":"www.pancretabank.gr","support_codes":15},
{"id":870065,"swift_code":"STPGGRAAXXX","bank_code":87,"bank":"PANCRETAN COOPERATIVE BANK","branch_code":65,"branch":"THESSALONIKIS","zip":"546 24","city":"THESSALONIKIS","address":"MITROPOLEOS 17","phone":"2310385600","fax":"2310385585","www":"www.pancretabank.gr","support_codes":15},
{"id":870066,"swift_code":"STPGGRAAXXX","bank_code":87,"bank":"PANCRETAN COOPERATIVE BANK","branch_code":66,"branch":"KALAMARIAS","zip":"551 34","city":"THESSALONIKIS","address":"95, ETHNIKIS ANTISTASEOS STR.","phone":"2310384400","fax":"2310451170","www":"www.pancretabank.gr","support_codes":15},
{"id":870070,"swift_code":"STPGGRAAXXX","bank_code":87,"bank":"PANCRETAN COOPERATIVE BANK","branch_code":70,"branch":"GORTINAS","zip":"700 12","city":"HERAKLEION","address":"AGIOI DEKA","phone":"2892032200","fax":"2892031558","www":"www.pancretabank.gr","support_codes":15},
{"id":870071,"swift_code":"STPGGRAAXXX","bank_code":87,"bank":"PANCRETAN COOPERATIVE BANK","branch_code":71,"branch":"LEOF. KNOSSOU","zip":"714 09","city":"HERAKLEION","address":"205 KNOSSOU AVE","phone":"2810361720","fax":"2810360920","www":"www.pancretabank.gr","support_codes":15},
{"id":870072,"swift_code":"STPGGRAAXXX","bank_code":87,"bank":"PANCRETAN COOPERATIVE BANK","branch_code":72,"branch":"AGIAS VARVARAS","zip":"700 03","city":"HERAKLIO","address":"Ag. Varvaras 174","phone":"2894029100","fax":"2894022302","www":"www.pancretabank.gr","support_codes":15},
{"id":870073,"swift_code":"STPGGRAAXXX","bank_code":87,"bank":"PANCRETAN COOPERATIVE BANK","branch_code":73,"branch":"ZAROU","zip":"700 02","city":"HERAKLIO","address":"Zaros Herakliou","phone":"2894032200","fax":"2894031741","www":"www.pancretabank.gr","support_codes":15},
{"id":870075,"swift_code":"STPGGRAAXXX","bank_code":87,"bank":"PANCRETAN COOPERATIVE BANK","branch_code":75,"branch":"EPISKOPIS","zip":"700 08","city":"HERAKLIO","address":"Episkopi Herakliou","phone":"2810772300","fax":"2810771711","www":"www.pancretabank.gr","support_codes":15},
{"id":870076,"swift_code":"STPGGRAAXXX","bank_code":87,"bank":"PANCRETAN COOPERATIVE BANK","branch_code":76,"branch":"VIANNOU","zip":"700 04","city":"VIANNOS","address":"KENTRIKI ODOS VIANNOU","phone":"2895023000","fax":"2895022721","www":"www.pancretabank.gr","support_codes":15},
{"id":870077,"swift_code":"STPGGRAAXXX","bank_code":87,"bank":"PANCRETAN COOPERATIVE BANK","branch_code":77,"branch":"KALOKAIRINOU AVE.","zip":"712 01","city":"HERAKLIO","address":"195, Kalokairinou Ave","phone":"2810247600","fax":"2810288580","www":"www.pancretabank.gr","support_codes":15},
{"id":870078,"swift_code":"STPGGRAAXXX","bank_code":87,"bank":"PANCRETAN COOPERATIVE BANK","branch_code":78,"branch":"GOUVON","zip":"700 14","city":"HERAKLEION","address":"OLD NATIONAL ROAD - GOUVES","phone":"2897043340","fax":"2897041666","www":"www.pancretabank.gr","support_codes":15},
{"id":870080,"swift_code":"STPGGRAAXXX","bank_code":87,"bank":"PANCRETAN COOPERATIVE BANK","branch_code":80,"branch":"MILOU","zip":"848 00","city":"MILOS","address":"KARODROMOS - TRIOVASALOS","phone":"2287028210","fax":"2287024104","www":"www.pancretabank.gr","support_codes":15},
{"id":870081,"swift_code":"STPGGRAAXXX","bank_code":87,"bank":"PANCRETAN COOPERATIVE BANK","branch_code":81,"branch":"RHODES","zip":"851 00","city":"RHODES","address":"11, ETHNIKIS ANTISTASEOS STR","phone":"2241043030","fax":"2241070474","www":"www.pancretabank.gr","support_codes":15},
{"id":870090,"swift_code":"STPGGRAAXXX","bank_code":87,"bank":"PANCRETAN COOPERATIVE BANK","branch_code":90,"branch":"PATELON","zip":"713 07","city":"PATELES","address":"Olympou 97 & Solonos","phone":"2810361700","fax":"2810238060","www":"www.pancretabank.gr","support_codes":15},
{"id":870091,"swift_code":"STPGGRAAXXX","bank_code":87,"bank":"PANCRETAN COOPERATIVE BANK","branch_code":91,"branch":"THRAPSANOU KASTELLIOU","zip":"700 06","city":"THRAPSANO","address":"Thrapsano Kasteliou (in the Agricultural Union)","phone":"2891041858","fax":"2891041860","www":"www.pancretabank.gr","support_codes":15},
{"id":870092,"swift_code":"STPGGRAAXXX","bank_code":87,"bank":"PANCRETAN COOPERATIVE BANK","branch_code":92,"branch":"PAPANASTASIOU","zip":"713 06","city":"HERAKLEION CRETE","address":"129, PAPANASTASIOU STR.","phone":"2810361490","fax":"2810323952","www":"www.pancretabank.gr","support_codes":15},
{"id":870093,"swift_code":"STPGGRAAXXX","bank_code":87,"bank":"PANCRETAN COOPERATIVE BANK","branch_code":93,"branch":"EMPAROS","zip":"703 00","city":"HERAKLIO","address":"Embaros Heraklion (in the Agricultural Union)","phone":"2895041166","fax":"2895041380","www":"www.pancretabank.gr","support_codes":15},
{"id":870097,"swift_code":"STPGGRAAXXX","bank_code":87,"bank":"PANCRETAN COOPERATIVE BANK","branch_code":97,"branch":"KOSMON","zip":"712 01","city":"HERAKLEION","address":"KOSMON 12","phone":"2810334840","fax":"2810342122","www":"www.pancretabank.gr","support_codes":15},
{"id":870098,"swift_code":"STPGGRAAXXX","bank_code":87,"bank":"PANCRETAN COOPERATIVE BANK","branch_code":98,"branch":"IKAROU","zip":"713 06","city":"HERAKLEION","address":"5, IKAROU AVE","phone":"2810338854","fax":"2810341315","www":"www.pancretabank.gr","support_codes":15}
     ]
}
