{
    "country_code": "LU",
    "isSEPAcountry": true,
    "ISO_3166_1": { "name": "Luxembourg" , "name_fr": "Luxembourg (le)" , "alpha2": "LU" , "alpha3": "LUX" , "numeric": 442 },
    "list": [
{"branch_code":null,"zip":"2954","bank_code":1,"bank":"Banque et Caisse d'Epargne de l'Etat, Luxembourg","support_codes":15,"address":"1 PLACE DE METZ","city":"LUXEMBOURG","swift_code":"BCEELULLXXX","id":1000,"branch":null},
{"branch_code":null,"zip":"2953","bank_code":2,"bank":"Banque Internationale à Luxembourg S.A.","support_codes":15,"address":"69 ROUTE D'ESCH","city":"LUXEMBOURG","swift_code":"BILLLULLXXX","id":2000,"branch":null},
{"branch_code":null,"zip":"2951","bank_code":3,"bank":"BGL BNP Paribas S.A.","support_codes":15,"address":"50 AVENUE JOHN FITZGERAL KENNEDY","city":"LUXEMBOURG","swift_code":"BGLLLULLXXX","id":3000,"branch":null},
{"branch_code":"ADM","zip":"2520","bank_code":7,"bank":"CACEIS Bank Luxembourg","support_codes":1,"address":"5 ALLEE SCHEFFER","city":"LUXEMBOURG","swift_code":"BSUILULLADM","id":7001,"branch":"(FUND ADMINISTRATION)"},
{"branch_code":"CNA","zip":"2520","bank_code":7,"bank":"CACEIS Bank Luxembourg","support_codes":1,"address":"5 ALLEE SCHEFFER","city":"LUXEMBOURG","swift_code":"BSUILULLCNA","id":7002,"branch":"(CACEIS NORTH AMERICA)"},
{"branch_code":"COR","zip":"2520","bank_code":7,"bank":"CACEIS Bank Luxembourg","support_codes":1,"address":"5 ALLEE SCHEFFER","city":"LUXEMBOURG","swift_code":"BSUILULLCOR","id":7003,"branch":"(COMET ORDER)"},
{"branch_code":"CUS","zip":"2520","bank_code":7,"bank":"CACEIS Bank Luxembourg","support_codes":1,"address":"5 ALLEE SCHEFFER","city":"LUXEMBOURG","swift_code":"BSUILULLCUS","id":7004,"branch":"(CUSTODIAN BANK)"},
{"branch_code":"DUB","zip":"2520","bank_code":7,"bank":"CACEIS Bank Luxembourg","support_codes":1,"address":"5 ALLEE SCHEFFER","city":"LUXEMBOURG","swift_code":"BSUILULLDUB","id":7005,"branch":"(CACEIS DUBLIN)"},
{"branch_code":"ETC","zip":"2520","bank_code":7,"bank":"CACEIS Bank Luxembourg","support_codes":1,"address":"5 ALLEE SCHEFFER","city":"LUXEMBOURG","swift_code":"BSUILULLETC","id":7006,"branch":"(EXECUTION TO CUSTODY)"},
{"branch_code":"FND","zip":"2520","bank_code":7,"bank":"CACEIS Bank Luxembourg","support_codes":1,"address":"5 ALLEE SCHEFFER","city":"LUXEMBOURG","swift_code":"BSUILULLFND","id":7007,"branch":"(REGISTRAR)"},
{"branch_code":"FOF","zip":"2520","bank_code":7,"bank":"CACEIS Bank Luxembourg","support_codes":1,"address":"5 ALLEE SCHEFFER","city":"LUXEMBOURG","swift_code":"BSUILULLFOF","id":7008,"branch":"(FUNDS OF FUNDS)"},
{"branch_code":"FTM","zip":"2520","bank_code":7,"bank":"CACEIS Bank Luxembourg","support_codes":1,"address":"5 ALLEE SCHEFFER","city":"LUXEMBOURG","swift_code":"BSUILULLFTM","id":7009,"branch":"(FUNDS RECONCILIATION)"},
{"branch_code":"PRF","zip":"2520","bank_code":7,"bank":"CACEIS Bank Luxembourg","support_codes":1,"address":"5 ALLEE SCHEFFER","city":"LUXEMBOURG","swift_code":"BSUILULLPRF","id":7010,"branch":"(FUND PROCESSING)"},
{"branch_code":"REG","zip":"2520","bank_code":7,"bank":"CACEIS Bank Luxembourg","support_codes":1,"address":"5 ALLEE SCHEFFER","city":"LUXEMBOURG","swift_code":"BSUILULLREG","id":7011,"branch":"(SERVICE REGISTRE)"},
{"branch_code":null,"zip":"2520","bank_code":7,"bank":"CACEIS Bank Luxembourg","support_codes":1,"address":"5 ALLEE SCHEFFER","city":"LUXEMBOURG","swift_code":"BSUILULLXXX","id":7000,"branch":null},
{"branch_code":"590","zip":"2449","bank_code":8,"bank":"Banque de Luxembourg","support_codes":15,"address":"14 BOULEVARD ROYAL","city":"LUXEMBOURG","swift_code":"BLUXLULL590","id":8001,"branch":null},
{"branch_code":null,"zip":"2449","bank_code":8,"bank":"Banque de Luxembourg","support_codes":15,"address":"14 BOULEVARD ROYAL","city":"LUXEMBOURG","swift_code":"BLUXLULLXXX","id":8000,"branch":null},
{"branch_code":null,"zip":"2134","bank_code":9,"bank":"Banque Raiffeisen","support_codes":15,"address":"46 RUE CHARLES MARTEL","city":"LUXEMBOURG","swift_code":"CCRALULLXXX","id":9000,"branch":null},
{"branch_code":null,"zip":"2330","bank_code":10,"bank":"Fortuna Banque s.c.","support_codes":7,"address":"128-132 BOULEVARD DE LA PETRUSSE","city":"LUXEMBOURG","swift_code":"FOTNLULLXXX","id":10000,"branch":null},
{"branch_code":"CTD","zip":"2965","bank_code":14,"bank":"ING Luxembourg","support_codes":15,"address":"52 ROUTE D'ESCH","city":"LUXEMBOURG","swift_code":"CELLLULLCTD","id":14001,"branch":"(CUSTOMER TRANSFERT DEPARTMENT)"},
{"branch_code":"GSD","zip":"2965","bank_code":14,"bank":"ING Luxembourg","support_codes":15,"address":"52 ROUTE D'ESCH","city":"LUXEMBOURG","swift_code":"CELLLULLGSD","id":14002,"branch":"(GLOBAL SECURITIES DEPARTMENT)"},
{"branch_code":"TRD","zip":"2965","bank_code":14,"bank":"ING Luxembourg","support_codes":15,"address":"52 ROUTE D'ESCH","city":"LUXEMBOURG","swift_code":"CELLLULLTRD","id":14003,"branch":"(TREASURY DEPARTMENT)"},
{"branch_code":null,"zip":"2965","bank_code":14,"bank":"ING Luxembourg","support_codes":15,"address":"52 ROUTE D'ESCH","city":"LUXEMBOURG","swift_code":"CELLLULLXXX","id":14000,"branch":null},
{"branch_code":null,"zip":"","bank_code":16,"bank":"BANK JULIUS BAER LUXEMBOURG S.A.","support_codes":0,"address":"","city":"","swift_code":"COBALULXXXX","id":16000},
{"branch_code":null,"zip":"1643","bank_code":25,"bank":"Banque BCP S.A.","support_codes":15,"address":"10 RUE DE LA GREVE","city":"LUXEMBOURG","swift_code":"BMECLULLXXX","id":25000,"branch":null},
{"branch_code":null,"zip":"2540","bank_code":32,"bank":"Bank Julius Baer Luxembourg S.A.","support_codes":1,"address":"25 RUE EDWARD STEICHEN","city":"LUXEMBOURG","swift_code":"BAERLULUXXX","id":32000,"branch":null},
{"branch_code":null,"zip":"","bank_code":33,"bank":"BANCO SANTANDER (BRASIL) SA","support_codes":0,"address":"","city":"","swift_code":"BSCHLULLXXX","id":33000,"branch":null},
{"branch_code":"EFX","zip":"1013","bank_code":34,"bank":"Citibank International Limited, Luxembourg Branch","support_codes":15,"address":"58 BOULEVARD GRANDE DUCHESSE CHARLOTTE","city":"LUXEMBOURG","swift_code":"CITILULXEFX","id":34001,"branch":"(CITIBANK LUXEMBOURG EMFX CONFIRMATIONS)"},
{"branch_code":"GFL","zip":"1013","bank_code":34,"bank":"Citibank International Limited, Luxembourg Branch","support_codes":15,"address":"58 BOULEVARD GRANDE DUCHESSE CHARLOTTE","city":"LUXEMBOURG","swift_code":"CITILULXGFL","id":34002,"branch":"(GLOBAL FINANCE - BD. MARIE-THERESE)"},
{"branch_code":"LUX","zip":"1013","bank_code":34,"bank":"Citibank International Limited, Luxembourg Branch","support_codes":15,"address":"58 BOULEVARD GRANDE DUCHESSE CHARLOTTE","city":"LUXEMBOURG","swift_code":"CITILULXLUX","id":34003,"branch":"(PRIVATE BANKING GROUP\/IPB)"},
{"branch_code":null,"zip":"1013","bank_code":34,"bank":"Citibank International Limited, Luxembourg Branch","support_codes":15,"address":"58 BOULEVARD GRANDE DUCHESSE CHARLOTTE","city":"LUXEMBOURG","swift_code":"CITILULXXXX","id":34000,"branch":null},
{"branch_code":"CSD","zip":"1115","bank_code":36,"bank":"Deutsche Bank Luxembourg S.A.","support_codes":1,"address":"2 BOULEVARD KONRAD AUDENAUER","city":"LUXEMBOURG","swift_code":"DEUTLULLCSD","id":36001,"branch":"(CORPORATE SERVICES DIVISION)"},
{"branch_code":"CTA","zip":"1115","bank_code":36,"bank":"Deutsche Bank Luxembourg S.A.","support_codes":1,"address":"2 BOULEVARD KONRAD AUDENAUER","city":"LUXEMBOURG","swift_code":"DEUTLULLCTA","id":36002,"branch":null},
{"branch_code":"DRE","zip":"1115","bank_code":36,"bank":"Deutsche Bank Luxembourg S.A.","support_codes":1,"address":"2 BOULEVARD KONRAD AUDENAUER","city":"LUXEMBOURG","swift_code":"DEUTLULLDRE","id":36003,"branch":"(INSURANCE BRANCH)"},
{"branch_code":"DWS","zip":"1115","bank_code":36,"bank":"Deutsche Bank Luxembourg S.A.","support_codes":1,"address":"2 BOULEVARD KONRAD AUDENAUER","city":"LUXEMBOURG","swift_code":"DEUTLULLDWS","id":36004,"branch":"(INVESTMENT BRANCH)"},
{"branch_code":"GES","zip":"1115","bank_code":36,"bank":"Deutsche Bank Luxembourg S.A.","support_codes":1,"address":"2 BOULEVARD KONRAD AUDENAUER","city":"LUXEMBOURG","swift_code":"DEUTLULLGES","id":36005,"branch":"(GES BUSINESS)"},
{"branch_code":"PRI","zip":"1115","bank_code":36,"bank":"Deutsche Bank Luxembourg S.A.","support_codes":1,"address":"2 BOULEVARD KONRAD AUDENAUER","city":"LUXEMBOURG","swift_code":"DEUTLULLPRI","id":36006,"branch":"(INSURANCE BRANCH)"},
{"branch_code":"TG2","zip":"1115","bank_code":36,"bank":"Deutsche Bank Luxembourg S.A.","support_codes":1,"address":"2 BOULEVARD KONRAD AUDENAUER","city":"LUXEMBOURG","swift_code":"DEUTLULLTG2","id":36007,"branch":"(TARGET2)"},
{"branch_code":"VIT","zip":"1115","bank_code":36,"bank":"Deutsche Bank Luxembourg S.A.","support_codes":1,"address":"2 BOULEVARD KONRAD AUDENAUER","city":"LUXEMBOURG","swift_code":"DEUTLULLVIT","id":36008,"branch":"(INSURANCE BRANCH)"},
{"branch_code":null,"zip":"1115","bank_code":36,"bank":"Deutsche Bank Luxembourg S.A.","support_codes":1,"address":"2 BOULEVARD KONRAD AUDENAUER","city":"LUXEMBOURG","swift_code":"DEUTLULLXXX","id":36000,"branch":null},
{"branch_code":"FND","zip":"1150","bank_code":38,"bank":"Union Bancaire Privée (Europe) S.A.","support_codes":7,"address":"ROUTE D'ARLON 287-289","city":"LUXEMBOURG","swift_code":"DBSALULLFND","id":38001,"branch":"(FUND ADMINISTRATION DEPARTMENT)"},
{"branch_code":null,"zip":"1150","bank_code":38,"bank":"Union Bancaire Privée (Europe) S.A.","support_codes":7,"address":"ROUTE D'ARLON 287-289","city":"LUXEMBOURG","swift_code":"DBSALULLXXX","id":38000,"branch":null},
{"branch_code":null,"zip":"1855","bank_code":40,"bank":"DekaBank Deutsche Girozentrale Luxembourg S.A.","support_codes":1,"address":"38 AVENUE JOHN F. KENNEDY PLATEAU DE KIRCHBERG","city":"LUXEMBOURG","swift_code":"DGZFLULIXXX","id":40000,"branch":null},
{"branch_code":null,"zip":"2180","bank_code":47,"bank":"UniCredit Luxembourg S.A.","support_codes":1,"address":"10, RUE JEAN MONNET","city":"LUXEMBOURG","swift_code":"HYVELULLXXX","id":47000,"branch":null},
{"branch_code":null,"zip":"1748","bank_code":51,"bank":"Norddeutsche Landesbank Luxembourg S.A.","support_codes":1,"address":"RUE LOU HEMMER, 7","city":"FINDEL","swift_code":"NOLALULLXXX","id":51000,"branch":null},
{"branch_code":null,"zip":"1413","bank_code":58,"bank":"European Depositary Bank S.A.","support_codes":1,"address":"2 PLACE DARGENT","city":"LUXEMBOURG","swift_code":"WBWCLULLXXX","id":58000,"branch":null},
{"branch_code":"CAL","zip":"2420","bank_code":61,"bank":"Société Générale Bank & Trust","support_codes":15,"address":"13-15 AVENUE EMILE REUTER","city":"LUXEMBOURG","swift_code":"SGABLULLCAL","id":61001,"branch":"(CALYPSO)"},
{"branch_code":"MOF","zip":"2420","bank_code":61,"bank":"Société Générale Bank & Trust","support_codes":15,"address":"13-15 AVENUE EMILE REUTER","city":"LUXEMBOURG","swift_code":"SGABLULLMOF","id":61002,"branch":"(MIDDLE OFFICE TITR)"},
{"branch_code":"TAS","zip":"2420","bank_code":61,"bank":"Société Générale Bank & Trust","support_codes":15,"address":"13-15 AVENUE EMILE REUTER","city":"LUXEMBOURG","swift_code":"SGABLULLTAS","id":61003,"branch":null},
{"branch_code":null,"zip":"2420","bank_code":61,"bank":"Société Générale Bank & Trust","support_codes":15,"address":"13-15 AVENUE EMILE REUTER","city":"LUXEMBOURG","swift_code":"SGABLULLXXX","id":61000,"branch":null},
{"branch_code":null,"zip":"5365","bank_code":62,"bank":"Hauck & Aufhäuser Privatbankiers AG, Niederlassung Luxemburg","support_codes":1,"address":"1c, rue Gabriel Lippmann","city":"Munsbach","swift_code":"HAUKLULLXXX","id":62000,"branch":null},
{"branch_code":null,"zip":"1347","bank_code":64,"bank":"Skandinaviska Enskilda Banken S.A.","support_codes":1,"address":"6A CIRCUIT DE LA FOIRE INTERNATIONALE","city":"LUXEMBOURG","swift_code":"ESSELULLXXX","id":64000,"branch":null},
{"branch_code":"ACC","zip":"2663","bank_code":67,"bank":"J.P. Morgan Bank Luxembourg S.A.","support_codes":15,"address":"6 ROUTE DE TREVES","city":"SENNINGERBERG","swift_code":"CHASLULXACC","id":67001,"branch":null},
{"branch_code":"ACM","zip":"2663","bank_code":67,"bank":"J.P. Morgan Bank Luxembourg S.A.","support_codes":15,"address":"6 ROUTE DE TREVES","city":"SENNINGERBERG","swift_code":"CHASLULXACM","id":67002,"branch":"(INVESTOR SERVICES CFS PRODUCT)"},
{"branch_code":"ACR","zip":"2663","bank_code":67,"bank":"J.P. Morgan Bank Luxembourg S.A.","support_codes":15,"address":"6 ROUTE DE TREVES","city":"SENNINGERBERG","swift_code":"CHASLULXACR","id":67003,"branch":"(INVESTOR SERVICES CFS PRODUCT)"},
{"branch_code":"COL","zip":"2663","bank_code":67,"bank":"J.P. Morgan Bank Luxembourg S.A.","support_codes":15,"address":"6 ROUTE DE TREVES","city":"SENNINGERBERG","swift_code":"CHASLULXCOL","id":67004,"branch":"(SECURITIES COLLATERAL MANAGEMENT)"},
{"branch_code":"CTE","zip":"2663","bank_code":67,"bank":"J.P. Morgan Bank Luxembourg S.A.","support_codes":15,"address":"6 ROUTE DE TREVES","city":"SENNINGERBERG","swift_code":"CHASLULXCTE","id":67005,"branch":null},
{"branch_code":"ENQ","zip":"2663","bank_code":67,"bank":"J.P. Morgan Bank Luxembourg S.A.","support_codes":15,"address":"6 ROUTE DE TREVES","city":"SENNINGERBERG","swift_code":"CHASLULXENQ","id":67006,"branch":"(TELEX AND S.W.I.F.T. MESSAGE ENQUIRIES)"},
{"branch_code":"GCC","zip":"2663","bank_code":67,"bank":"J.P. Morgan Bank Luxembourg S.A.","support_codes":15,"address":"6 ROUTE DE TREVES","city":"SENNINGERBERG","swift_code":"CHASLULXGCC","id":67007,"branch":"(GLOBAL CUSTODY CLIENTS)"},
{"branch_code":"GST","zip":"2663","bank_code":67,"bank":"J.P. Morgan Bank Luxembourg S.A.","support_codes":15,"address":"6 ROUTE DE TREVES","city":"SENNINGERBERG","swift_code":"CHASLULXGST","id":67008,"branch":"(CFS PRODUCT SPECIFIC)"},
{"branch_code":"LUX","zip":"2663","bank_code":67,"bank":"J.P. Morgan Bank Luxembourg S.A.","support_codes":15,"address":"6 ROUTE DE TREVES","city":"SENNINGERBERG","swift_code":"CHASLULXLUX","id":67009,"branch":"(JPM CORPORATE TREASURY)"},
{"branch_code":"MCM","zip":"2663","bank_code":67,"bank":"J.P. Morgan Bank Luxembourg S.A.","support_codes":15,"address":"6 ROUTE DE TREVES","city":"SENNINGERBERG","swift_code":"CHASLULXMCM","id":67010,"branch":"(INVESTOR SERVICES CFS PRODUCT)"},
{"branch_code":null,"zip":"2663","bank_code":67,"bank":"J.P. Morgan Bank Luxembourg S.A.","support_codes":15,"address":"6 ROUTE DE TREVES","city":"SENNINGERBERG","swift_code":"CHASLULXXXX","id":67000,"branch":null},
{"branch_code":"FSL","zip":"2010","bank_code":70,"bank":"UBS (Luxembourg) S.A.","support_codes":1,"address":"33A AVENUE J.F. KENNEDY","city":"LUXEMBOURG","swift_code":"UBSWLULLFSL","id":70001,"branch":"(FUND SERVICES)"},
{"branch_code":"TOP","zip":"2010","bank_code":70,"bank":"UBS (Luxembourg) S.A.","support_codes":1,"address":"33A AVENUE J.F. KENNEDY","city":"LUXEMBOURG","swift_code":"UBSWLULLTOP","id":70002,"branch":null},
{"branch_code":null,"zip":"2010","bank_code":70,"bank":"UBS (Luxembourg) S.A.","support_codes":1,"address":"33A AVENUE J.F. KENNEDY","city":"LUXEMBOURG","swift_code":"UBSWLULLXXX","id":70000,"branch":null},
{"branch_code":null,"zip":"2310","bank_code":76,"bank":"Credem International (Lux) S.A.","support_codes":0,"address":"10-12 AVENUE PASTEUR","city":"LUXEMBOURG","swift_code":"CRDMLULLXXX","id":76000},
{"branch_code":"BAS","zip":"1150","bank_code":77,"bank":"Mitsubishi UFJ Global Custody S.A.","support_codes":0,"address":"DESCARTES CENTER 287-289 ROUTE D'ARLON","city":"LUXEMBOURG","swift_code":"MUGCLULLBAS","id":77001,"branch":"(BANK ACCOUNT SERVICE)"},
{"branch_code":null,"zip":"1150","bank_code":77,"bank":"Mitsubishi UFJ Global Custody S.A.","support_codes":0,"address":"DESCARTES CENTER 287-289 ROUTE D'ARLON","city":"LUXEMBOURG","swift_code":"MUGCLULLXXX","id":77000,"branch":null},
{"branch_code":"WRO","zip":"1660","bank_code":78,"bank":"Credit Suisse (Luxembourg) S.A.","support_codes":7,"address":"56 GRAND RUE","city":"LUXEMBOURG","swift_code":"CRESLULLWRO","id":78001,"branch":"(CENTER OF EXCELLENCE)"},
{"branch_code":null,"zip":"1660","bank_code":78,"bank":"Credit Suisse (Luxembourg) S.A.","support_codes":7,"address":"56 GRAND RUE","city":"LUXEMBOURG","swift_code":"CRESLULLXXX","id":78000,"branch":null},
{"branch_code":null,"zip":"","bank_code":79,"bank":"Mitsubishi UFJ Investor Services &amp; Banking","support_codes":7,"address":"","city":"","swift_code":"MUGCLULLBAS","id":79000},
{"branch_code":null,"zip":"2557","bank_code":80,"bank":"SMBC Nikko Bank (Luxembourg) S.A.","support_codes":1,"address":"RUE ROBERT STUMPER 9A","city":"LUXEMBOURG","swift_code":"NIKOLULLXXX","id":80000,"branch":null},
{"branch_code":null,"zip":"1840","bank_code":82,"bank":"East-West United Bank S.A.","support_codes":1,"address":"10 BOULEVARD JOSEPH II","city":"LUXEMBOURG","swift_code":"EWUBLULLXXX","id":82000,"branch":null},
{"branch_code":"OPA","zip":"2453","bank_code":83,"bank":"Banque Degroof Luxembourg S.A.","support_codes":0,"address":"12 RUE EUGENE RUPPERT","city":"LUXEMBOURG","swift_code":"DEGRLULLDPA","id":83001,"branch":"(DPAS (BRANCH))"},
{"branch_code":"OPC","zip":"2453","bank_code":83,"bank":"Banque Degroof Luxembourg S.A.","support_codes":0,"address":"12 RUE EUGENE RUPPERT","city":"LUXEMBOURG","swift_code":"DEGRLULLOPC","id":83002,"branch":"(DEPT OPC)"},
{"branch_code":null,"zip":"2453","bank_code":83,"bank":"Banque Degroof Luxembourg S.A.","support_codes":0,"address":"12 RUE EUGENE RUPPERT","city":"LUXEMBOURG","swift_code":"DEGRLULLXXX","id":83000,"branch":null},
{"branch_code":null,"zip":"1724","bank_code":87,"bank":"Intesa Sanpaolo Bank Luxembourg S.A.","support_codes":15,"address":"19-21 BOULEVARD DU PRINCE HENRI","city":"LUXEMBOURG","swift_code":"SEBKLULLXXX","id":87000,"branch":null},
{"branch_code":null,"zip":"2220","bank_code":92,"bank":"Nordea Bank S.A.","support_codes":0,"address":"562 RUE DE NEUDORF","city":"LUXEMBOURG","swift_code":"NDEALULLXXX","id":92000,"branch":null},
{"branch_code":null,"zip":"2011","bank_code":93,"bank":"Danske Bank International S.A.","support_codes":1,"address":"13, RUE EDWARD STEICHEN","city":"LUXEMBOURG","swift_code":"DABALULLXXX","id":93000,"branch":null},
{"branch_code":null,"zip":"1142","bank_code":95,"bank":"BHW Bausparkasse AG, Niederlassung Luxemburg","support_codes":0,"address":"5 PIERRE D'ASPELT","city":"LUXEMBOURG","swift_code":"BHAHLUL1XXX","id":95000},
{"branch_code":null,"zip":"2180","bank_code":97,"bank":"HCOB Securities S.A.","support_codes":1,"address":"5 RUE JEAN MONNET","city":"LUXEMBOURG","swift_code":"HSHNLULLXXX","id":97000,"branch":null},
{"branch_code":null,"zip":"1475","bank_code":104,"bank":"Société Nationale de Crédit et d'Investissement","support_codes":0,"address":"7 RUE DU SAINT ESPRIT","city":"LUXEMBOURG","swift_code":"SNCILUL1XXX","id":104000},
{"branch_code":"IPC","zip":"1445","bank_code":107,"bank":"DZ PRIVATBANK S.A.","support_codes":15,"address":"4, RUE THOMAS EDISON","city":"LUXEMBOURG","swift_code":"GENOLULLIPC","id":107001,"branch":null},
{"branch_code":null,"zip":"1445","bank_code":107,"bank":"DZ PRIVATBANK S.A.","support_codes":15,"address":"4, RUE THOMAS EDISON","city":"LUXEMBOURG","swift_code":"GENOLULLXXX","id":107000,"branch":null},
{"branch_code":null,"zip":"2019","bank_code":108,"bank":"Wüstenrot Bausparkasse AG, Niederlassung Luxemburg","support_codes":0,"address":"34 AVENUE MARIE-THERESE","city":"LUXEMBOURG","swift_code":"BGFWLUL1XXX","id":108000},
{"branch_code":null,"zip":"","bank_code":110,"bank":"SVENSKA HANDELSBANKEN AB","support_codes":15,"address":"","city":"","swift_code":"HANDLULBXXX","id":110000,"branch":null},
{"branch_code":null,"zip":"2998","bank_code":111,"bank":"POST Group","support_codes":15,"address":"38 PLACE DE LA GARE","city":"LUXEMBOURG","swift_code":"CCPLLULLXXX","id":111000,"branch":null},
{"branch_code":null,"zip":"1724","bank_code":116,"bank":"Bank of China Limited Luxembourg Branch","support_codes":1,"address":"37-39 BOULEVARD PRINCE HENRI","city":"LUXEMBOURG","swift_code":"BKCHLULLXXX","id":116000,"branch":null},
{"branch_code":null,"zip":"2449","bank_code":117,"bank":"Banque Hapoalim (Suisse) S.A., Succursale de Luxembourg","support_codes":1,"address":"18 BOULEVARD ROYAL","city":"LUXEMBOURG","swift_code":"POALLULLXXX","id":117000,"branch":null},
{"branch_code":null,"zip":"1011","bank_code":123,"bank":"CA Indosuez Wealth (Europe)","support_codes":15,"address":"ALLEE SCHEFFER 39","city":"LUXEMBOURG","swift_code":"AGRILULAXXX","id":123000,"branch":null},
{"branch_code":null,"zip":"1930","bank_code":131,"bank":"State Street Bank Luxembourg S.A. (formerly Sanpaolo Bank S.A.)","support_codes":0,"address":"8 AVENUE DE LA LIBERTE","city":"LUXEMBOURG","swift_code":"SPLBLUL1XXX","id":131000},
{"branch_code":null,"zip":"2227","bank_code":133,"bank":"Banco Bradesco Europa S.A.","support_codes":0,"address":"29, AVENUE DE LA PORTE-NEUVE FLOOR 5","city":"LUXEMBOURG","swift_code":"BBDELULLXXX","id":133000,"branch":null},
{"branch_code":null,"zip":"2330","bank_code":134,"bank":"Banque de Commerce et de Placements S.A., Luxembourg Branch","support_codes":1,"address":"140 BOULEVARD DE LA PETRUSSE","city":"LUXEMBOURG","swift_code":"BPCPLULLXXX","id":134000,"branch":null},
{"branch_code":null,"zip":"1855","bank_code":135,"bank":"DekaBank Deutsche Girozentrale, Succursale de Luxembourg","support_codes":0,"address":"38 AVENUE JOHN F. KENNEDY PLATEAU DE KIRCHBERG","city":"LUXEMBOURG","swift_code":"DGZFLULLXXX","id":135000,"branch":null},
{"branch_code":null,"zip":"1637","bank_code":143,"bank":"DNB Luxembourg S.A.","support_codes":1,"address":"13, RUE GOETHE","city":"LUXEMBOURG","swift_code":"UBNLLULLXXX","id":143000,"branch":null},
{"branch_code":null,"zip":"2180","bank_code":144,"bank":"IKB Deutsche Industriebank AG, Filiale Luxemburg","support_codes":0,"address":"RUE JEAN MONNET 2","city":"LUXEMBOURG","swift_code":"IKBDLUL1XXX","id":144000},
{"branch_code":null,"zip":"2449","bank_code":146,"bank":"Sumitomo Mitsui Trust Bank (Luxembourg) S.A.","support_codes":0,"address":"18 BOULEVARD ROYAL","city":"LUXEMBOURG","swift_code":"STBCLULLXXX","id":146000,"branch":null},
{"branch_code":null,"zip":"2017","bank_code":147,"bank":"HSBC Private Bank (Luxembourg) S.A.","support_codes":1,"address":"32 BOULEVARD ROYAL","city":"LUXEMBOURG","swift_code":"BLICLULXXXX","id":147000,"branch":null},
{"branch_code":null,"zip":"1840","bank_code":148,"bank":"Banque J. Safra Sarasin (Luxembourg) SA","support_codes":0,"address":"10A BOULEVARD JOSEPH II","city":"LUXEMBOURG","swift_code":"BSAFLULLXXX","id":148000,"branch":null},
{"branch_code":null,"zip":"2087","bank_code":149,"bank":"BNP Paribas, Luxembourg Branch","support_codes":1,"address":"23-25 AVENUE DE LA PORTE NEUVE","city":"LUXEMBOURG","swift_code":"BNPALULSXXX","id":149000,"branch":null},
{"branch_code":null,"zip":"2180","bank_code":151,"bank":"Eurobank Private Bank Luxembourg S.A.","support_codes":1,"address":"5 RUE JEAN MONNET","city":"LUXEMBOURG","swift_code":"ERBKLULLXXX","id":151000,"branch":null},
{"branch_code":null,"zip":"2180","bank_code":158,"bank":"UniCredit International Bank (Luxembourg) S.A.","support_codes":1,"address":"8-10 RUE JEAN MONNET","city":"LUXEMBOURG","swift_code":"UNCRLULLXXX","id":158000,"branch":null},
{"branch_code":null,"zip":"1855","bank_code":162,"bank":"The Royal Bank of Scotland Plc, Luxembourg Branch","support_codes":1,"address":"ESPACE KENNEDY 46 AVENUE J.F. KENNEDY","city":"LUXEMBOURG","swift_code":"RBOSLULLXXX","id":162000,"branch":null},
{"branch_code":null,"zip":"2180","bank_code":164,"bank":"Hamburg Commercial Bank AG Luxembourg Branch","support_codes":1,"address":"5 RUE JEAN MONNET","city":"LUXEMBOURG","swift_code":"HSHNLULBXXX","id":164000,"branch":null},
{"branch_code":null,"zip":"1160","bank_code":167,"bank":"HSBC Bank Plc, Luxembourg Branch","support_codes":0,"address":"16, BOULEVARD D'AVRANCHES","city":"LUXEMBOURG","swift_code":"BBDALULXXXX","id":167000,"branch":null},
{"branch_code":"EUX","zip":"2535","bank_code":172,"bank":"Edmond de Rothschild (Europe)","support_codes":1,"address":"20 BOULEVARD EMMANUEL SERVAIS","city":"LUXEMBOURG","swift_code":"PRIBLULLEUX","id":172001,"branch":null},
{"branch_code":"RAM","zip":"2535","bank_code":172,"bank":"Edmond de Rothschild (Europe)","support_codes":1,"address":"20 BOULEVARD EMMANUEL SERVAIS","city":"LUXEMBOURG","swift_code":"PRIBLULLRAM","id":172002,"branch":"(EDRAM)"},
{"branch_code":"REG","zip":"2535","bank_code":172,"bank":"Edmond de Rothschild (Europe)","support_codes":1,"address":"20 BOULEVARD EMMANUEL SERVAIS","city":"LUXEMBOURG","swift_code":"PRIBLULLREG","id":172003,"branch":"(TRANSFER AGENCY)"},
{"branch_code":null,"zip":"2535","bank_code":172,"bank":"Edmond de Rothschild (Europe)","support_codes":1,"address":"20 BOULEVARD EMMANUEL SERVAIS","city":"LUXEMBOURG","swift_code":"PRIBLULLXXX","id":172000,"branch":null},
{"branch_code":null,"zip":"1511","bank_code":173,"bank":"Berenberg Bank, Niederlassung Luxemburg","support_codes":15,"address":"148-152, AVENUE DE LA FAIENCERIE","city":"LUXEMBOURG","swift_code":"BEGOLUL1XXX","id":173000},
{"branch_code":null,"zip":"8210","bank_code":177,"bank":"Bankinter Luxembourg S.A.","support_codes":1,"address":"106, ROUTE D'ARLON","city":"MAMER","swift_code":"BKBKLULLXXX","id":177000,"branch":null},
{"branch_code":null,"zip":"2016","bank_code":178,"bank":"Brown Brothers Harriman (Luxembourg) S.C.A.","support_codes":0,"address":"33 BOULEVARD PRINCE HENRI","city":"LUXEMBOURG","swift_code":"BBHCLULLXXX","id":178000,"branch":null},
{"branch_code":"DTS","zip":"5365","bank_code":181,"bank":"Mizuho Trust & Banking (Luxembourg) S.A.","support_codes":0,"address":"1B, RUE GABRIEL LIPPMANN","city":"MUNSBACH","swift_code":"MHTBLULLDTS","id":181001,"branch":"(DERIVATIVE TRADES SETTLEMENT)"},
{"branch_code":null,"zip":"5365","bank_code":181,"bank":"Mizuho Trust & Banking (Luxembourg) S.A.","support_codes":0,"address":"1B, RUE GABRIEL LIPPMANN","city":"MUNSBACH","swift_code":"MHTBLULLXXX","id":181000,"branch":null},
{"branch_code":null,"zip":"2019","bank_code":183,"bank":"VP Bank (Luxembourg) SA","support_codes":1,"address":"26 AVENUE DE LA LIBERTE","city":"LUXEMBOURG","swift_code":"VPBVLULLXXX","id":183000,"branch":null},
{"branch_code":null,"zip":"2018","bank_code":193,"bank":"Banque Transatlantique Luxembourg S.A.","support_codes":1,"address":"17 COTE D'EICH","city":"LUXEMBOURG","swift_code":"CMCILUL1XXX","id":193000},
{"branch_code":null,"zip":"8308","bank_code":194,"bank":"Catella Bank S.A.","support_codes":15,"address":"PAFEBRUCH 38","city":"CAPELLEN","swift_code":"INVKLULLXXX","id":194000,"branch":null},
{"branch_code":null,"zip":"1855","bank_code":197,"bank":"Natixis Bank","support_codes":7,"address":"51 AVENUE J.F. KENNEDY","city":"LUXEMBOURG","swift_code":"NATXLULLXXX","id":197000,"branch":null},
{"branch_code":"GVA","zip":"1855","bank_code":198,"bank":"Pictet & Cie (Europe) S.A.","support_codes":7,"address":"15 A, AVENUE J.F. KENNEDY","city":"LUXEMBOURG","swift_code":"PICTLULXGVA","id":198001,"branch":null},
{"branch_code":"TAS","zip":"1855","bank_code":198,"bank":"Pictet & Cie (Europe) S.A.","support_codes":7,"address":"15 A, AVENUE J.F. KENNEDY","city":"LUXEMBOURG","swift_code":"PICTLULXTAS","id":198002,"branch":"(TRANSFER AGENT SERVICES DEPARTMENT)"},
{"branch_code":null,"zip":"1855","bank_code":198,"bank":"Pictet & Cie (Europe) S.A.","support_codes":7,"address":"15 A, AVENUE J.F. KENNEDY","city":"LUXEMBOURG","swift_code":"PICTLULXXXX","id":198000,"branch":null},
{"branch_code":"LFA","zip":"2449","bank_code":202,"bank":"State Street Bank Luxembourg S.A.","support_codes":0,"address":"47 BOULEVARD ROYAL FLOOR 3","city":"LUXEMBOURG","swift_code":"SBOSLULXLFA","id":202001,"branch":"(FUND ADMINISTRATION)"},
{"branch_code":"SHA","zip":"2449","bank_code":202,"bank":"State Street Bank Luxembourg S.A.","support_codes":0,"address":"47 BOULEVARD ROYAL FLOOR 3","city":"LUXEMBOURG","swift_code":"SBOSLULXSHA","id":202002,"branch":"(SHAREHOLDER ADMINISTRATION)"},
{"branch_code":null,"zip":"2449","bank_code":202,"bank":"State Street Bank Luxembourg S.A.","support_codes":0,"address":"47 BOULEVARD ROYAL FLOOR 3","city":"LUXEMBOURG","swift_code":"SBOSLULXXXX","id":202000,"branch":null},
{"branch_code":"EUX","zip":"5826","bank_code":204,"bank":"Nomura Bank (Luxembourg) S.A.","support_codes":0,"address":"H2O BLOCK A 33 RUE DE GASPERICH","city":"HESPERANGE","swift_code":"NBLXLULLEUX","id":204001,"branch":"(ANCILLARY SYSTEM DEDICATED ACCOUNT)"},
{"branch_code":null,"zip":"5826","bank_code":204,"bank":"Nomura Bank (Luxembourg) S.A.","support_codes":0,"address":"H2O BLOCK A 33 RUE DE GASPERICH","city":"HESPERANGE","swift_code":"NBLXLULLXXX","id":204000,"branch":null},
{"branch_code":null,"zip":"","bank_code":213,"bank":"ARGENTABANK LUXEMBOURG S.A.","support_codes":0,"address":"","city":"","swift_code":"ARLULUL1XXX","id":213000},
{"branch_code":null,"zip":"1011","bank_code":215,"bank":"Crédit Agricole Corporate and Investment Bank, Luxembourg Branch","support_codes":0,"address":"39 ALLEE SCHEFFER","city":"LUXEMBOURG","swift_code":"CAUILUL1XXX","id":215000},
{"branch_code":null,"zip":"2019","bank_code":220,"bank":"Bausparkasse Schwabisch Hall AG Niederlassung Luxemburg","support_codes":0,"address":"34 AVENUE MARIE-THERESE","city":"LUXEMBOURG","swift_code":"DGZFLULLXXX","id":220000,"branch":null},
{"branch_code":null,"zip":"1724","bank_code":222,"bank":"Bank of China (Luxembourg) S.A.","support_codes":1,"address":"37-39 BOULEVARD PRINCE HENRI","city":"LUXEMBOURG","swift_code":"BKCHLULAXXX","id":222000,"branch":null},
{"branch_code":null,"zip":"2449","bank_code":226,"bank":"Banque Hapoalim (Luxembourg) S.A.","support_codes":0,"address":"18 BOULEVARD ROYAL","city":"LUXEMBOURG","swift_code":"POALLUL2XXX","id":226000,"branch":null},
{"branch_code":null,"zip":"1229","bank_code":229,"bank":"Svenska Handelsbanken AB (Publ), Luxembourg Branch","support_codes":15,"address":"LE DOME 15 RUE BENDER","city":"LUXEMBOURG","swift_code":"HANDLULBXXX","id":229000,"branch":null},
{"branch_code":null,"zip":"","bank_code":250,"bank":"J.P. Morgan Bank Luxembourg S.A.","support_codes":0,"address":"","city":"","swift_code":"CHASLULWXXX","id":250000,"branch":null},
{"branch_code":null,"zip":"1115","bank_code":259,"bank":"Deutsche Bank AG, Niederlassung Luxemburg","support_codes":1,"address":"2 BOULEVARD KONRAD ADENAUER","city":"LUXEMBOURG","swift_code":"DEUTLULBXXX","id":259000,"branch":null},
{"branch_code":"CFS","zip":"1616","bank_code":264,"bank":"Banque Carnegie Luxembourg S.A.","support_codes":0,"address":"CENTRE EUROPE 5 PLACE DE LA GARE","city":"LUXEMBOURG","swift_code":"CARNLULLCFS","id":264001,"branch":"(INVESTMENT FUNDS)"},
{"branch_code":null,"zip":"1616","bank_code":264,"bank":"Banque Carnegie Luxembourg S.A.","support_codes":0,"address":"CENTRE EUROPE 5 PLACE DE LA GARE","city":"LUXEMBOURG","swift_code":"CARNLULLXXX","id":264000,"branch":null},
{"branch_code":null,"zip":"5365","bank_code":265,"bank":"Postbank Luxemburg","support_codes":0,"address":"POSTBANK FINANCE CENTER 18-20 PARC D'ACTIVITE SYRDALL MUNSBACH","city":"LUXEMBOURG","swift_code":"PBNKLULLXXX","id":265000,"branch":null},
{"branch_code":null,"zip":"2180","bank_code":267,"bank":"Sal. Oppenheim jr. & Cie. Luxembourg S.A.","support_codes":0,"address":"4 RUE JEAN MONNET","city":"LUXEMBOURG","swift_code":"SOPPLULXXXX","id":267000},
{"branch_code":null,"zip":"2453","bank_code":269,"bank":"The Bank of New York Mellon (International) Ltd., Luxembourg Branch","support_codes":0,"address":"VERTIGO BUILDING - POLARIS 2-4 RUE EUGENE RUPPERT","city":"LUXEMBOURG","swift_code":"SGWLLULXXXX","id":269000,"branch":null},
{"branch_code":null,"zip":"1445","bank_code":271,"bank":"Garanti Bank Luxembourg Branch","support_codes":0,"address":"7, RUE THOMAS EDISON","city":"STRASSEN","swift_code":"TGBALULLXXX","id":271000},
{"branch_code":null,"zip":"2227","bank_code":281,"bank":"Freie Internationale Sparkasse S.A.","support_codes":0,"address":"13, AVENUE DE LA PORTE-NEUVE","city":"LUXEMBOURG","swift_code":"SBRELUL1XXX","id":281000},
{"branch_code":null,"zip":"2449","bank_code":284,"bank":"Banque Havilland Institutional Services S.A.","support_codes":7,"address":"26 BOULEVARD ROYAL","city":"LUXEMBOURG","swift_code":"HAVLLULLXXX","id":284000,"branch":null},
{"branch_code":"ACF","zip":"1855","bank_code":289,"bank":"Clearstream Banking","support_codes":0,"address":"42, AV. J-F KENNEDY","city":"LUXEMBOURG","swift_code":"CEDELULLACF","id":289001,"branch":null},
{"branch_code":"CPI","zip":"1855","bank_code":289,"bank":"Clearstream Banking","support_codes":0,"address":"42, AV. J-F KENNEDY","city":"LUXEMBOURG","swift_code":"CEDELULLCPI","id":289002,"branch":null},
{"branch_code":"CSK","zip":"1855","bank_code":289,"bank":"Clearstream Banking","support_codes":0,"address":"42, AV. J-F KENNEDY","city":"LUXEMBOURG","swift_code":"CEDELULLCSK","id":289003,"branch":"(CLEARSTREAM BANKING COMMON SAFEKEEPER)"},
{"branch_code":"DST","zip":"1855","bank_code":289,"bank":"Clearstream Banking","support_codes":0,"address":"42, AV. J-F KENNEDY","city":"LUXEMBOURG","swift_code":"CEDELULLDST","id":289004,"branch":"(SPECIFIC CASH MANAGEMENT)"},
{"branch_code":"ERF","zip":"1855","bank_code":289,"bank":"Clearstream Banking","support_codes":0,"address":"42, AV. J-F KENNEDY","city":"LUXEMBOURG","swift_code":"CEDELULLERF","id":289005,"branch":null},
{"branch_code":"LGT","zip":"1855","bank_code":289,"bank":"Clearstream Banking","support_codes":0,"address":"42, AV. J-F KENNEDY","city":"LUXEMBOURG","swift_code":"CEDELULLLGT","id":289006,"branch":null},
{"branch_code":"LHB","zip":"1855","bank_code":289,"bank":"Clearstream Banking","support_codes":0,"address":"42, AV. J-F KENNEDY","city":"LUXEMBOURG","swift_code":"CEDELULLLHB","id":289007,"branch":null},
{"branch_code":"LHC","zip":"1855","bank_code":289,"bank":"Clearstream Banking","support_codes":0,"address":"42, AV. J-F KENNEDY","city":"LUXEMBOURG","swift_code":"CEDELULLLHC","id":289008,"branch":null},
{"branch_code":"LOM","zip":"1855","bank_code":289,"bank":"Clearstream Banking","support_codes":0,"address":"42, AV. J-F KENNEDY","city":"LUXEMBOURG","swift_code":"CEDELULLLOM","id":289009,"branch":null},
{"branch_code":"OAS","zip":"1855","bank_code":289,"bank":"Clearstream Banking","support_codes":0,"address":"42, AV. J-F KENNEDY","city":"LUXEMBOURG","swift_code":"CEDELULLOAS","id":289010,"branch":null},
{"branch_code":"REA","zip":"1855","bank_code":289,"bank":"Clearstream Banking","support_codes":0,"address":"42, AV. J-F KENNEDY","city":"LUXEMBOURG","swift_code":"CEDELULLREA","id":289011,"branch":"(ESES FOR THE REALIGNMENT OF THE MULTI LISTED SECURITIES)"},
{"branch_code":"TAN","zip":"1855","bank_code":289,"bank":"Clearstream Banking","support_codes":0,"address":"42, AV. J-F KENNEDY","city":"LUXEMBOURG","swift_code":"CEDELULLTAN","id":289012,"branch":"(FOR ISSUANCE IN LUXCSD)"},
{"branch_code":"TSY","zip":"1855","bank_code":289,"bank":"Clearstream Banking","support_codes":0,"address":"42, AV. J-F KENNEDY","city":"LUXEMBOURG","swift_code":"CEDELULLTSY","id":289013,"branch":null},
{"branch_code":null,"zip":"1855","bank_code":289,"bank":"Clearstream Banking","support_codes":0,"address":"42, AV. J-F KENNEDY","city":"LUXEMBOURG","swift_code":"CEDELULLXXX","id":289000,"branch":null},
{"branch_code":null,"zip":"2012","bank_code":298,"bank":"BPER Bank Luxembourg S.A.","support_codes":1,"address":"BOULEVARD ROYAL 30","city":"LUXEMBOURG","swift_code":"BPMOLULSXXX","id":298000,"branch":null},
{"branch_code":null,"zip":"1855","bank_code":301,"bank":"EFG Bank (Luxembourg) S.A.","support_codes":0,"address":"37A, AVENUE J.F. KENNEDY","city":"LUXEMBOURG","swift_code":"CABILULLXXX","id":301000},
{"branch_code":null,"zip":"1637","bank_code":302,"bank":"Caixa Geral de Depósitos, Succursale de Luxembourg","support_codes":0,"address":"7 RUE GOETHE","city":"LUXEMBOURG","swift_code":"CGDILUL1XXX","id":302000},
{"branch_code":null,"zip":"1150","bank_code":305,"bank":"Delen Private Bank Luxembourg S.A.","support_codes":1,"address":"CENTRE DESCARTES ROUTE D'ARLON 287","city":"LUXEMBOURG","swift_code":"DELELULLXXX","id":305000,"branch":null},
{"branch_code":null,"zip":"1212","bank_code":308,"bank":"Fideuram Bank (Luxembourg) S.A.","support_codes":1,"address":"17A RUE DES BAINS","city":"LUXEMBOURG","swift_code":"FIBKLULLXXX","id":308000,"branch":null},
{"branch_code":null,"zip":"","bank_code":309,"bank":"Fideuram Bank (Luxembourg) S.A.","support_codes":1,"address":"","city":"","swift_code":"FIBKLUL2XXX","id":309000,"branch":null},
{"branch_code":"GTS","zip":"2453","bank_code":310,"bank":"The Bank of New York Mellon (Luxembourg) S.A.","support_codes":1,"address":"VERTIGO BUILDING - POLARIS 2-4 RUE EUGENE RUPPERT","city":"LUXEMBOURG","swift_code":"IRVTLULXGTS","id":310001,"branch":"(CORPORATE TRUST)"},
{"branch_code":"LTA","zip":"2453","bank_code":310,"bank":"The Bank of New York Mellon (Luxembourg) S.A.","support_codes":1,"address":"VERTIGO BUILDING - POLARIS 2-4 RUE EUGENE RUPPERT","city":"LUXEMBOURG","swift_code":"IRVTLULXLTA","id":310002,"branch":"(TRANSFER AGENCY)"},
{"branch_code":null,"zip":"2453","bank_code":310,"bank":"The Bank of New York Mellon (Luxembourg) S.A.","support_codes":1,"address":"VERTIGO BUILDING - POLARIS 2-4 RUE EUGENE RUPPERT","city":"LUXEMBOURG","swift_code":"IRVTLULXXXX","id":310000,"branch":null},
{"branch_code":null,"zip":"2721","bank_code":314,"bank":"Hypo Pfandbrief Bank International S.A.","support_codes":0,"address":"4 RUE ALPHONSE WEICKER","city":"LUXEMBOURG","swift_code":"PBILLULLXXX","id":314000,"branch":null},
{"branch_code":null,"zip":"2132","bank_code":316,"bank":"Industrial and Commercial Bank of China Ltd., Luxembourg Branch","support_codes":1,"address":"8-10 AVENUE MARIE-THERESE FLOOR 0","city":"LUXEMBOURG","swift_code":"ICBKLULLXXX","id":316000,"branch":null},
{"branch_code":null,"zip":"1016","bank_code":317,"bank":"John Deere Bank S.A.","support_codes":0,"address":"5 RUE EUGENE RUPPERT","city":"LUXEMBOURG","swift_code":"JODELUL1XXX","id":317000},
{"branch_code":null,"zip":"1855","bank_code":318,"bank":"Banque Havilland S.A.","support_codes":7,"address":"35A, AVENUE J.F. KENNEDY","city":"LUXEMBOURG","swift_code":"HAVLLULLXXX","id":318000,"branch":null},
{"branch_code":null,"zip":"2132","bank_code":320,"bank":"EFG Bank (Luxembourg) S.A.","support_codes":1,"address":"6 AVENUE MARIE-THERESE","city":"LUXEMBOURG","swift_code":"EFGBLULXXXX","id":320000,"branch":null},
{"branch_code":null,"zip":"2535","bank_code":323,"bank":"Banque Puilaetco Dewaay Luxembourg S.A.","support_codes":0,"address":"2 BOULEVARD EMMANUEL SERVAIS","city":"LUXEMBOURG","swift_code":"PULALULLXXX","id":323000,"branch":null},
{"branch_code":null,"zip":"2958","bank_code":324,"bank":"Swissquote Bank Europe S.A.","support_codes":1,"address":"46A, AVENUE JF KENNEDY","city":"LUXEMBOURG","swift_code":"SWQBLULLXXX","id":324000,"branch":null},
{"branch_code":"DFS","zip":"2085","bank_code":328,"bank":"BNP Paribas Securities Services, Luxembourg Branch","support_codes":7,"address":"H2O 33 RUE DE GASPERICH","city":"LUXEMBOURG","swift_code":"PARBLULLDFS","id":328001,"branch":"(LUXEMBOURG DEPOSITARY AND FIDUCIARY SERVICES)"},
{"branch_code":"DUB","zip":"2085","bank_code":328,"bank":"BNP Paribas Securities Services, Luxembourg Branch","support_codes":7,"address":"H2O 33 RUE DE GASPERICH","city":"LUXEMBOURG","swift_code":"PARBLULLDUB","id":328002,"branch":"(SECURITIES SERVICES)"},
{"branch_code":"FDA","zip":"2085","bank_code":328,"bank":"BNP Paribas Securities Services, Luxembourg Branch","support_codes":7,"address":"H2O 33 RUE DE GASPERICH","city":"LUXEMBOURG","swift_code":"PARBLULLFDA","id":328003,"branch":null},
{"branch_code":"FFY","zip":"2085","bank_code":328,"bank":"BNP Paribas Securities Services, Luxembourg Branch","support_codes":7,"address":"H2O 33 RUE DE GASPERICH","city":"LUXEMBOURG","swift_code":"PARBLULLFFY","id":328004,"branch":"(SECURITIES SERVICES)"},
{"branch_code":"GTP","zip":"2085","bank_code":328,"bank":"BNP Paribas Securities Services, Luxembourg Branch","support_codes":7,"address":"H2O 33 RUE DE GASPERICH","city":"LUXEMBOURG","swift_code":"PARBLULLGTP","id":328005,"branch":"(GTP LUXEMBOURG)"},
{"branch_code":"ISI","zip":"2085","bank_code":328,"bank":"BNP Paribas Securities Services, Luxembourg Branch","support_codes":7,"address":"H2O 33 RUE DE GASPERICH","city":"LUXEMBOURG","swift_code":"PARBLULLISI","id":328006,"branch":"(GLOBAL CUSTODY)"},
{"branch_code":"ITT","zip":"2085","bank_code":328,"bank":"BNP Paribas Securities Services, Luxembourg Branch","support_codes":7,"address":"H2O 33 RUE DE GASPERICH","city":"LUXEMBOURG","swift_code":"PARBLULLITT","id":328007,"branch":"(BNP PARIBAS SECURITIES SERVICES, TAX PIVOT RECONCILIATION)"},
{"branch_code":"PER","zip":"2085","bank_code":328,"bank":"BNP Paribas Securities Services, Luxembourg Branch","support_codes":7,"address":"H2O 33 RUE DE GASPERICH","city":"LUXEMBOURG","swift_code":"PARBLULLPER","id":328008,"branch":"(PRIVATE EQUITY AND REAL ESTATE)"},
{"branch_code":null,"zip":"2085","bank_code":328,"bank":"BNP Paribas Securities Services, Luxembourg Branch","support_codes":7,"address":"H2O 33 RUE DE GASPERICH","city":"LUXEMBOURG","swift_code":"PARBLULLXXX","id":328000,"branch":null},
{"branch_code":null,"zip":"1246","bank_code":336,"bank":"Northern Trust Global Services Limited, Luxembourg Branch","support_codes":1,"address":"2, RUE ALBERT BORSCHETTE","city":"LUXEMBOURG","swift_code":"CNORLULXXXX","id":336000,"branch":null},
{"branch_code":null,"zip":"2010","bank_code":338,"bank":"Credit Suisse AG, Luxembourg Branch","support_codes":0,"address":"56 GRAND RUE","city":"LUXEMBOURG","swift_code":"CRESLULXXXX","id":338000,"branch":null},
{"branch_code":"GTS","zip":"2453","bank_code":340,"bank":"The Bank of New York Mellon S.A.\/N.V. Luxembourg Branch","support_codes":1,"address":"VERTIGO BUILDING - POLARIS 2-4 RUE EUGENE RUPPERT","city":"LUXEMBOURG","swift_code":"IRVTLULXGTS","id":340001,"branch":"(CORPORATE TRUST)"},
{"branch_code":"LTA","zip":"2453","bank_code":340,"bank":"The Bank of New York Mellon S.A.\/N.V. Luxembourg Branch","support_codes":1,"address":"VERTIGO BUILDING - POLARIS 2-4 RUE EUGENE RUPPERT","city":"LUXEMBOURG","swift_code":"IRVTLULXLTA","id":340002,"branch":"(TRANSFER AGENCY)"},
{"branch_code":null,"zip":"2453","bank_code":340,"bank":"The Bank of New York Mellon S.A.\/N.V. Luxembourg Branch","support_codes":1,"address":"VERTIGO BUILDING - POLARIS 2-4 RUE EUGENE RUPPERT","city":"LUXEMBOURG","swift_code":"IRVTLULXXXX","id":340000,"branch":null},
{"branch_code":"BEL","zip":"4360","bank_code":341,"bank":"RBC Investor Services Bank S.A.","support_codes":1,"address":"14, PORTE DE FRANCE","city":"ESCH-SUR-ALZETTE","swift_code":"FETALULLBEL","id":341001,"branch":null},
{"branch_code":"BRA","zip":"4360","bank_code":341,"bank":"RBC Investor Services Bank S.A.","support_codes":1,"address":"14, PORTE DE FRANCE","city":"ESCH-SUR-ALZETTE","swift_code":"FETALULLBRA","id":341002,"branch":"(FETA BRANCHES)"},
{"branch_code":"DIS","zip":"4360","bank_code":341,"bank":"RBC Investor Services Bank S.A.","support_codes":1,"address":"14, PORTE DE FRANCE","city":"ESCH-SUR-ALZETTE","swift_code":"FETALULLDIS","id":341003,"branch":"(GLOBAL FUND PLATFORM)"},
{"branch_code":"ISV","zip":"4360","bank_code":341,"bank":"RBC Investor Services Bank S.A.","support_codes":1,"address":"14, PORTE DE FRANCE","city":"ESCH-SUR-ALZETTE","swift_code":"FETALULLISV","id":341004,"branch":"(INVESTORS SERVICES)"},
{"branch_code":"SHS","zip":"4360","bank_code":341,"bank":"RBC Investor Services Bank S.A.","support_codes":1,"address":"14, PORTE DE FRANCE","city":"ESCH-SUR-ALZETTE","swift_code":"FETALULLSHS","id":341005,"branch":"(SHAREHOLDERS SERVICES)"},
{"branch_code":null,"zip":"4360","bank_code":341,"bank":"RBC Investor Services Bank S.A.","support_codes":1,"address":"14, PORTE DE FRANCE","city":"ESCH-SUR-ALZETTE","swift_code":"FETALULLXXX","id":341000,"branch":null},
{"branch_code":null,"zip":"2450","bank_code":342,"bank":"Mediobanca International (Luxembourg) S.A.","support_codes":0,"address":"14, BOULEVARD ROOSEVELT","city":"LUXEMBOURG","swift_code":"MEOILUL1XXX","id":342000},
{"branch_code":null,"zip":"2120","bank_code":343,"bank":"EFG Bank (Luxembourg) S.A.","support_codes":1,"address":"14 ALLEE MARCONI","city":"LUXEMBOURG","swift_code":"EFGBLULXXXX","id":343000,"branch":null},
{"branch_code":null,"zip":"5365","bank_code":344,"bank":"Advanzia Bank S.A.","support_codes":7,"address":"PARC D'ACTIVITE SYRDALL 9","city":"MUNSBACH","swift_code":"ADVZLULLXXX","id":344000,"branch":null},
{"branch_code":null,"zip":"2540","bank_code":347,"bank":"Commerzbank AG Filiale Luxemburg","support_codes":15,"address":"25, RUE EDWARD STEICHEN","city":"LUXEMBOURG","swift_code":"COBALULUXXX","id":347000,"branch":null},
{"branch_code":null,"zip":"2132","bank_code":348,"bank":"Industrial and Commercial Bank of China (Europe) S.A.","support_codes":1,"address":"8-10 AVENUE MARIE-THERESE FLOOR 0","city":"LUXEMBOURG","swift_code":"ICBKLULUXXX","id":348000,"branch":null},
{"branch_code":null,"zip":"2346","bank_code":349,"bank":"Citco Bank Nederland N.V., Luxembourg Branch","support_codes":1,"address":"20 RUE DE LA POSTE","city":"LUXEMBOURG","swift_code":"CITCLULLXXX","id":349000,"branch":null},
{"branch_code":null,"zip":"1445","bank_code":350,"bank":"Compagnie de Banque Privée Quilvest S.A.","support_codes":1,"address":"7 RUE THOMAS EDISON","city":"LUXEMBOURG","swift_code":"CBPXLULLXXX","id":350000,"branch":null},
{"branch_code":null,"zip":"2449","bank_code":351,"bank":"PayPal (Europe) S.à r.l. et Cie, S.C.A.","support_codes":0,"address":"BOULEVARD ROYAL","city":"LUXEMBOURG","swift_code":"PPLXLULLXXX","id":351000,"branch":null},
{"branch_code":null,"zip":"2449","bank_code":354,"bank":"Banque Öhman S.A.","support_codes":0,"address":"28 BOULEVARD ROYAL","city":"LUXEMBOURG","swift_code":"REYLLULLXXX","id":354000,"branch":null},
{"branch_code":null,"zip":"1855","bank_code":355,"bank":"ABN AMRO Bank (Luxembourg) S.A.","support_codes":0,"address":"46 AVENUE KENNEDY","city":"LUXEMBOURG","swift_code":"ABNALU2AXXX","id":355000},
{"branch_code":"LFA","zip":"2449","bank_code":358,"bank":"State Street Bank GmbH, Zweigniederlassung Luxemburg","support_codes":0,"address":"47 BOULEVARD ROYAL FLOOR 3","city":"LUXEMBOURG","swift_code":"SBOSLULXLFA","id":358001,"branch":"(FUND ADMINISTRATION)"},
{"branch_code":"SHA","zip":"2449","bank_code":358,"bank":"State Street Bank GmbH, Zweigniederlassung Luxemburg","support_codes":0,"address":"47 BOULEVARD ROYAL FLOOR 3","city":"LUXEMBOURG","swift_code":"SBOSLULXSHA","id":358002,"branch":"(SHAREHOLDER ADMINISTRATION)"},
{"branch_code":null,"zip":"2449","bank_code":358,"bank":"State Street Bank GmbH, Zweigniederlassung Luxemburg","support_codes":0,"address":"47 BOULEVARD ROYAL FLOOR 3","city":"LUXEMBOURG","swift_code":"SBOSLULXXXX","id":358000,"branch":null},
{"branch_code":null,"zip":"","bank_code":359,"bank":"Keytrade Bank Luxembourg S.A.","support_codes":1,"address":"","city":"","swift_code":"KEYTLULLXXX","id":359000,"branch":null},
{"branch_code":null,"zip":"2557","bank_code":360,"bank":"Andbank Luxembourg","support_codes":1,"address":"RUE ROBERT STUEMPER 7A","city":"LUXEMBOURG","swift_code":"BACALULLXXX","id":360000,"branch":null},
{"branch_code":"100","zip":"2449","bank_code":361,"bank":"Banque de Patrimoines Privés","support_codes":0,"address":"BOULEVARD ROYAL 30","city":"LUXEMBOURG","swift_code":"BBPPLULL100","id":361001,"branch":"(RECEPTION OF INVESTORS ORDERS IN THE FUNDS ADMINISTRATED BY BPP)"},
{"branch_code":null,"zip":"2449","bank_code":361,"bank":"Banque de Patrimoines Privés","support_codes":0,"address":"BOULEVARD ROYAL 30","city":"LUXEMBOURG","swift_code":"BBPPLULLXXX","id":361000,"branch":null},
{"branch_code":null,"zip":"2520","bank_code":364,"bank":"Lombard Odier (Europe) S.A.","support_codes":1,"address":"5, ALLEE SCHEFFER","city":"LUXEMBOURG","swift_code":"LOCYLULLXXX","id":364000,"branch":null},
{"branch_code":null,"zip":"2519","bank_code":365,"bank":"Novo Banco S.A., Succursale de Luxembourg","support_codes":1,"address":"RUE SCHILLER\/AV. DE LA LIBERTA,1","city":"LUXEMBOURG","swift_code":"BESCLULLXXX","id":365000,"branch":null},
{"branch_code":null,"zip":"2449","bank_code":368,"bank":"Banca March, S.A., Luxembourg Branch","support_codes":0,"address":"REGUS 26 BOULEVARD ROYAL","city":"LUXEMBOURG","swift_code":"BMARLU2MXXX","id":368000,"branch":null},
{"branch_code":null,"zip":"2449","bank_code":369,"bank":"ABLV Bank Luxembourg S.A.","support_codes":0,"address":"26A BOULEVARD ROYAL FLOOR 5","city":"LUXEMBOURG","swift_code":"ABLVLULLXXX","id":369000,"branch":null},
{"branch_code":null,"zip":"","bank_code":371,"bank":"Banco Safra S.A. Luxembourg Branch","support_codes":0,"address":"","city":"","swift_code":"SAFRLULLCCY","id":371000},
{"branch_code":null,"zip":"","bank_code":372,"bank":"BEMO EUROPE - BANQUE PRIVEE","support_codes":7,"address":"","city":"","swift_code":"BEMOLULLXXX","id":372000,"branch":null},
{"branch_code":null,"zip":"1160","bank_code":374,"bank":"HSBC Bank Plc, Luxembourg Branch","support_codes":15,"address":"DAIRY HOUSE 16 BOULEVARD D AVRANCHES","city":"LUXEMBOURG","swift_code":"HSBCLULLXXX","id":374000,"branch":null},
{"branch_code":null,"zip":"2449","bank_code":375,"bank":"China Construction Bank (Europe) S.A.","support_codes":1,"address":"BOULEVARD ROYAL 1","city":"LUXEMBOURG","swift_code":"PCBCLULLXXX","id":375000,"branch":null},
{"branch_code":null,"zip":"2449","bank_code":377,"bank":"China Construction Bank Corporation, Luxembourg Branch","support_codes":0,"address":"BOULEVARD ROYAL 1","city":"LUXEMBOURG","swift_code":"PCBCLULXXXX","id":377000,"branch":null},
{"branch_code":null,"zip":"1717","bank_code":379,"bank":"Bank GPB International S.A.","support_codes":1,"address":"RUE MATHIAS HARDT 8-10","city":"LUXEMBOURG","swift_code":"GAZPLULLXXX","id":379000,"branch":null},
{"branch_code":null,"zip":"1931","bank_code":381,"bank":"Mirabaud & Cie (Europe) S.A.","support_codes":1,"address":"AVENUE DE LA LIBERTE 25","city":"LUXEMBOURG","swift_code":"MIRALULLXXX","id":381000,"branch":null},
{"branch_code":null,"zip":"1610","bank_code":384,"bank":"RCB Bank Ltd, Luxembourg Branch","support_codes":7,"address":"CITY STATION FLOOR 8 AVENUE DE LA GARE 8\/10","city":"LUXEMBOURG","swift_code":"RCBLLULLXXX","id":384000,"branch":null},
{"branch_code":null,"zip":"","bank_code":386,"bank":"ALLFUNDS BANK INTERNATIONAL S.A.","support_codes":0,"address":"","city":"","swift_code":"ALLFLULLXXX","id":386000,"branch":null},
{"branch_code":null,"zip":"","bank_code":390,"bank":"BANK OF COMMUNICATIONS (LUXEMBOURG) S.A.","support_codes":0,"address":"","city":"","swift_code":"COMMLULLXXX","id":390000,"branch":null},
{"branch_code":null,"zip":"","bank_code":391,"bank":"CHINA MERCHANTS BANK CO. LTD. LUXEMBOURG BRANCH","support_codes":0,"address":"","city":"","swift_code":"CMBCLULLXXX","id":391000,"branch":null},
{"branch_code":null,"zip":"","bank_code":392,"bank":"AGRICULTURAL BANK OF CHINA (LUXEMBOURG) S.A.","support_codes":0,"address":"","city":"","swift_code":"ABOCLULLXXX","id":392000,"branch":null},
{"branch_code":null,"zip":"","bank_code":393,"bank":"AGRICULTURAL BANK OF CHINA LUXEMBOURG BRANCH","support_codes":0,"address":"","city":"","swift_code":"ABOCLULBXXX","id":393000,"branch":null},
{"branch_code":null,"zip":"","bank_code":400,"bank":"RiverBank S.A.","support_codes":0,"address":"","city":"","swift_code":"RRBALULLXXX","id":400000,"branch":null},
{"branch_code":null,"zip":"","bank_code":406,"bank":"Northern Trust Global Services SE","support_codes":1,"address":"","city":"","swift_code":"CNORLULXXXX","id":406000,"branch":null},
{"branch_code":null,"zip":"","bank_code":408,"bank":"BANKING CIRCLE S.A.","support_codes":1,"address":"","city":"","swift_code":"BCIRLULLXXX","id":408000,"branch":null},
{"branch_code":null,"zip":"","bank_code":409,"bank":"BARCLAYS BANK IRELAND PLC","support_codes":15,"address":"","city":"","swift_code":"BARCLULLXXX","id":409000,"branch":null},
{"branch_code":null,"zip":"","bank_code":411,"bank":"CaixaBank Wealth Management Luxembourg S.A.","support_codes":7,"address":"","city":"","swift_code":"CAIXLULLXXX","id":411000,"branch":null},
{"branch_code":null,"zip":"","bank_code":606,"bank":"Olky Payment Service Provider S.A.","support_codes":7,"address":"","city":"","swift_code":"OLKILUL1XXX","id":606000},
{"branch_code":null,"zip":"","bank_code":613,"bank":"ONPEX S.A.","support_codes":7,"address":"","city":"","swift_code":"ONPXLULMXXX","id":613000,"branch":null},
{"branch_code":null,"zip":"","bank_code":619,"bank":"Sogexia S.A.","support_codes":1,"address":"","city":"","swift_code":"SOXALULLXXX","id":619000,"branch":null},
{"branch_code":null,"zip":"","bank_code":699,"bank":"RBS International, Luxembourg Branch","support_codes":1,"address":"","city":"","swift_code":"RBOSLULLXXX","id":699000,"branch":null},
{"branch_code":null,"zip":"","bank_code":700,"bank":"EAST-WEST UNITED BANK S.A.","support_codes":1,"address":"","city":"","swift_code":"EWUBLUL2XXX","id":700000,"branch":null},
{"branch_code":null,"zip":"","bank_code":701,"bank":"Rakuten Europe Bank S.A.","support_codes":6,"address":"","city":"","swift_code":"RAPSLUL1XXX","id":701000},
{"branch_code":null,"zip":"2955","bank_code":705,"bank":"Quintet Private Bank (Europe) S.A.","support_codes":15,"address":"43 BOULEVARD ROYAL","city":"LUXEMBOURG","swift_code":"KBLXLULLXXX","id":705000,"branch":null},
{"branch_code":null,"zip":"","bank_code":799,"bank":"AS Expobank Luxembourg Branch","support_codes":0,"address":"","city":"","swift_code":"EXPOLULLXXX","id":799000},
{"branch_code":null,"zip":"","bank_code":802,"bank":"Satispay Europe S.A.","support_codes":15,"address":"","city":"","swift_code":"SATYLUL1SRV","id":802000},
{"branch_code":null,"zip":"","bank_code":805,"bank":"MANGOPAY S.A.","support_codes":1,"address":"","city":"","swift_code":"MAGYLUL1XXX","id":805000},
{"branch_code":null,"zip":"","bank_code":806,"bank":"IPAY INTERNATIONAL S.A.","support_codes":0,"address":"","city":"","swift_code":"IPEULULLXXX","id":806000},
{"branch_code":null,"zip":"","bank_code":807,"bank":"SnapSwap International S.A.","support_codes":7,"address":"","city":"","swift_code":"SSWILUL1XXX","id":807000},
{"branch_code":null,"zip":"","bank_code":810,"bank":"SATISPAY EUROPE SA","support_codes":15,"address":"","city":"","swift_code":"SATYLUL1XXX","id":810000},
{"branch_code":null,"zip":"","bank_code":811,"bank":"PPRO S.A.","support_codes":0,"address":"","city":"","swift_code":"PPROLU21XXX","id":811000},
{"branch_code":"LCH","zip":"","bank_code":998,"bank":"Banque Europeenne dinvestissement","support_codes":0,"address":"","city":"LUXEMBOURG","swift_code":"BEILLULLLCH","id":998001,"branch":null},
{"branch_code":null,"zip":"","bank_code":998,"bank":"Banque Europeenne dinvestissement","support_codes":0,"address":"","city":"LUXEMBOURG","swift_code":"BEILLULLXXX","id":998000,"branch":null},
{"branch_code":"ASP","zip":"2983","bank_code":999,"bank":"Banque centrale du Luxembourg","support_codes":0,"address":"2, BOULEVARD ROYAL","city":"LUXEMBOURG","swift_code":"BCLXLULLASP","id":999001,"branch":"(ANCILLIARY SYSTEM PAYMENT)"},
{"branch_code":"TP1","zip":"2983","bank_code":999,"bank":"Banque centrale du Luxembourg","support_codes":0,"address":"2, BOULEVARD ROYAL","city":"LUXEMBOURG","swift_code":"BCLXLULLTP1","id":999002,"branch":"(TRIPARTY DOMESTIC)"},
{"branch_code":"TP2","zip":"2983","bank_code":999,"bank":"Banque centrale du Luxembourg","support_codes":0,"address":"2, BOULEVARD ROYAL","city":"LUXEMBOURG","swift_code":"BCLXLULLTP2","id":999003,"branch":null},
{"branch_code":null,"zip":"2983","bank_code":999,"bank":"Banque centrale du Luxembourg","support_codes":0,"address":"2, BOULEVARD ROYAL","city":"LUXEMBOURG","swift_code":"BCLXLULLXXX","id":999000,"branch":null}
    ]
}
