{
    "country_code": "LV",
    "isSEPAcountry": true,
    "ISO_3166_1": { "name": "Latvia" , "name_fr": "Lettonie (la)" , "alpha2": "LV" , "alpha3": "LVA" , "numeric": 428 },
    "list": [
{"id": 300170, "swift_code": "ABCRLV21XXX", "bank_code": "ABCR", "branch_code": null, "branch": null, "bank": "AB.LV CAPITAL MARKETS", "address": "ELIZABETES STREET 23", "zip": "1010", "city": "RIGA"},
{"id": 192868, "swift_code": "AIZKLV22XXX", "bank_code": "AIZK", "branch_code": null, "branch": null, "bank": "ABLV BANK, AS", "address": "ELIZABETESSTREET 23", "zip": "1010", "city": "RIGA"},
{"id": 28003, "swift_code": "BLPBLV21XXX", "bank_code": "BLPB", "branch_code": null, "branch": null, "bank": "AS BALTIJAS PRIVATBANKA", "address": "SIA MONO KATLAKALNA ST. 1", "zip": "1017", "city": "RIGA"},
{"id": 432487, "swift_code": "DUPYLV21XXX", "bank_code": "DUPY", "branch_code": null, "branch": null, "bank": "DUKASCOPY PAYMENTS", "address": "", "city": ""},
{"id": 83022, "swift_code": "EVSELV21XXX", "bank_code": "EVSE", "branch_code": null, "branch": null, "bank": "EVLI BANK LTD", "address": "1 VAINU STREET", "zip": "1050", "city": "RIGA"},
{"id": 195811, "swift_code": "FRDLLV22XXX", "bank_code": "FRDL", "branch_code": null, "branch": null, "bank": "FIRST DATA LATVIA", "address": "37 DZIRNAVU IELA", "zip": "1010", "city": "RIGA"},
{"id": 38329, "swift_code": "FSECLV21XXX", "bank_code": "FSEC", "branch_code": null, "branch": null, "bank": "FINCROSS SECURITIES AS", "address": "GERTRUDES 33/35 LV-1011", "zip": "1050", "city": "RIGA"},
{"id": 30114, "swift_code": "GOSBLV21XXX", "bank_code": "GOSB", "branch_code": null, "branch": null, "bank": "GLOBAL OVERSEAS BANK A.D.", "address": "MAGNET BUSINESS CENTRE 57/59 KR. VALDEMARA STREET", "zip": "1010", "city": "RIGA"},
{"id": 61523, "swift_code": "HANDLV22XXX", "bank_code": "HAND", "branch_code": null, "branch": null, "bank": "SVENSKA HANDELSBANKEN AB LATVIAN BRANCH", "address": " BLOCK 9 CESU STREET 31", "zip": "1012", "city": "RIGA"},
{"id": 1802, "swift_code": "IRCALV22XXX", "bank_code": "IRCA", "branch_code": null, "branch": null, "bank": "AS IBS RENESOURCE CAPITAL", "address": "16-1D REPUBLIKAS LAUKUMS 3-716", "zip": "1010", "city": "RIGA"},
{"id": 153253, "swift_code": "JSSILV21XXX", "bank_code": "JSSI", "branch_code": null, "branch": null, "bank": "JSC RB SECURITIES", "address": "BRIVIBAS IELA 54", "zip": "1011", "city": "RIGA"},
{"id": 18939, "swift_code": "LACBLV2XCCB", "bank_code": "LACB", "branch_code": "CCB", "branch": null, "bank": "BANK OF LATVIA", "address": "KR. VALDEMARA STREET 2A", "zip": "1022", "city": "RIGA", "support_codes": 1},
{"id": 18939, "swift_code": "LACBLV2XXXX", "bank_code": "LACB", "branch_code": null, "branch": null, "bank": "BANK OF LATVIA", "address": "KR. VALDEMARA STREET 2A", "zip": "1022", "city": "RIGA", "support_codes": 1},
{"id": 27727, "swift_code": "LAPBLV2XXXX", "bank_code": "LAPB", "branch_code": null, "branch": null, "bank": "LATVIJAS PASTA BANKA", "address": "KATLAKALNA 1", "zip": "1073", "city": "RIGA", "support_codes": 1},
{"id": 30431, "swift_code": "LATBLV22XXX", "bank_code": "LATB", "branch_code": null, "branch": null, "bank": "NORVIK BANKA, JSC", "address": "21 BIRZNIEKA-UPISHA STREET", "zip": "1011", "city": "RIGA", "support_codes": 1},
{"id": 48007, "swift_code": "LATCLV22XXX", "bank_code": "LATC", "branch_code": null, "branch": null, "bank": "AS EXPOBANK (FORMERLY AS LTB BANK)", "address": "GRECINIEKU IELA 22", "zip": "1050", "city": "RIGA", "support_codes": 1},
{"id": 181309, "swift_code": "LFIKLV21XXX", "bank_code": "LFIK", "branch_code": null, "branch": null, "bank": "LATGALES FINANSU UN INVESTICIJU KOMPANIJA AS", "address": "20/22 - 5 KR. BARONA STREET", "zip": "4601", "city": "REZEKNE"},
{"id": 36047, "swift_code": "LIBCLV21XXX", "bank_code": "LIBC", "branch_code": null, "branch": null, "bank": "LLC INVESTMENT BROKERAGE COMPANY 'MAXIMUS CAPITAL MARKETS'", "address": "RUPNIECIBAS STREET 1-5", "zip": "1010", "city": "RIGA"},
{"id": 94235, "swift_code": "LKJFLV21XXX", "bank_code": "LKJF", "branch_code": null, "branch": null, "bank": "LTFJA KKS JURNIEKU FORUMS", "address": "", "city": "", "support_codes": 1},
{"id": 325557, "swift_code": "LPNSLV21XXX", "bank_code": "LPNS", "branch_code": null, "branch": null, "bank": "JSC LATVIAN POST", "address": "ZIEMELU IELA 10 LIDOSTA", "zip": "1010", "city": "RIGA", "support_codes": 1},
{"id": 11504, "swift_code": "MARALV22XXX", "bank_code": "MARA", "branch_code": null, "branch": null, "bank": "DANSKE BANK A/S,LATVIJA BRANCH", "address": "CESU STREET 31/8", "zip": "1012", "city": "RIGA"},
{"id": 2795, "swift_code": "NDEALV2XXXX", "bank_code": "NDEA", "branch_code": null, "branch": null, "bank": "LUMINOR BANK AS", "address": "62 KR.VALDEMARA STREET", "zip": "1030", "city": "RIGA", "support_codes": 1},
{"id": 950, "swift_code": "OKBALV21XXX", "bank_code": "OKBA", "branch_code": null, "branch": null, "bank": "OGRES KOMERCBANKA", "address": "12, E. BIRZNIEKA UPISHA STR.", "zip": "1050", "city": "RIGA"},
{"id": 431562, "swift_code": "OKOYLV2XXXX", "bank_code": "OKOY", "branch_code": null, "branch": null, "bank": "OP CORPORATE BANK PLC ", "address": "VIENIBAS GATVE 87", "zip": "1004", "city": "RIGA", "support_codes": 1},
{"id": 406967, "swift_code": "PAEXLV21XXX", "bank_code": "PAEX", "branch_code": null, "branch": null, "bank": "SC PAREX BANKA", "address": "REPUBLIKAS SQUARE 2A", "zip": "1522", "city": "RIGA"},
{"id": 86543, "swift_code": "PAYELV21XXX", "bank_code": "PAYE", "branch_code": null, "branch": null, "bank": "PAYSERA LT", "address": "", "city": ""},
{"id": 299693, "swift_code": "RIBRLV22XXX", "bank_code": "RIBR", "branch_code": null, "branch": null, "bank": "REGIONALA INVESTICIJU BANKA", "address": "J. ALUNANA 2", "zip": "1010", "city": "RIGA", "support_codes": 1},
{"id": 26199, "swift_code": "RTMBLV2XXXX", "bank_code": "RTMB", "branch_code": null, "branch": null, "bank": "RIETUMU BANKA", "address": "7 VESETAS STREET", "zip": "1013", "city": "RIGA", "support_codes": 1},
{"id": 335418, "swift_code": "SECTLV21961", "bank_code": "SECT", "branch_code": "961", "branch": null, "bank": "SAMSUNG ELECTRONICS BALTICS", "address": "DUNTES IELA 6 FLOOR 6", "zip": "1013", "city": "RIGA"},
{"id": 335418, "swift_code": "SECTLV21XXX", "bank_code": "SECT", "branch_code": null, "branch": null, "bank": "SAMSUNG ELECTRONICS BALTICS", "address": "DUNTES IELA 6 FLOOR 6", "zip": "1013", "city": "RIGA"},
{"id": 142862, "swift_code": "SIDILV21XXX", "bank_code": "SIDI", "branch_code": null, "branch": null, "bank": "SIA DIXIPAY", "address": "KRISJANA VALDEMARA IELA 18-7", "zip": "1010", "city": "RIGA"},
{"id": 11900, "swift_code": "SPRALV21XXX", "bank_code": "SPRA", "branch_code": null, "branch": null, "bank": "SUPREMA AS", "address": "1 VALNU STREET", "zip": "1050", "city": "RIGA"},
{"id": 326527, "swift_code": "TAPSLV21XXX", "bank_code": "TAPS", "branch_code": null, "branch": null, "bank": "A/S SAULES INVESTICIJAS", "address": "SMILSU IELA 16", "zip": "1050", "city": "RIGA"},
{"id": 257965, "swift_code": "TPROLV22XXX", "bank_code": "TPRO", "branch_code": null, "branch": null, "bank": "SIA TRANSACT PRO", "address": "ROPAZU STREET  10", "zip": "1039", "city": "RIGA", "support_codes": 1},
{"id": 196501, "swift_code": "TRELLV22XXX", "bank_code": "TREL", "branch_code": null, "branch": null, "bank": "TREASURY OF THE REPUBLIC OF LATVIA, THE", "address": "1 SMILSU STREET", "zip": "1919", "city": "RIGA", "support_codes": 1},
{"id": 7794, "swift_code": "UNLALV2XXXX", "bank_code": "UNLA", "branch_code": null, "branch": null, "bank": "SEB BANKA", "address": "SEB FINANCE CENTER MEISTARU 1, VALDLAUCI, KEKAVAS PAG.", "zip": "1076", "city": "RIGA", "support_codes": 7},
{"id": 322241, "swift_code": "XRISLV21XXX", "bank_code": "XRIS", "branch_code": null, "branch": null, "bank": "RIGA STOCK EXCHANGE", "address": "RIGA STOCK EXCHANGE DOMA LAUKUMS 6", "zip": "1885", "city": "RIGA"},
{"id": 180025, "swift_code": "BIGKLV21XXX", "bank_code": "BIGK", "branch_code": null, "branch": null, "bank": "BIGBANK AS", "address": "", "city": "", "support_codes": 1},
{"id": 683, "swift_code": "HABALV22XXX", "bank_code": "HABA", "branch_code": null, "branch": null, "bank": "SWEDBANK AS", "address": "1A BALASTA DAMBIS", "zip": "1048", "city": "RIGA", "support_codes": 1},
{"id": 341912, "swift_code": "MULTLV2XXXX", "bank_code": "MULT", "branch_code": null, "branch": null, "bank": "AS INDUSTRA BANK", "address": "ELIZABETES IELA 57", "zip": "1772", "city": "RIGA", "support_codes": 1},
{"id": 415755, "swift_code": "PARXLV22XXX", "bank_code": "PARX", "branch_code": null, "branch": null, "bank": "JSC CITADELE BANKA", "address": "2A REPUBLIKAS LAUKUMS", "zip": "1010", "city": "RIGA", "support_codes": 1},
{"id": 253049, "swift_code": "RIKOLV2XXXX", "bank_code": "RIKO", "branch_code": null, "branch": null, "bank": "LUMINOR BANK AS", "address": "SKANSTES STREET 12", "zip": "1013", "city": "RIGA", "support_codes": 1},
{"id": 23271, "swift_code": "BLIBLV22XXX", "bank_code": "BLIB", "branch_code": null, "branch": null, "bank": "BALTIC INTERNATIONAL BANK", "address": "KALEJU STREET 43", "zip": "1050", "city": "RIGA", "support_codes": 1},
{"id": 299496, "swift_code": "CBBRLV22XXX", "bank_code": "CBBR", "branch_code": null, "branch": null, "bank": "AS BlueOrange Bank", "address": "SMILSU IELA 6", "zip": "1050", "city": "RIGA", "support_codes": 1},
{"id": 65166, "swift_code": "KKSDLV21XXX", "bank_code": "KKSD", "branch_code": null, "branch": null, "bank": "KOOPERATIVA KRAJAIZDEVU SABIEDRIBA 'DZELZCELNIEKS KS'", "address": "14, TURGENEVA", "zip": "1050", "city": "RIGA"},
{"id": 18939, "swift_code": "LACBLV2XAMS", "bank_code": "LACB", "branch_code": "AMS", "branch": null, "bank": "BANK OF LATVIA", "address": "KR. VALDEMARA STREET 2A", "zip": "1022", "city": "RIGA", "support_codes": 1},
{"id": 72395, "swift_code": "LCDELV22XXX", "bank_code": "LCDE", "branch_code": null, "branch": null, "bank": "LATVIAN CENTRAL DEPOSITORY,THE", "address": "VALNU STREET 1", "zip": "1050", "city": "RIGA"},
{"id": 18549, "swift_code": "LLBBLV2XXXX", "bank_code": "LLBB", "branch_code": null, "branch": null, "bank": "SIGNET BANK AS", "address": "ANTONIJAS 3", "zip": "1010", "city": "RIGA", "support_codes": 1},
{"id": 347245, "swift_code": "PRTTLV22XXX", "bank_code": "PRTT", "branch_code": null, "branch": null, "bank": "AS 'PRIVATBANK'", "address": "1 MUITAS STREET", "zip": "1134", "city": "RIGA", "support_codes": 1},
{"id": 325329, "swift_code": "RGNSLV22XXX", "bank_code": "RGNS", "branch_code": null, "branch": null, "bank": "RIGENSIS BANK AS", "address": "TEATRA STREET 3", "zip": "1050", "city": "RIGA", "support_codes": 1},
{"id": 267306, "swift_code": "ALFPLV21XXX", "bank_code": "ALFP", "branch_code": null, "branch": null, "bank": "ALFAPAY", "address": "", "city": ""},
{"id": 100509, "swift_code": "TRSFLV22XXX", "bank_code": "TRSF", "branch_code": null, "branch": null, "bank": "TRANSFERTA", "address": "", "city": ""},
{"id": 192868, "swift_code": "AIZKLV22CLN", "bank_code": "AIZK", "branch_code": "CLN", "branch": null, "bank": "ABLV BANK, AS", "address": "ELIZABETESSTREET 23", "zip": "1010", "city": "RIGA"},
{"id": 18549, "swift_code": "LLBBLV2X111", "bank_code": "LLBB", "branch_code": "111", "branch": null, "bank": "SIGNET BANK AS", "address": "ANTONIJAS 3", "zip": "1010", "city": "RIGA", "support_codes": 1},
{"id": 23271, "swift_code": "BLIBLV22ADD", "bank_code": "BLIB", "branch_code": "ADD", "branch": null, "bank": "BALTIC INTERNATIONAL BANK", "address": "KALEJU STREET 43", "zip": "1050", "city": "RIGA", "support_codes": 1},
{"id": 299496, "swift_code": "CBBRLV22001", "bank_code": "CBBR", "branch_code": "001", "branch": null, "bank": "AS BlueOrange Bank", "address": "SMILSU IELA 6", "zip": "1050", "city": "RIGA", "support_codes": 1},
{"id": 299496, "swift_code": "CBBRLV22002", "bank_code": "CBBR", "branch_code": "002", "branch": null, "bank": "AS BlueOrange Bank", "address": "SMILSU IELA 6", "zip": "1050", "city": "RIGA", "support_codes": 1},
{"id": 214414, "swift_code": "SEFMLV2XXXX", "bank_code": "SEFM", "branch_code": null, "branch": null, "bank": "SIA EPS FINANCE COMPANY", "address": "EVELES IELA 12 KORPUSS 2", "zip": "1013", "city": "RIGA"}
    ]
}
