{
    "country_code": "NL",
    "isSEPAcountry": true,
     "ISO_3166_1": { "name": "Netherlands (the)" , "name_fr": "Pays-Bas (les)" , "alpha2": "NL" , "alpha3": "NLD" , "numeric": 528 },
    "list": [
{"id":   8814, "swift_code": "ABNANL2AXXX", "bank_code": "ABNA", "branch_code": null, "branch": null, "bank": "ABN AMRO BANK N.V.", "address": "GUSTAV MAHLERLAAN 10", "zip": "1082 PP", "city": "AMSTERDAM", "support_codes": 15},
{"id":  30243, "swift_code": "ABNANL2AXXX", "bank_code": "FTSB", "branch_code": null, "branch": null, "bank": "ABN AMRO BANK-ex. FORTIS", "address": "BLAAK 555", "zip": "3011 GB", "city": "ROTTERDAM", "support_codes": 15},
{"id":  43966, "swift_code": "ABNCNL2AXXX", "bank_code": "ABNC", "branch_code": null, "branch": null, "bank": "ABN AMRO CLEARING BANK N.V.", "address": "GUSTAV MAHLERLAAN 10 NOORD-HOLLAND", "zip": "1082 PP", "city": "AMSTERDAM", "support_codes": 1},
{"id":  33878, "swift_code": "ADYBNL2AXXX", "bank_code": "ADYB", "branch_code": null, "branch": null, "bank": "ADYEN B.V", "address": "", "city": "", "support_codes": 1},
{"id": 250224, "swift_code": "AEGONL2UXXX", "bank_code": "AEGO", "branch_code": null, "branch": null, "bank": "AEGON BANK N.V.", "address": "KCN TOWER 60 NEVELGAARDE", "zip": "3436 ZZ", "city": "NIEUWEGEIN", "support_codes": 1},
{"id": 195702, "swift_code": "ANDLNL2AXXX", "bank_code": "ANDL", "branch_code": null, "branch": null, "bank": "ANADOLUBANK NEDERLAND N.V.", "address": "GEBOUW OFFICIA 1 DE BOELELAAN 7", "zip": "1083 HJ", "city": "AMSTERDAM", "support_codes": 1},
{"id": 229606, "swift_code": "ARBNNL22XXX", "bank_code": "ARBN", "branch_code": null, "branch": null, "bank": "ACHMEA RETAIL BANK N.V.", "address": "STORKSTRAAT 12", "zip": "3833 LB", "city": "LEUSDEN", "support_codes": 7},
{"id": 241098, "swift_code": "ARSNNL21XXX", "bank_code": "ARSN", "branch_code": null, "branch": null, "bank": "ARGENTA SPAARBANK-BIJKANTOOR NEDERLAND", "address": "NIEUWE BOSCHSTRAAT 51", "zip": "4811 CV", "city": "BREDA", "support_codes": 1},
{"id":  26832, "swift_code": "ASNBNL21XXX", "bank_code": "ASNB", "branch_code": null, "branch": null, "bank": "ASN BANK", "address": "BEZUIDENHOUTSEWEG 153", "zip": "2594 AG", "city": "DEN HAAG", "support_codes": 15},
{"id":   1170, "swift_code": "ATBANL2AXXX", "bank_code": "ATBA", "branch_code": null, "branch": null, "bank": "AMSTERDAM TRADE BANK N.V.", "address": "HERENGRACHT 475", "zip": "1017 BS", "city": "AMSTERDAM", "support_codes": 1},
{"id":  46645, "swift_code": "BARCNL22XXX", "bank_code": "BARC", "branch_code": null, "branch": null, "bank": "BARCLAYS BANK PLC", "address": "", "city": "", "support_codes": 15},
{"id": 212993, "swift_code": "BCDMNL22XXX", "bank_code": "BCDM", "branch_code": null, "branch": null, "bank": "BANQUE CHAABI DU MAROC", "address": "DE CLERCQSTRAAT 55", "zip": "1067 NG", "city": "AMSTERDAM", "support_codes": 1},
{"id": 339405, "swift_code": "BCITNL2AXXX", "bank_code": "BCIT", "branch_code": null, "branch": null, "bank": "INTESA SANPAOLO S.P.A. (FORMER SANPAOLO IMI), AMSTERDAM BRANCH, AMSTERDAM", "address": "STRAWINSKYLAAN 769", "zip": "1077 XX", "city": "AMSTERDAM", "support_codes": 15},
{"id": 177321, "swift_code": "BICKNL2AXXX", "bank_code": "BICK", "branch_code": null, "branch": null, "bank": "BINCKBANK N.V.", "address": "VIJZELSTRAAT 20", "zip": "1017 HK", "city": "AMSTERDAM", "support_codes": 1},
{"id": 184757, "swift_code": "BINKNL21XXX", "bank_code": "BINK", "branch_code": null, "branch": null, "bank": "BINCKBANK N.V. PROF", "address": "BARBARA STROZZILAAN 310", "zip": "1083 HN", "city": "AMSTERDAM", "support_codes": 1},
{"id": 329421, "swift_code": "BITSNL2AXXX", "bank_code": "BITS", "branch_code": null, "branch": null, "bank": "BITSAFE PAYMENTS", "address": "", "city": "", "support_codes": 1},
{"id": 124645, "swift_code": "BKCHNL2RXXX", "bank_code": "BKCH", "branch_code": null, "branch": null, "bank": "BANK OF CHINA", "address": "WESTBLAAK 109", "zip": "3012 KG", "city": "ROTTERDAM", "support_codes": 1},
{"id": 113829, "swift_code": "BKMGNL2AXXX", "bank_code": "BKMG", "branch_code": null, "branch": null, "bank": "BANK MENDES GANS N.V.", "address": "HERENGRACHT 619", "zip": "1017 CE", "city": "AMSTERDAM", "support_codes": 1},
{"id": 391015, "swift_code": "BLGWNL21XXX", "bank_code": "BLGW", "branch_code": null, "branch": null, "bank": "BLG WONEN", "address": "JOS KLIJNENLAAN 288", "zip": "6164 AZ", "city": "GELEEN", "support_codes": 7},
{"id": 354537, "swift_code": "BMEUNL21XXX", "bank_code": "BMEU", "branch_code": null, "branch": null, "bank": "BMCE EUROSERVICES", "address": "JOHAN HUIZINGALAAN 183", "zip": "1065 JA", "city": "AMSTERDAM"},
{"id":   2367, "swift_code": "BNDANL2AXXX", "bank_code": "BNDA", "branch_code": null, "branch": null, "bank": "BRAND NEW DAY VERMOGENSOPBOUW N.V.", "address": "", "city": "", "support_codes": 1},
{"id": 127427, "swift_code": "BNGHNL2GXXX", "bank_code": "BNGH", "branch_code": null, "branch": null, "bank": "BNG BANK N.V.", "address": "KONINGINNEGRACHT 2", "zip": "2514 AA", "city": "DEN HAAG", "support_codes": 15},
{"id":  10479, "swift_code": "BNPANL2AXXX", "bank_code": "BNPA", "branch_code": null, "branch": null, "bank": "BNP PARIBAS S.A. - THE NETHERLANDS BRANCH", "address": "HERENGRACHT 595", "zip": "1017 CE", "city": "AMSTERDAM", "support_codes": 15},
{"id":   3745, "swift_code": "BOFANLNXXXX", "bank_code": "BOFA", "branch_code": null, "branch": null, "bank": "BANK OF AMERICA, N.A. AMSTERDAM", "address": "REMBRANDT TOWER FLOOR 11 AMSTELPLEIN 1", "zip": "1096 HA", "city": "AMSTERDAM", "support_codes": 15},
{"id": 320113, "swift_code": "BOFSNL21002", "bank_code": "BOFS", "branch_code": null, "branch": null, "bank": "BANK OF SCOTLAND PLC", "address": "DE ENTREE 254", "zip": "1101 EE", "city": "AMSTERDAM", "support_codes": 1},
{"id": 188969, "swift_code": "BOTKNL2XXXX", "bank_code": "BOTK", "branch_code": null, "branch": null, "bank": "MUFG BANK", "address": "WORLD TRADE CENTER TOWER D FLOOR 5 STRAWINSKYLAAN 565", "zip": "1077 AR", "city": "AMSTERDAM", "support_codes": 15},
{"id": 290525, "swift_code": "BUNQNL2AXXX", "bank_code": "BUNQ", "branch_code": null, "branch": null, "bank": "BUNQ", "address": "ORLYPLEIN 89-4", "zip": "1043 DS", "city": "AMSTERDAM", "support_codes": 15},
{"id": 316552, "swift_code": "CHASNL2XXXX", "bank_code": "CHAS", "branch_code": null, "branch": null, "bank": "JPMORGAN CHASE BANK, N.A.", "address": "ATRIUM BUILDING FLOOR 1 STRAWINSKYLAAN 3035", "zip": "1077 ZX", "city": "AMSTERDAM", "support_codes": 15},
{"id":  48206, "swift_code": "CITCNL2AXXX", "bank_code": "CITC", "branch_code": null, "branch": null, "bank": "CITCO BANK NEDERLAND N.V.", "address": "NARITAWEG 165 TELEPORT 8 - TELESTONE", "zip": "1043 BW", "city": "AMSTERDAM", "support_codes": 7},
{"id": 153662, "swift_code": "CITINL2XXXX", "bank_code": "CITI", "branch_code": null, "branch": null, "bank": "CITIBANK INTERNATIONAL PLC NETHERLANDS BRANCH", "address": "WTC SCHIPHOL TOWER D8 SCHIPHOL BOULEVARD 257", "zip": "1118 BH", "city": "SCHIPHOL", "support_codes": 15},
{"id":   1042, "swift_code": "COBANL2XXXX", "bank_code": "COBA", "branch_code": null, "branch": null, "bank": "COMMERZBANK AG KANTOOR AMSTERDAM", "address": "STRAWINSKYLAAN 2501", "zip": "1077 ZZ", "city": "AMSTERDAM", "support_codes": 15},
{"id":  77847, "swift_code": "DELENL22XXX", "bank_code": "DELE", "branch_code": null, "branch": null, "bank": "OYENS &amp; VAN EEGHEN - part of Delen Private Bank", "address": "", "city": ""},
{"id": 347571, "swift_code": "DEUTNL2AXXX", "bank_code": "DEUT", "branch_code": null, "branch": null, "bank": "DEUTSCHE BANK NEDERLAND N.V.", "address": "DE ENTREE 99-197", "zip": "1101 HE", "city": "AMSTERDAM", "support_codes": 15},
{"id": 229349, "swift_code": "DHBNNL2RXXX", "bank_code": "DHBN", "branch_code": null, "branch": null, "bank": "DEMIR-HALK BANK (NEDERLAND) N.V.", "address": "PARKLAAN 8", "zip": "3016 BB", "city": "ROTTERDAM", "support_codes": 7},
{"id": 176725, "swift_code": "DLBKNL2AXXX", "bank_code": "DLBK", "branch_code": null, "branch": null, "bank": "DELTA LLOYD BANK N.V.", "address": "JOAN MUYSKENWEG 4", "zip": "1096 CJ", "city": "AMSTERDAM"},
{"id":  23325, "swift_code": "DNIBNL2GXXX", "bank_code": "DNIB", "branch_code": null, "branch": null, "bank": "NIBC BANK N.V.", "address": "CARNEGIEPLEIN 4", "zip": "2517 KJ", "city": "DEN HAAG", "support_codes": 1},
{"id":  27746, "swift_code": "EBPBNL22", "bank_code": "EBPB", "branch_code": null, "branch": null, "bank": "EBURY NETHERLANDS (Brussel entiteit)", "address": null, "city": null},
{"id": 312342, "swift_code": "EBURNL21XXX", "bank_code": "EBUR", "branch_code": null, "branch": null, "bank": "EBURY PARTNERS UK LIMITED", "address": "", "city": "", "support_codes": 1},
{"id": 198099, "swift_code": "FBHLNL2AXXX", "bank_code": "FBHL", "branch_code": null, "branch": null, "bank": "CREDIT EUROPE BANK N.V.", "address": "KARSPELDREEF 6A", "zip": "1101 CJ", "city": "AMSTERDAM", "support_codes": 7},
{"id": 308547, "swift_code": "FLORNL2AXXX", "bank_code": "FLOR", "branch_code": null, "branch": null, "bank": "NEDERLANDSCHE BANK (DE) N.V.", "address": "WESTEINDE 1", "zip": "1017 ZN", "city": "AMSTERDAM", "support_codes": 15},
{"id": 413483, "swift_code": "FRNXNL2AXXX", "bank_code": "FRNX", "branch_code": null, "branch": null, "bank": "FRANX B.V.", "address": "", "city": "", "support_codes": 1},
{"id":  25563, "swift_code": "FVLBNL22XXX", "bank_code": "FVLB", "branch_code": null, "branch": null, "bank": "VAN LANSCHOT", "address": "HOOGE STEENWEG 29", "zip": "5211 JN", "city": "S-HERTOGENBOSCH", "support_codes": 15},
{"id":  18855, "swift_code": "FXBBNL22", "bank_code": "FXBB", "branch_code": null, "branch": null, "bank": "IBANFIRST", "address": null, "city": null},
{"id": 200986, "swift_code": "GILLNL2AXXX", "bank_code": "GILL", "branch_code": null, "branch": null, "bank": "INSINGERGILISSEN", "address": "KEIZERSGRACHT 617", "zip": "1017 DS", "city": "AMSTERDAM", "support_codes": 7},
{"id":  61523, "swift_code": "HANDNL2AXXX", "bank_code": "HAND", "branch_code": null, "branch": null, "bank": "SVENSKA HANDELSBANKEN (PUBL) AB", "address": "STRAWINSKYLAAN 3051", "zip": "1077 ZX", "city": "AMSTERDAM", "support_codes": 15},
{"id":    865, "swift_code": "HHBANL22XXX", "bank_code": "HHBA", "branch_code": null, "branch": null, "bank": "HOF HOORNEMAN BANKIERS NV", "address": "OOSTHAVEN 52", "zip": "2801 PE", "city": "GOUDA", "support_codes": 1},
{"id":  36303, "swift_code": "HSBCNL2AXXX", "bank_code": "HSBC", "branch_code": null, "branch": null, "bank": "HSBC BANK PLC.", "address": "DE ENTREE AMSTERDAM ZUIDOOST 242", "zip": "1101 EE", "city": "AMSTERDAM", "support_codes": 15},
{"id":  35888, "swift_code": "ICBCNL2AXXX", "bank_code": "ICBC", "branch_code": null, "branch": null, "bank": "MEGA INTERNATIONAL COMMERCIAL BANK CO, LTD.", "address": "WORLD TRADE CENTER STRAWINSKYLAAN 1203", "zip": "1077 XX", "city": "AMSTERDAM", "support_codes": 7},
{"id": 176496, "swift_code": "ICBKNL2AXXX", "bank_code": "ICBK", "branch_code": null, "branch": null, "bank": "INDUSTRIAL AND COMMERCIAL BANK OF CHINA (EUROPE) S.A. AMSTERDAM BRANCH", "address": "JOHANNES VERMEERSTRAAT 7", "zip": "1071 DK", "city": "AMSTERDAM", "support_codes": 15},
{"id": 266404, "swift_code": "ICEPNL21XXX", "bank_code": "ICEP", "branch_code": null, "branch": null, "bank": "ICEPAY BV", "address": "", "city": "", "support_codes": 1},
{"id":  21978, "swift_code": "INGBNL2AXXX", "bank_code": "INGB", "branch_code": null, "branch": null, "bank": "ING BANK N.V.", "address": "FINANCIAL PLAZA BIJLMERDREEF 109", "zip": "1102 BW", "city": "AMSTERDAM", "support_codes": 15},
{"id":  70780, "swift_code": "ISAENL2AXXX", "bank_code": "ISAE", "branch_code": null, "branch": null, "bank": "CACEIS BANK", "address": "", "city": "", "support_codes": 1},
{"id": 176912, "swift_code": "ISBKNL2AXXX", "bank_code": "ISBK", "branch_code": null, "branch": null, "bank": "ISBANK AG, AMSTERDAM BRANCH", "address": "WTC, TOWER C LEVEL 8 STRAWINSKYLAAN 841", "zip": "1077 XX", "city": "AMSTERDAM", "support_codes": 15},
{"id":    686, "swift_code": "KABANL2AXXX", "bank_code": "KABA", "branch_code": null, "branch": null, "bank": "YAPI KREDI BANK NEDERLAND N.V.", "address": "REMBRANDT TOWER FLOOR 16 AMSTELPLEIN 1", "zip": "1096 HA", "city": "AMSTERDAM", "support_codes": 1},
{"id":  12178, "swift_code": "KASANL2AXXX", "bank_code": "KASA", "branch_code": null, "branch": null, "bank": "KAS BANK N.V", "address": "SPUISTRAAT 172", "zip": "1000 DB", "city": "AMSTERDAM", "support_codes": 15},
{"id":  17924, "swift_code": "KNABNL2HXXX", "bank_code": "KNAB", "branch_code": null, "branch": null, "bank": "KNAB", "address": "CAPELLALAAN 25", "zip": "2132 JK", "city": "HOOFDDORP", "support_codes": 15},
{"id": 407326, "swift_code": "KOEXNL2AXXX", "bank_code": "KOEX", "branch_code": null, "branch": null, "bank": "KOREA EXCHANGE BANK, AMSTERDAM BRANCH", "address": "DR. WILLEN DREESWEG 2", "zip": "1185 VB", "city": "AMSTELVEEN", "support_codes": 7},
{"id":  55884, "swift_code": "KREDNL2XXXX", "bank_code": "KRED", "branch_code": null, "branch": null, "bank": "KBC BANK NV NEDERLAND", "address": "WATERMANWEG 92", "zip": "3067 GG", "city": "ROTTERDAM", "support_codes": 15},
{"id": 423551, "swift_code": "LOCYNL2AXXX", "bank_code": "LOCY", "branch_code": null, "branch": null, "bank": "LOMBARD ODIER (EUROPE) S.A.", "address": "WETERINGPOORT WETERINGSCHANS 109", "zip": "1017 SB", "city": "AMSTERDAM"},
{"id":  69327, "swift_code": "LOYDNL2AXXX", "bank_code": "LOYD", "branch_code": null, "branch": null, "bank": "LLOYDS TSB BANK PLC.", "address": "STATENBOLWERK 1", "zip": "2011 MK", "city": "HAARLEM"},
{"id": 236325, "swift_code": "LPLNNL2FXXX", "bank_code": "LPLN", "branch_code": null, "branch": null, "bank": "LEASEPLAN CORPORATION N.V.", "address": "P.J. OUDWEG 41", "zip": "1314 AL", "city": "ERE-STAD", "support_codes": 1},
{"id":  19122, "swift_code": "MHCBNL2AXXX", "bank_code": "MHCB", "branch_code": null, "branch": null, "bank": "MIZUHO BANK NEDERLAND N.V", "address": "APOLLOLAAN 171", "zip": "1077 AS", "city": "AMSTERDAM", "support_codes": 15},
{"id": 262664, "swift_code": "MOYONL21XXX", "bank_code": "MOYO", "branch_code": null, "branch": null, "bank": "MoneYou (ABN AMRO Bank N.V.)", "address": "", "city": "", "support_codes": 7},
{"id":   1027, "swift_code": "NNBANL2GXXX", "bank_code": "NNBA", "branch_code": null, "branch": null, "bank": "NATIONALE-NEDERLANDEN BANK N.V.", "address": "HP E.10.038 PRINSES BEATRIXLAAN 35", "zip": "2595 AK", "city": "DEN HAAG", "support_codes": 7},
{"id":  18161, "swift_code": "NWABNL2GXXX", "bank_code": "NWAB", "branch_code": null, "branch": null, "bank": "NEDERLANDSE WATERSCHAPSBANK N.V.", "address": "ROOSEVELTPLANTSOEN 3", "zip": "2517 KR", "city": "DEN HAAG", "support_codes": 7},
{"id":  35895, "swift_code": "PCBCNL2AXXX", "bank_code": "PCBC", "branch_code": null, "branch": null, "bank": "CHINA CONSTRUCTION BANK AMSTERDAM BRANCH", "address": "STRAWINSKYLAAN 3051", "zip": "1077 ZX", "city": "AMSTERDAM", "support_codes": 1},
{"id": 246757, "swift_code": "RABONL2UXXX", "bank_code": "RABO", "branch_code": null, "branch": null, "bank": "RABOBANK NEDERLAND", "address": "CROESELAAN 18", "zip": "3500 HG", "city": "UTRECHT", "support_codes": 15},
{"id":  29111, "swift_code": "RBRBNL21XXX", "bank_code": "RBRB", "branch_code": null, "branch": null, "bank": "REGIOBANK", "address": "CROESELAAN 1", "zip": "3521 BJ", "city": "UTRECHT", "support_codes": 15},
{"id":  30100, "swift_code": "SNSBNL2AXXX", "bank_code": "SNSB", "branch_code": null, "branch": null, "bank": "SNS BANK N.V.", "address": "UTRECHTSESTRAAT 46", "zip": "6800 HW", "city": "ARNHEM", "support_codes": 15},
{"id":  74742, "swift_code": "SOGENL2AXXX", "bank_code": "SOGE", "branch_code": null, "branch": null, "bank": "SOCIETE GENERALE", "address": "REMBRANDT TOWER AMSTELPLEIN 1", "zip": "1096 HA", "city": "AMSTERDAM", "support_codes": 15},
{"id": 251933, "swift_code": "TRIONL2UXXX", "bank_code": "TRIO", "branch_code": null, "branch": null, "bank": "TRIODOS BANK N.V.", "address": "UTRECHTSEWEG 60", "zip": "3704 HE", "city": "ZEIST", "support_codes": 15},
{"id": 141460, "swift_code": "UGBINL2AXXX", "bank_code": "UGBI", "branch_code": null, "branch": null, "bank": "GARANTIBANK INTERNATIONAL N.V.", "address": "KEIZERSGRACHT 569-575", "zip": "1017 DR", "city": "AMSTERDAM", "support_codes": 7},
{"id":  15257, "swift_code": "VOWANL21XXX", "bank_code": "VOWA", "branch_code": null, "branch": null, "bank": "VOLKSWAGEN BANK GMBH FILIAAL NEDERLAND", "address": "TERMINALWEG 20", "zip": "3821 AJ", "city": "AMERSFOORT", "support_codes": 15},
{"id": 422235, "swift_code": "VPAYNL22XXX", "bank_code": "VPAY", "branch_code": null, "branch": null, "bank": "VIVA PAYMENT SERVICES S.A.", "address": "", "city": "", "support_codes": 1},
{"id":  25609, "swift_code": "ZWLBNL21XXX", "bank_code": "ZWLB", "branch_code": null, "branch": null, "bank": "SNS BANK", "address": "", "city": "", "support_codes": 7}
    ]
}
