{
    "country": "Serbia",
    "country_code": "RS",
    "ISO_3166_1": { "name": "Serbia" , "name_fr": "Serbie (la)" , "alpha2": "RS" , "alpha3": "SRB" , "numeric": 688 },
    "list": [
{"branch_code":null,"zip":"18000","bank_code":105,"bank":"AIK BANKA AD","address":"NIKOLE PASICA 42","city":"NIS","swift_code":"AIKBRS22XXX","id":105000,"branch":null},
{"branch_code":null,"zip":"11030","bank_code":115,"bank":"MOBI BANKA AD","address":"POZESKA 65 B","city":"BEOGRAD","swift_code":"AAAARSBGXXX","id":115000,"branch":null},
{"branch_code":null,"zip":"11070","bank_code":125,"bank":"PIRAEUS BANK AD BEOGRAD","address":"MILENTIJA POPOVICA 5B","city":"BEOGRAD","swift_code":"PIRBRSBGXXX","id":125000},
{"branch_code":null,"zip":"11000","bank_code":145,"bank":"EXPOBANK AD BEOGRAD","address":"DALMATINSKA 22","city":"BEOGRAD","swift_code":"LIKIRSBGXXX","id":145000,"branch":null},
{"branch_code":null,"zip":"34000","bank_code":150,"bank":"DIREKTNA BANKA AD KRAGUJEVAC","address":"KRALJA PETRA I BR.13","city":"KRAGUJEVAC","swift_code":"KRAGRS22XXX","id":150000,"branch":null},
{"branch_code":null,"zip":"32000","bank_code":155,"bank":"HALKBANK A.D. BEOGRAD","address":"PIVARSKA 1","city":"CACAK","swift_code":"CABARS22XXX","id":155000,"branch":null},
{"branch_code":null,"zip":"11070","bank_code":160,"bank":"BANCA INTESA AD, BEOGRAD","address":"MILENTIJA POPOVICA 7B","city":"BEOGRAD","swift_code":"DBDBRSBGXXX","id":160000,"branch":null},
{"branch_code":null,"zip":"11070","bank_code":165,"bank":"Addiko Bank","address":"PC USCE BULEVAR MIHAILA PUPINA 6","city":"BEOGRAD","swift_code":"HAABRSBGXXX","id":165000,"branch":null},
{"branch_code":null,"zip":"11000","bank_code":170,"bank":"UNICREDIT BANK SRBIJA A.D.","address":"RAJICEVA 27-29","city":"BEOGRAD","swift_code":"BACXRSBGXXX","id":170000,"branch":null},
{"branch_code":null,"zip":"11000","bank_code":180,"bank":"ALPHA BANK SRBIJA AD","address":"KRALJA MILANA 11","city":"BEOGRAD","swift_code":"JUBARSBGXXX","id":180000},
{"branch_code":null,"zip":"11070","bank_code":190,"bank":"JUBMES BANKA A.D. BEOGRAD","address":"BULEVAR ZORANA DJINDJICA 121","city":"BEOGRAD","swift_code":"JMBNRSBGXXX","id":190000,"branch":null},
{"branch_code":null,"zip":"11000","bank_code":200,"bank":"POSTAL SAVINGS BANK JSC","address":"KRALJICE MARIJE 3","city":"BEOGRAD","swift_code":"SBPORSBG100","id":200001,"branch":"(CORPORATE CUSTOMERS)"},
{"branch_code":null,"zip":"11000","bank_code":200,"bank":"POSTAL SAVINGS BANK JSC","address":"KRALJICE MARIJE 3","city":"BEOGRAD","swift_code":"SBPORSBGXXX","id":200000,"branch":null},
{"branch_code":null,"zip":"11000","bank_code":205,"bank":"KOMERCIJALNA BANKA A.D. BEOGRAD","address":"SVETOG SAVE 14","city":"BEOGRAD","swift_code":"KOBBRSBGXXX","id":205000,"branch":null},
{"branch_code":null,"zip":"11000","bank_code":220,"bank":"PROCREDIT BANK A.D. BELGRADE","address":"BULEVAR DESPOTA STEFANA 68C","city":"BEOGRAD","swift_code":"PRCBRSBGXXX","id":220000,"branch":null},
{"branch_code":null,"zip":"11070","bank_code":240,"bank":"FINDOMESTIC BANKA AD","address":"BULEVAR MIHAILA PUPINA 115 A","city":"BEOGRAD","swift_code":"FIDMRSBGXXX","id":240000},
{"branch_code":null,"zip":""     ,"bank_code":245,"bank":"NOVA AGROBANKA","address":"","city":"","swift_code":"NAGRRSBGXXX","id":245000},
{"branch_code":null,"zip":"11000","bank_code":250,"bank":"EUROBANK AD","address":"VUKA KARADZICA 10","city":"BEOGRAD","swift_code":"ERBKRSBGSEC","id":250001,"branch":"(CUSTODY UNIT)"},
{"branch_code":null,"zip":"11000","bank_code":250,"bank":"EUROBANK AD","address":"VUKA KARADZICA 10","city":"BEOGRAD","swift_code":"ERBKRSBGXXX","id":250000,"branch":null},
{"branch_code":null,"zip":"11000","bank_code":255,"bank":"PRIVREDNA BANKA BEOGRAD DD BEOGRAD","address":"FRANCUSKA 14","city":"BEOGRAD","swift_code":"PBBBRSBGXXX","id":255000},
{"branch_code":null,"zip":""     ,"bank_code":260,"bank":"NLB BANKA AD BEOGRAD","address":"","city":"","swift_code":"CONARS22XXX","id":260000,"branch":null},
{"branch_code":null,"zip":"11070","bank_code":265,"bank":"RAIFFEISEN BANKA A.D.","address":"DJORDJA STANOJEVICA 16","city":"BEOGRAD","swift_code":"RZBSRSBGXXX","id":265000,"branch":null},
{"branch_code":null,"zip":"11070","bank_code":275,"bank":"OTP BANKA SRBIJA AD BEOGRAD","address":"BULEVAR ZORANA DJINDJICA 50 A\/B","city":"BEOGRAD","swift_code":"SOGYRSBGXXX","id":275000,"branch":null},
{"branch_code":null,"zip":"11070","bank_code":285,"bank":"SBERBANK SRBIJA A.D.","address":"BULEVAR MIHAILA PUPINA 165G","city":"BEOGRAD","swift_code":"SABRRSBGXXX","id":285000,"branch":null},
{"branch_code":null,"zip":"11000","bank_code":290,"bank":"UNIVERZAL BANKA AD","address":"27, MART 39","city":"BEOGRAD","swift_code":"UBBGRSBGXXX","id":290000},
{"branch_code":null,"zip":"11000","bank_code":295,"bank":"SRPSKA BANKA A.D.","address":"SAVSKA 25","city":"BEOGRAD","swift_code":"SRBNRSBGXXX","id":295000,"branch":null},
{"branch_code":null,"zip":"11070","bank_code":310,"bank":"NLB BANKA A.D. BEOGRAD","address":"BULEVAR MIHAJLA PUPINA 165 V","city":"NOVI BEOGRAD","swift_code":"CONARS22XXX","id":310000,"branch":null},
{"branch_code":null,"zip":"21000","bank_code":325,"bank":"VOJVODJANSKA BANKA A.D. ","address":"80 BULEVAR OSLOBODJENJA","city":"NOVI SAD","swift_code":"OTPVRS22XXX","id":325000,"branch":null},
{"branch_code":null,"zip":"21000","bank_code":330,"bank":"CREDIT AGRICOLE SRBIJA AD NOVI SAD","address":"BRACE RIBNIKARA 4-6","city":"NOVI SAD","swift_code":"MEBARS22XXX","id":330000,"branch":null},
{"branch_code":null,"zip":""     ,"bank_code":335,"bank":"RAZVOJNA BANKA VOJVODINE A.D.","address":"","city":"","swift_code":"RBVORS22XXX","id":335000},
{"branch_code":null,"zip":"21000","bank_code":340,"bank":"ERSTE BANK A.D. NOVI SAD","address":"BULEVAR OSLOBODJENJA 5","city":"NOVI SAD","swift_code":"GIBARS22XXX","id":340000,"branch":null},
{"branch_code":null,"zip":""     ,"bank_code":345,"bank":"BANCA INTESA AD","address":"","city":"","swift_code":"DBDBRSBGXXX","id":345000,"branch":null},
{"branch_code":null,"zip":"21000","bank_code":355,"bank":"VOJVODJANSKA BANKA D.D.","address":"TRG SLOBODE 7","city":"NOVI SAD","swift_code":"VBUBRS22XXX","id":355000},
{"branch_code":null,"zip":"11000","bank_code":360,"bank":"MTS BANK A.D. BEOGRAD","address":"BUL.FRANSE D'EPERE 88","city":"BEOGRAD","swift_code":"KMEBRS2ZXXX","id":360000,"branch":null},
{"branch_code":null,"zip":"21000","bank_code":370,"bank":"OPPORTUNITY BANKA A.D. NOVI SAD","address":"BULEVAR OSLOBODJENJA 2A","city":"NOVI SAD","swift_code":"OPPBRS22XXX","id":370000,"branch":null},
{"branch_code":null,"zip":"11000","bank_code":375,"bank":"API BANK AD BEOGRAD","address":"BALKANSKA 2","city":"BEOGRAD","swift_code":"APIBRSBGXXX","id":375000,"branch":null},
{"branch_code":null,"zip":"11070","bank_code":380,"bank":"MIRABANK","address":"SPANSKIH BORACA 3 BLUE CENTER 3","city":"NOVI BEOGRAD","swift_code":"MRBNRSBGXXX","id":380000,"branch":null},
{"branch_code":null,"zip":""     ,"bank_code":385,"bank":"BANK OF CHINA","address":"","city":"","swift_code":"BKCHRSBGXXX","id":385000,"branch":null},
{"branch_code":null,"zip":""     ,"bank_code":780,"bank":"NATIONAL BANK OF SERBIA","address":"","city":"","swift_code":"NBSRRSBGXXX","id":780000,"branch":null},
{"branch_code":null,"zip":""     ,"bank_code":840,"bank":"GOVERNMENT OF THE REPUBLIC OF SERBIA MINISTRY OF FINANCE","address":"","city":"","swift_code":"UPSRRSB1XXX","id":840000,"branch":null},
{"branch_code":null,"zip":""     ,"bank_code":845,"bank":"NATIONAL BANK OF SERBIA","address":"","city":"","swift_code":"NBSRRSBGXXX","id":845000,"branch":null},
{"branch_code":null,"zip":"11000","bank_code":908,"bank":"NARODNA  BANKA  SRBIJE","address":"NEMANJINA 17","city":"BEOGRAD","swift_code":"NBSRRSBGXXX","id":908000,"branch":null},
{"branch_code":null,"zip":""     ,"bank_code":980,"bank":"NARODNA BANKA SRBIJE","address":"","city":"","swift_code":"NBSRRSBGXXX","id":980000,"branch":null}
    ]
}
